<?xml version='1.0' encoding='utf-8'?>
<osm generator="OSM Conflator 1.3.1" version="0.6"><changeset><tag k="created_by" v="OSM Conflator 1.3.1" /><tag k="source" v="RAFVG" /><tag k="type" v="import" /></changeset><node action="modify" id="3840450963" lat="46.1817766" lon="12.9465751" version="1"><tag k="ref" v="2611" /><tag k="addr:housenumber" v="19" /><tag k="source" v="http://www.bbalice.it/" /><tag k="addr:city" v="Pinzano al Tagliamento" /><tag k="phone" v="+39 333 3659335" /><tag k="fax" v="+39 0432 950647" /><tag k="name" v="Bed &amp; Breakfast Alice" /><tag k="rooms" v="2" /><tag k="addr:postcode" v="33094" /><tag k="tourism" v="guest_house" /><tag k="addr:street" v="Via Circonvallazione" /><tag k="address" v="Via Circonvallazione 19, PINZANO AL TAGLIAMENTO" /><tag k="opening_hours" v="Jan 01 - Jan 30, Mar 01 - Apr 30, Jun 01 - Sep 30, Dec 01 - Dec 31" /><tag k="operator" v="Mingolo Ombretta" /><tag k="beds" v="4" /></node><node action="modify" id="4177309586" lat="46.5071219" lon="13.5395191" version="3"><tag k="ref" v="35180" /><tag k="addr:housenumber" v="18/B" /><tag k="addr:city" v="Tarvisio" /><tag k="address" v="Via Lussari  18/B, TARVISIO" /><tag k="fax" v="+39 0428 40457" /><tag k="phone" v="+39 334 3857292" /><tag k="name" v="Al Sentiero" /><tag k="rooms" v="3" /><tag k="addr:postcode" v="33010" /><tag k="tourism" v="guest_house" /><tag k="addr:street" v="Via Lussari" /><tag k="opening_hours" v="Jan 01 - Dec 31" /><tag k="operator" v="Comelli Giulia" /><tag k="beds" v="6" /></node><way action="modify" id="36157017" version="4"><tag k="ref" v="33180" /><tag k="it:fvg:ctrn:code" v="4AED" /><tag k="addr:housenumber" v="129" /><tag k="addr:city" v="Udine" /><tag k="phone" v="+39 328 2660808" /><tag k="addr:postcode" v="33100" /><tag k="email" v="info@algattorosso.com" /><tag k="name" v="Al Gatto Rosso" /><tag k="website" v="www.algattorosso.com" /><tag k="rooms" v="4" /><tag k="addr:housename" v="via Baldasseria media" /><tag k="tourism" v="guest_house" /><tag k="addr:street" v="Via Baldasseria Media" /><tag k="height" v="7 m" /><tag k="opening_hours" v="Jan 01 - Jan 06, Jan 18 - Feb 17, Mar 01 - Dec 31" /><tag k="address" v="Via Baldasseria Media 129, UDINE" /><tag k="it:fvg:ctrn:revision" v="1A0" /><tag k="operator" v="Contardo Fabio" /><tag k="beds" v="8" /><nd ref="422163792" /><nd ref="422163793" /><nd ref="422163794" /><nd ref="422163795" /><nd ref="422163796" /><nd ref="422163797" /><nd ref="422163798" /><nd ref="422163799" /><nd ref="422163792" /></way><node action="modify" id="4818790498" lat="46.0399196" lon="13.2553496" version="1"><tag k="rooms" v="1" /><tag k="phone" v="+39 348 7210734" /><tag k="tourism" v="guest_house" /><tag k="beds" v="2" /><tag k="address" v="Via Baldasseria Bassa 237, UDINE" /><tag k="fax" v="+39 348 7210734" /><tag k="operator" v="Fabrizio Lazzati" /><tag k="opening_hours" v="May 01 - Dec 31" /><tag k="email" v="info@accantoalfocolare.it" /><tag k="name" v="Accanto al Focolare" /><tag k="ref" v="68242" /></node><node action="modify" id="1120210242" lat="46.0677359" lon="13.2451762" version="1"><tag k="rooms" v="2" /><tag k="address" v="Viale Trieste 18, UDINE" /><tag k="tourism" v="guest_house" /><tag k="beds" v="5" /><tag k="fax" v="+39 0432 510468" /><tag k="phone" v="+39 0432 510468" /><tag k="opening_hours" v="Jan 01 - Jul 28, Aug 26 - Dec 31" /><tag k="email" v="linozp@gmail.com" /><tag k="operator" v="Pintor Andrea" /><tag k="name" v="Al Teatro" /><tag k="ref" v="33344" /></node><node action="modify" id="2412154733" lat="45.9694147" lon="12.6465523" version="1"><tag k="rooms" v="3" /><tag k="operator" v="Rosset Tiziana" /><tag k="tourism" v="guest_house" /><tag k="beds" v="7" /><tag k="opening_hours" v="Mar 01 - Dec 31" /><tag k="address" v="Via della Resistenza 10, PORDENONE" /><tag k="email" v="bbpordenone@gmail.com" /><tag k="name" v="Girasole" /><tag k="ref" v="52180" /></node><node action="modify" id="2975034449" lat="46.0604458" lon="12.9832049" version="1"><tag k="rooms" v="1" /><tag k="address" v="Via divisione Julia 12, FLAIBANO" /><tag k="tourism" v="guest_house" /><tag k="beds" v="3" /><tag k="fax" v="+39 0432 869269" /><tag k="phone" v="+39 0432 869269" /><tag k="opening_hours" v="Mar 01 - Dec 30" /><tag k="email" v="massimiliano.fabbro@gmail.com" /><tag k="operator" v="Maria Luisa" /><tag k="name" v="B&amp;B Da Luisa" /><tag k="ref" v="55500" /></node><way action="modify" id="35944930" version="2"><tag k="it:fvg:ctrn:code" v="4AED" /><tag k="address" v="Via Tors 20, FORNI AVOLTRI" /><tag k="building" v="yes" /><tag k="email" v="annalisa.michel@gmail.com" /><tag k="name" v="B&amp;B La casa delle Streghe" /><tag k="rooms" v="3" /><tag k="ref" v="2363" /><tag k="tourism" v="guest_house" /><tag k="beds" v="6" /><tag k="height" v="11 m" /><tag k="opening_hours" v="Jan 01 - Apr 01, May 01 - Sep 30, Dec 01 - Dec 31" /><tag k="operator" v="Michel Annalisa" /><tag k="it:fvg:ctrn:revision" v="000" /><nd ref="420207147" /><nd ref="420207149" /><nd ref="420207151" /><nd ref="420207153" /><nd ref="420207155" /><nd ref="420207157" /><nd ref="420207159" /><nd ref="420207161" /><nd ref="420207163" /><nd ref="420207165" /><nd ref="420207168" /><nd ref="420207170" /><nd ref="420207172" /><nd ref="420207174" /><nd ref="420207147" /></way><node action="modify" id="5367756842" lat="45.9695468" lon="12.4887777" version="1"><tag k="fax" v="+39 0434 734853" /><tag k="phone" v="+39 0434 734853" /><tag k="email" v="calivenza@libero.it" /><tag k="name" v="B&amp;B Ca' Livenza" /><tag k="website" v="http://www.calivenza.it" /><tag k="rooms" v="3" /><tag k="address" v="Via Ronche 72, SACILE" /><tag k="tourism" v="guest_house" /><tag k="beds" v="6" /><tag k="opening_hours" v="Jan 01 - Jan 03, Jan 11 - Mar 14, Mar 19 - Oct 03, Oct 08 - Dec 31" /><tag k="ref" v="35280" /><tag k="operator" v="Vicenzot Carla" /></node><way action="modify" id="36357180" version="4"><tag k="ref" v="60080" /><tag k="it:fvg:ctrn:code" v="4AED" /><tag k="fax" v="+39 0432 999262" /><tag k="address" v="Via Aquileia 1, TRIVIGNANO UDINESE" /><tag k="building" v="yes" /><tag k="email" v="laura.paviotti@gmail.com" /><tag k="name" v="Alla Piazzetta" /><tag k="rooms" v="3" /><tag k="phone" v="+39 0432 999262" /><tag k="tourism" v="guest_house" /><tag k="beds" v="5" /><tag k="height" v="9 m" /><tag k="opening_hours" v="Jan 01 - Jan 31, Mar 01 - Dec 31" /><tag k="operator" v="Cleri Laura" /><tag k="it:fvg:ctrn:revision" v="1A0" /><nd ref="424028562" /><nd ref="424028563" /><nd ref="424028565" /><nd ref="424028566" /><nd ref="424028568" /><nd ref="424028570" /><nd ref="424028571" /><nd ref="424028573" /><nd ref="424028575" /><nd ref="424028576" /><nd ref="424028577" /><nd ref="424028599" /><nd ref="424028601" /><nd ref="424028603" /><nd ref="424028604" /><nd ref="424028562" /></way><way action="modify" id="36353613" version="3"><tag k="it:fvg:ctrn:code" v="4AED" /><tag k="fax" v="+39 0481 391877" /><tag k="address" v="Via Brigata Cuneo 20, GORIZIA" /><tag k="building" v="yes" /><tag k="email" v="info@bbflumen.it" /><tag k="name" v="B&amp;B Flumen" /><tag k="website" v="http://www.bbflumen.it" /><tag k="rooms" v="3" /><tag k="phone" v="+39 0481 391877" /><tag k="tourism" v="guest_house" /><tag k="beds" v="8" /><tag k="height" v="7 m" /><tag k="opening_hours" v="Jan 01 - Jan 09, Jan 21 - Jan 29, Feb 04 - Feb 26, Mar 04 - Jul 29, Aug 05 - Dec 11, Dec 16 - Dec 31" /><tag k="ref" v="38620" /><tag k="it:fvg:ctrn:revision" v="1A0" /><tag k="operator" v="Katja Klanjscek" /><nd ref="423997182" /><nd ref="425278424" /><nd ref="425278432" /><nd ref="425278431" /><nd ref="425278430" /><nd ref="425278429" /><nd ref="423997182" /></way><node id="-1" lat="46.0298208" lon="13.2964182" version="1"><tag k="fax" v="+39 0432 670459" /><tag k="phone" v="+39 0432 670459" /><tag k="email" v="bbottelio@libero.it" /><tag k="name" v="B&amp;B di Villa Ottelio" /><tag k="website" v="http://www.bbottelio.eu" /><tag k="rooms" v="3" /><tag k="address" v="Via Torricelle 20, PRADAMANO" /><tag k="tourism" v="guest_house" /><tag k="beds" v="8" /><tag k="opening_hours" v="Jan 01 - Jan 20, Feb 22 - Dec 31" /><tag k="ref" v="2361" /><tag k="operator" v="Miani Mercede" /></node><node id="-2" lat="46.5079995" lon="13.3086305" version="1"><tag k="rooms" v="3" /><tag k="operator" v="Buzzi Fulvia" /><tag k="ref" v="2364" /><tag k="tourism" v="guest_house" /><tag k="beds" v="6" /><tag k="opening_hours" v="Jan 01 - Apr 02, Apr 29 - Aug 18, Sep 18 - Dec 05, Dec 24 - Dec 31" /><tag k="address" v="Via della Chiesa 22, PONTEBBA" /><tag k="email" v="tafamee@libero.it" /><tag k="name" v="Ta Famée" /><tag k="website" v="http://www.tafamee.it" /></node><node id="-3" lat="45.6592537" lon="13.7720382" version="1"><tag k="fax" v="+39 040 411593" /><tag k="phone" v="+39 040 411593" /><tag k="email" v="decobbtrieste@virgilio.it" /><tag k="name" v="Decò" /><tag k="website" v="http://www.decobbtrieste.tk" /><tag k="rooms" v="2" /><tag k="address" v="Scala al Belvedere 2, TRIESTE" /><tag k="tourism" v="guest_house" /><tag k="beds" v="6" /><tag k="opening_hours" v="Jan 01 - Jan 20, Feb 20 - Feb 27, Feb 28 - Dec 31" /><tag k="ref" v="2366" /><tag k="operator" v="Torregiani Davide" /></node><node id="-4" lat="46.224488" lon="13.2483584" version="1"><tag k="rooms" v="2" /><tag k="phone" v="+39 0432 785105" /><tag k="tourism" v="guest_house" /><tag k="beds" v="5" /><tag k="fax" v="+39 0432 785105" /><tag k="address" v="Via Bernadia 98, TARCENTO" /><tag k="opening_hours" v="Apr 01 - Dec 31" /><tag k="operator" v="Jannis Adriano" /><tag k="name" v="Da Lisute" /><tag k="ref" v="2367" /></node><node id="-5" lat="45.9083235" lon="13.1873041" version="1"><tag k="fax" v="+39 0432 768743" /><tag k="phone" v="+39 0432 768743" /><tag k="email" v="basello.e@tiscali.it" /><tag k="name" v="Bed&amp;breakfast Basello" /><tag k="website" v="http://www.basellosilviano.it" /><tag k="rooms" v="3" /><tag k="address" v="Vicolo Cornelio Gallo  7/B, CASTIONS DI STRADA" /><tag k="tourism" v="guest_house" /><tag k="beds" v="6" /><tag k="opening_hours" v="Jan 01 - Sep 30, Oct 26 - Dec 31" /><tag k="ref" v="2377" /><tag k="operator" v="Basello Silviano" /></node><node id="-6" lat="45.8656618" lon="13.4787575" version="1"><tag k="rooms" v="2" /><tag k="operator" v="Zonca Marco" /><tag k="ref" v="2379" /><tag k="tourism" v="guest_house" /><tag k="beds" v="6" /><tag k="opening_hours" v="Jan 01 - Aug 31, Sep 16 - Dec 31" /><tag k="address" v="Via Cau de Soto  27/12, FOGLIANO REDIPUGLIA" /><tag k="email" v="marco@xweek.it" /><tag k="name" v="Xweek" /><tag k="website" v="http://www.xweek.it" /></node><node id="-7" lat="46.1267605" lon="13.577148" version="1"><tag k="fax" v="+39 0432 724192" /><tag k="phone" v="+39 0432 724192" /><tag k="email" v="teresa.postregna@gmail.com" /><tag k="name" v="Oasi di Pace Draha" /><tag k="website" v="http://oasidipacedraha.postregna.name" /><tag k="rooms" v="3" /><tag k="address" v="Via Stregna 17, STREGNA" /><tag k="tourism" v="guest_house" /><tag k="beds" v="6" /><tag k="opening_hours" v="Jan 01 - May 25, Jun 15 - Dec 20" /><tag k="ref" v="2388" /><tag k="operator" v="Postregna Teresa" /></node><node id="-8" lat="46.0639" lon="13.2375008" version="1"><tag k="fax" v="+39 0432 501174" /><tag k="phone" v="+39 0432 501174" /><tag k="email" v="fabiola.asquini@libero.it" /><tag k="name" v="Camera Con Vista" /><tag k="website" v="http://www.manin16.it" /><tag k="rooms" v="1" /><tag k="address" v="Via Daniele Manin 16, UDINE" /><tag k="tourism" v="guest_house" /><tag k="beds" v="3" /><tag k="opening_hours" v="Jan 01 - Jan 15, Feb 01 - Dec 31" /><tag k="ref" v="2392" /><tag k="operator" v="Asquini Fabiola" /></node><node id="-9" lat="46.5394207" lon="13.1268078" version="1"><tag k="fax" v="+39 0433 70643" /><tag k="phone" v="+39 0433 70643" /><tag k="email" v="ileniafabiani@libero.it" /><tag k="name" v="Ravinis" /><tag k="website" v="http://www.bedandbreakfastravinis.it" /><tag k="rooms" v="3" /><tag k="address" v="Via Monte Pizzul 17, PAULARO" /><tag k="tourism" v="guest_house" /><tag k="beds" v="6" /><tag k="opening_hours" v="Jan 01 - Jan 15, Mar 20 - Apr 20, Jun 15 - Sep 15, Dec 15 - Dec 31" /><tag k="ref" v="2395" /><tag k="operator" v="Maion Endrio" /></node><node id="-10" lat="46.1269504" lon="13.5770014" version="1"><tag k="fax" v="+39 0432 724215  328 4205161" /><tag k="phone" v="+39 0432 724215  328 4205161" /><tag k="email" v="dbertoldi@libero.it" /><tag k="name" v="Casanatura" /><tag k="website" v="http://www.bbcasanatura.it" /><tag k="rooms" v="2" /><tag k="address" v="Via Stregna  11/B, STREGNA" /><tag k="tourism" v="guest_house" /><tag k="beds" v="5" /><tag k="opening_hours" v="Mar 23 - Nov 04, Dec 06 - Dec 31" /><tag k="ref" v="2407" /><tag k="operator" v="Bertoldi Diana" /></node><node id="-11" lat="45.8308888" lon="13.3317723" version="1"><tag k="rooms" v="4" /><tag k="address" v="Via Carnia 15, CERVIGNANO DEL FRIULI" /><tag k="tourism" v="guest_house" /><tag k="beds" v="8" /><tag k="fax" v="+39 0431 31803" /><tag k="phone" v="+39 0431 31803" /><tag k="opening_hours" v="Mar 01 - Dec 31" /><tag k="email" v="casabreta@tiscali.it" /><tag k="operator" v="Versolatto Rita" /><tag k="name" v="Casa Breta" /><tag k="ref" v="2413" /></node><node id="-12" lat="46.0952705" lon="13.4517449" version="1"><tag k="rooms" v="3" /><tag k="operator" v="Canzutti Marisa" /><tag k="tourism" v="guest_house" /><tag k="beds" v="6" /><tag k="opening_hours" v="Jan 07 - Dec 24" /><tag k="address" v="Via Purgessimo  40/1, CIVIDALE DEL FRIULI" /><tag k="email" v="ccmarisa@libero.it" /><tag k="name" v="Marisa" /><tag k="ref" v="2415" /></node><node id="-13" lat="46.1704144" lon="13.0241255" version="1"><tag k="rooms" v="2" /><tag k="phone" v="+39 0432 941044" /><tag k="tourism" v="guest_house" /><tag k="beds" v="5" /><tag k="fax" v="+39 0432 941044" /><tag k="address" v="Via Osoppo 111, SAN DANIELE DEL FRIULI" /><tag k="opening_hours" v="Mar 01 - Oct 31" /><tag k="ref" v="2418" /></node><node id="-14" lat="45.6425709" lon="13.7887059" version="1"><tag k="rooms" v="1" /><tag k="address" v="Via Pasquale Revoltella 6, TRIESTE" /><tag k="tourism" v="guest_house" /><tag k="beds" v="3" /><tag k="fax" v="+39 040 395941" /><tag k="phone" v="+39 040 395941" /><tag k="opening_hours" v="Jan 01 - Jan 10, Jan 20 - Feb 20, Mar 01 - May 08, May 12 - Oct 18, Oct 23 - Dec 31" /><tag k="email" v="kravanja.maria@libero.it" /><tag k="operator" v="Kravanja Maria" /><tag k="name" v="Priscilla" /><tag k="ref" v="2419" /></node><node id="-15" lat="45.9787838" lon="13.4461766" version="1"><tag k="fax" v="+39 0432 753263" /><tag k="phone" v="+39 0432 753263" /><tag k="email" v="casaduetigli@yahoo.it" /><tag k="name" v="Casa 2 Tigli" /><tag k="website" v="http://www.casaduetigli.it" /><tag k="rooms" v="3" /><tag k="address" v="Via San Martino 4, CORNO DI ROSAZZO" /><tag k="tourism" v="guest_house" /><tag k="beds" v="6" /><tag k="opening_hours" v="Mar 20 - Jul 05, Jul 20 - Dec 31" /><tag k="ref" v="2424" /><tag k="operator" v="Carpenetti Umberto" /></node><node id="-16" lat="46.507986" lon="13.5433225" version="1"><tag k="rooms" v="2" /><tag k="address" v="Via Alpi Giulie 39, TARVISIO" /><tag k="tourism" v="guest_house" /><tag k="beds" v="6" /><tag k="fax" v="+39 0428 40248" /><tag k="phone" v="+39 0428 40248" /><tag k="opening_hours" v="Jan 01 - May 30, Jun 30 - Sep 30, Oct 30 - Dec 31" /><tag k="email" v="laracorte@virgilio.it" /><tag k="operator" v="Bortot Maria" /><tag k="name" v="Casa Corte Lara" /><tag k="ref" v="2432" /></node><node id="-17" lat="46.5072408" lon="13.5985547" version="1"><tag k="fax" v="+39 0428 2884" /><tag k="phone" v="+39 0428 2884" /><tag k="email" v="cristina.liva@virgilio.it" /><tag k="name" v="Cristal" /><tag k="website" v="http://www.babcristaltarvisio.it" /><tag k="rooms" v="2" /><tag k="address" v="Via Ferrovia 7, TARVISIO" /><tag k="tourism" v="guest_house" /><tag k="beds" v="5" /><tag k="opening_hours" v="Jan 01 - Mar 30, Jun 01 - Sep 30, Dec 01 - Dec 31" /><tag k="ref" v="2434" /><tag k="operator" v="Liva Cristina" /></node><node id="-18" lat="46.5018815" lon="13.5885899" version="1"><tag k="rooms" v="2" /><tag k="address" v="Via Gorizia 20, TARVISIO" /><tag k="tourism" v="guest_house" /><tag k="beds" v="6" /><tag k="fax" v="+39 0428 40136" /><tag k="phone" v="+39 0428 40136" /><tag k="opening_hours" v="Jan 01 - Apr 30, Jun 01 - Dec 31" /><tag k="email" v="misscharly2002@libero.it" /><tag k="operator" v="Svetina Carla" /><tag k="name" v="Da Carla" /><tag k="ref" v="2435" /></node><node id="-19" lat="46.5050508" lon="13.4194827" version="1"><tag k="rooms" v="2" /><tag k="phone" v="+39 0428 60079" /><tag k="tourism" v="guest_house" /><tag k="beds" v="4" /><tag k="fax" v="+39 0428 60079" /><tag k="address" v="via Nazionale 5, MALBORGHETTO VALBRUNA" /><tag k="opening_hours" v="Jan 01 - Apr 30, Jun 01 - Sep 30, Dec 01 - Dec 31" /><tag k="operator" v="Gelbmann Geltrude" /><tag k="name" v="Casa Al Salice" /><tag k="ref" v="2437" /></node><node id="-20" lat="45.6722343" lon="13.7954939" version="1"><tag k="fax" v="+39 040 414956" /><tag k="phone" v="+39 040 414956" /><tag k="email" v="bruno.cavicchioli@alice.it" /><tag k="name" v="Panorama" /><tag k="website" v="http://www.bbpanorama.eu" /><tag k="rooms" v="2" /><tag k="address" v="Via della Bellavista 77, TRIESTE" /><tag k="tourism" v="guest_house" /><tag k="beds" v="4" /><tag k="opening_hours" v="Jan 01 - Jan 17, Feb 22 - Nov 12, Nov 19 - Dec 31" /><tag k="ref" v="2440" /><tag k="operator" v="Villa Liana" /></node><node id="-21" lat="45.9538702" lon="13.4647785" version="1"><tag k="rooms" v="4" /><tag k="operator" v="Brandolin Anna" /><tag k="ref" v="2455" /><tag k="tourism" v="guest_house" /><tag k="beds" v="8" /><tag k="opening_hours" v="Mar 15 - Dec 15" /><tag k="address" v="Via Ara Pacis 22, CORMONS" /><tag k="email" v="annabrandolin@tiscali.it" /><tag k="name" v="La Casa di Alice" /><tag k="website" v="http://www.wel.it/alice" /></node><node id="-22" lat="46.1487209" lon="13.3443785" version="1"><tag k="rooms" v="2" /><tag k="address" v="Via Udine 63, FAEDIS" /><tag k="tourism" v="guest_house" /><tag k="beds" v="2" /><tag k="fax" v="+39 0432 728959" /><tag k="phone" v="+39 0432 728959" /><tag k="opening_hours" v="Mar 01 - May 15, May 30 - Jul 10, Aug 01 - Oct 30, Nov 15 - Dec 31" /><tag k="email" v="matteode@libero.it" /><tag k="operator" v="Depetris Matteo" /><tag k="name" v="Ai Nove Castelli" /><tag k="ref" v="2465" /></node><node id="-23" lat="45.7767445" lon="13.3674141" version="1"><tag k="fax" v="+39 0431 91208" /><tag k="phone" v="+39 0431 91208" /><tag k="email" v="info@casagioconda.it" /><tag k="name" v="Casa Gioconda" /><tag k="website" v="http://www.casagioconda.it" /><tag k="rooms" v="1" /><tag k="address" v="Via Bolivia 8, AQUILEIA" /><tag k="tourism" v="guest_house" /><tag k="beds" v="2" /><tag k="opening_hours" v="Mar 01 - Oct 31, Dec 01 - Dec 31" /><tag k="ref" v="2471" /><tag k="operator" v="Sfiligoi Rosanna" /></node><node id="-24" lat="46.1267449" lon="13.4296574" version="1"><tag k="rooms" v="2" /><tag k="phone" v="+39 0432 712106" /><tag k="tourism" v="guest_house" /><tag k="beds" v="4" /><tag k="fax" v="+39 0432 712106" /><tag k="address" v="Via Principale 52, TORREANO" /><tag k="opening_hours" v="Apr 01 - Sep 30" /><tag k="operator" v="Iacuzzi Ilva" /><tag k="name" v="Da Ilva" /><tag k="ref" v="2477" /></node><node id="-25" lat="46.5844446" lon="12.7807281" version="1"><tag k="rooms" v="2" /><tag k="address" v="Corso Italia 35, FORNI AVOLTRI" /><tag k="ref" v="2481" /><tag k="tourism" v="guest_house" /><tag k="beds" v="6" /><tag k="fax" v="+39 0433 727478" /><tag k="phone" v="+39 0433 727478" /><tag k="opening_hours" v="Jan 01 - Mar 15, Jun 01 - Aug 11, Dec 26 - Dec 31" /><tag k="email" v="campodeifiori@bbcarnia.it" /><tag k="operator" v="Fabbro Umberto" /><tag k="website" v="http://www.bbcarnia.it" /></node><node id="-26" lat="46.2175005" lon="12.7080188" version="1"><tag k="rooms" v="2" /><tag k="operator" v="Brustolo Gianna" /><tag k="tourism" v="guest_house" /><tag k="beds" v="4" /><tag k="opening_hours" v="Jul 01 - Sep 30" /><tag k="address" v="Via Voul  10/3, FRISANCO" /><tag k="ref" v="2486" /></node><node id="-27" lat="46.4618636" lon="12.933897" version="1"><tag k="rooms" v="3" /><tag k="address" v="Via Capoluogo 71, LAUCO" /><tag k="tourism" v="guest_house" /><tag k="beds" v="6" /><tag k="fax" v="+39 0433 74122  0433 74291" /><tag k="phone" v="+39 0433 74122  0433 74291" /><tag k="opening_hours" v="Jan 01 - Jan 10, Mar 21 - Apr 22, Apr 26 - May 10, Jun 01 - Jun 14, Jul 01 - Jul 31, Aug 01 - Aug 31, Oct 05 - Oct 25" /><tag k="email" v="frascaverde@libero.it" /><tag k="operator" v="Gressani Simone" /><tag k="name" v="Al Cramar" /><tag k="ref" v="2491" /></node><node id="-28" lat="46.1830893" lon="13.6355921" version="1"><tag k="rooms" v="1" /><tag k="operator" v="Cicigoi Diego" /><tag k="tourism" v="guest_house" /><tag k="beds" v="2" /><tag k="opening_hours" v="Jun 01 - Sep 30" /><tag k="address" v="Località Drenchia Inferiore 14, DRENCHIA" /><tag k="name" v="Arcobaleno" /><tag k="ref" v="2496" /></node><node id="-29" lat="46.0527544" lon="13.2571224" version="1"><tag k="fax" v="+39 0432 522992" /><tag k="phone" v="+39 0432 522992" /><tag k="email" v="info@casadaniela.com" /><tag k="name" v="Casa Daniela" /><tag k="website" v="http://www.casadaniela.com" /><tag k="rooms" v="2" /><tag k="address" v="Via Pradamano 88, UDINE" /><tag k="tourism" v="guest_house" /><tag k="beds" v="4" /><tag k="opening_hours" v="Jan 01 - May 30, Jun 16 - Dec 31" /><tag k="ref" v="2501" /><tag k="operator" v="Zoratti Franco" /></node><node id="-30" lat="46.0850567" lon="13.4294509" version="1"><tag k="rooms" v="2" /><tag k="operator" v="Pecorari Danilo" /><tag k="tourism" v="guest_house" /><tag k="beds" v="5" /><tag k="opening_hours" v="Jan 01 - Jan 10, Mar 01 - Oct 31, Nov 30 - Dec 31" /><tag k="address" v="Via dei Miani 18, CIVIDALE DEL FRIULI" /><tag k="name" v="Le Azalee" /><tag k="ref" v="2503" /></node><node id="-31" lat="46.1703409" lon="13.3299872" version="1"><tag k="rooms" v="2" /><tag k="phone" v="+39 0432 789294" /><tag k="tourism" v="guest_house" /><tag k="beds" v="3" /><tag k="fax" v="+39 0432 789294" /><tag k="address" v="Via Canalutto 33, ATTIMIS" /><tag k="opening_hours" v="Apr 01 - Oct 30" /><tag k="operator" v="Braidotti Giuliana" /><tag k="name" v="Casa Giuly" /><tag k="ref" v="2511" /></node><node id="-32" lat="45.9261922" lon="12.9402534" version="1"><tag k="rooms" v="3" /><tag k="address" v="Via Tagliamento 34, CAMINO AL TAGLIAMENTO" /><tag k="tourism" v="guest_house" /><tag k="beds" v="6" /><tag k="fax" v="+39 0432 919369" /><tag k="phone" v="+39 0432 919369" /><tag k="opening_hours" v="Apr 05 - Apr 10, Apr 20 - Nov 05" /><tag k="email" v="info@villafrancesca.org" /><tag k="operator" v="Casaril Francesca" /><tag k="name" v="Villa Francesca" /><tag k="ref" v="2517" /></node><node id="-33" lat="46.1218367" lon="13.5276168" version="1"><tag k="rooms" v="3" /><tag k="address" v="Via Merso di Sopra 44, SAN LEONARDO" /><tag k="tourism" v="guest_house" /><tag k="beds" v="6" /><tag k="fax" v="+39 0432 723212" /><tag k="phone" v="+39 0432 723212" /><tag k="opening_hours" v="Jun 01 - Aug 31" /><tag k="email" v="giuliacoceani@gmail.com" /><tag k="operator" v="Coceani Giulia" /><tag k="name" v="Casa Qualizza" /><tag k="ref" v="2520" /></node><node id="-34" lat="46.121667" lon="13.5999359" version="1"><tag k="rooms" v="2" /><tag k="phone" v="+39 0432 724112" /><tag k="tourism" v="guest_house" /><tag k="beds" v="4" /><tag k="fax" v="+39 0432 724112" /><tag k="address" v="Frazione Varch 12, STREGNA" /><tag k="opening_hours" v="Apr 01 - Oct 15" /><tag k="operator" v="Crisetig Franco" /><tag k="ref" v="2522" /></node><node id="-35" lat="46.2183566" lon="13.2358915" version="1"><tag k="fax" v="+39 0432 791850" /><tag k="phone" v="+39 0432 791850" /><tag k="email" v="diego.biasizzo@libero.it" /><tag k="name" v="Casa Ongjarut" /><tag k="website" v="http://www.ongjarut.it" /><tag k="rooms" v="2" /><tag k="address" v="Via Bernadia 18, TARCENTO" /><tag k="tourism" v="guest_house" /><tag k="beds" v="5" /><tag k="opening_hours" v="Apr 01 - Sep 30" /><tag k="ref" v="2527" /><tag k="operator" v="Biasizzo Diego" /></node><node id="-36" lat="46.507505" lon="13.3074466" version="1"><tag k="rooms" v="2" /><tag k="phone" v="+39 0428 90483" /><tag k="tourism" v="guest_house" /><tag k="beds" v="6" /><tag k="fax" v="+39 0428 90483" /><tag k="address" v="Via della Chiesa 7, PONTEBBA" /><tag k="opening_hours" v="Jan 01 - Apr 15, Jul 01 - Aug 31, Dec 15 - Dec 31" /><tag k="operator" v="Fortin Luciano" /><tag k="name" v="Alte Schule" /><tag k="ref" v="2529" /></node><node id="-37" lat="46.5070418" lon="13.3075923" version="1"><tag k="rooms" v="2" /><tag k="address" v="Via Mazzini 46, PONTEBBA" /><tag k="tourism" v="guest_house" /><tag k="beds" v="6" /><tag k="fax" v="+39 0428 90626" /><tag k="phone" v="+39 0428 90626" /><tag k="opening_hours" v="Jan 01 - Mar 10, Mar 20 - Apr 02, Apr 20 - May 20, May 24 - Jun 03, Jun 14 - Sep 15, Sep 28 - Oct 15, Nov 23 - Dec 31" /><tag k="email" v="b.b.pontafel@tiscali.it" /><tag k="operator" v="Maria Elisabetta" /><tag k="ref" v="2534" /></node><node id="-38" lat="46.0310884" lon="12.5019455" version="1"><tag k="fax" v="+39 0434 74100" /><tag k="phone" v="+39 0434 74100" /><tag k="email" v="palazzo.scolari@gmail.com" /><tag k="name" v="Palazzo Scolari" /><tag k="website" v="http://www.palazzoscolari.it" /><tag k="rooms" v="3" /><tag k="address" v="Via Gorgazzo 2, POLCENIGO" /><tag k="tourism" v="guest_house" /><tag k="beds" v="7" /><tag k="opening_hours" v="Jan 01 - Jan 07, Mar 28 - Nov 04, Dec 20 - Dec 31" /><tag k="ref" v="2541" /><tag k="operator" v="Salice Anna" /></node><node id="-39" lat="46.5092726" lon="13.5227319" version="1"><tag k="rooms" v="1" /><tag k="phone" v="+39 0428 63188" /><tag k="tourism" v="guest_house" /><tag k="beds" v="2" /><tag k="fax" v="+39 0428 63188" /><tag k="address" v="Via Molino 7, TARVISIO" /><tag k="opening_hours" v="Jan 01 - Dec 31" /><tag k="operator" v="Danica Pivk" /><tag k="ref" v="2543" /></node><node id="-40" lat="46.1357086" lon="13.2514354" version="1"><tag k="rooms" v="3" /><tag k="address" v="Via Carbonaria 5, REANA DEL ROJALE" /><tag k="tourism" v="guest_house" /><tag k="beds" v="5" /><tag k="fax" v="+39 0432 857767" /><tag k="phone" v="+39 0432 857767" /><tag k="opening_hours" v="Jan 06 - Feb 18, Mar 02 - Apr 30, May 13 - Aug 19, Sep 02 - Oct 07, Oct 12 - Nov 18, Nov 25 - Dec 31" /><tag k="email" v="bb.ifruz@libero.it" /><tag k="operator" v="Caporale Monica" /><tag k="name" v="I Fruz" /><tag k="ref" v="2547" /></node><node id="-41" lat="46.1345678" lon="13.0298388" version="1"><tag k="rooms" v="4" /><tag k="address" v="Via Inferiore Francesco Arcano  1/A, RIVE DARCANO" /><tag k="ref" v="2550" /><tag k="tourism" v="guest_house" /><tag k="beds" v="8" /><tag k="fax" v="+39 0432 809171" /><tag k="phone" v="+39 0432 809171" /><tag k="opening_hours" v="Jan 01 - Jan 31, Mar 01 - Oct 31, Dec 01 - Dec 31" /><tag k="email" v="bbilcastelliere@alice.it" /><tag k="operator" v="Vedova Germano" /><tag k="website" v="http://www.bedandbreakfastfvg.com" /></node><node id="-42" lat="46.0493084" lon="13.2433717" version="1"><tag k="rooms" v="3" /><tag k="phone" v="+39 0432 602723" /><tag k="tourism" v="guest_house" /><tag k="beds" v="6" /><tag k="fax" v="+39 0432 602723" /><tag k="address" v="Via della Madonnetta 44, UDINE" /><tag k="opening_hours" v="Jan 15 - Aug 15, Sep 01 - Dec 15" /><tag k="email" v="annabo.chi@libero.it" /><tag k="ref" v="2551" /></node><node id="-43" lat="46.1018017" lon="13.4757661" version="1"><tag k="rooms" v="2" /><tag k="phone" v="+39 0432 730036" /><tag k="tourism" v="guest_house" /><tag k="beds" v="4" /><tag k="fax" v="+39 0432 730036" /><tag k="address" v="Via Roncuz 6, CIVIDALE DEL FRIULI" /><tag k="opening_hours" v="Mar 01 - Nov 30" /><tag k="operator" v="Maion Gino" /><tag k="name" v="Casa Ivana" /><tag k="ref" v="2557" /></node><node id="-44" lat="46.019164" lon="12.9807525" version="1"><tag k="rooms" v="1" /><tag k="address" v="Via Martiri della Libertà 23, SEDEGLIANO" /><tag k="tourism" v="guest_house" /><tag k="beds" v="2" /><tag k="fax" v="+39 0432 916836" /><tag k="phone" v="+39 0432 916836" /><tag k="opening_hours" v="Feb 01 - Apr 21, May 06 - Jul 26, Sep 02 - Oct 31, Nov 04 - Dec 19" /><tag k="email" v="mulinoledra@gmail.com" /><tag k="operator" v="Vidotto Tiziana" /><tag k="name" v="Il Mulino Sul Ledra" /><tag k="ref" v="2561" /></node><node id="-45" lat="46.069509" lon="13.2795632" version="1"><tag k="rooms" v="3" /><tag k="phone" v="+39 0432 581172" /><tag k="ref" v="2566" /><tag k="tourism" v="guest_house" /><tag k="beds" v="6" /><tag k="fax" v="+39 0432 581172" /><tag k="address" v="Via del Bon 548, UDINE" /><tag k="opening_hours" v="Jan 05 - Dec 24" /><tag k="email" v="alvecchionoce@libero.it" /><tag k="website" v="http://www.alvecchionoce.com" /></node><node id="-46" lat="46.0873752" lon="13.4166924" version="1"><tag k="rooms" v="2" /><tag k="address" v="Via Premariacco  81/83, CIVIDALE DEL FRIULI" /><tag k="ref" v="2567" /><tag k="tourism" v="guest_house" /><tag k="beds" v="4" /><tag k="fax" v="+39 0432 731605" /><tag k="phone" v="+39 0432 731605" /><tag k="opening_hours" v="Jan 01 - Jan 31, Feb 10 - Dec 31" /><tag k="email" v="lapiccolafattoria@alice.it" /><tag k="operator" v="Nadalut Claudia" /><tag k="website" v="http://www.lapiccolafattoria.eu" /></node><node id="-47" lat="46.2028817" lon="12.802195" version="1"><tag k="rooms" v="2" /><tag k="address" v="Via della Stazione 39, MEDUNO" /><tag k="tourism" v="guest_house" /><tag k="beds" v="6" /><tag k="fax" v="+39 0427 86548" /><tag k="phone" v="+39 0427 86548" /><tag k="opening_hours" v="Mar 17 - May 21, May 27 - Jul 19, Jul 24 - Oct 02, Oct 07 - Dec 26" /><tag k="email" v="delbiancoarigo@gmail.com" /><tag k="operator" v="Bianco Arigo" /><tag k="ref" v="2596" /></node><node id="-48" lat="46.1659054" lon="13.0190026" version="1"><tag k="rooms" v="2" /><tag k="phone" v="+39 0432 955397" /><tag k="tourism" v="guest_house" /><tag k="beds" v="5" /><tag k="fax" v="+39 0432 955397" /><tag k="address" v="Via Osoppo 44, SAN DANIELE DEL FRIULI" /><tag k="opening_hours" v="Jan 01 - Feb 15, Feb 16 - Sep 01, Sep 02 - Oct 15, Nov 16 - Dec 31" /><tag k="email" v="jolli@email.it" /><tag k="ref" v="2598" /></node><node id="-49" lat="46.5300279" lon="13.6375093" version="1"><tag k="rooms" v="3" /><tag k="operator" v="Ross Selene" /><tag k="tourism" v="guest_house" /><tag k="beds" v="6" /><tag k="opening_hours" v="Jan 01 - Apr 30, Jun 01 - Oct 31, Dec 01 - Dec 31" /><tag k="address" v="Via Friuli 71, TARVISIO" /><tag k="email" v="delrossselene@googlemail.com" /><tag k="ref" v="2607" /></node><node id="-50" lat="46.5853234" lon="12.7713102" version="1"><tag k="fax" v="+39 0433 72195" /><tag k="phone" v="+39 0433 72195" /><tag k="email" v="legenziane@bbcarnia.it" /><tag k="name" v="Le Genziane" /><tag k="website" v="http://www.bbcarnia.it" /><tag k="rooms" v="1" /><tag k="address" v="Via Belluno 19, FORNI AVOLTRI" /><tag k="tourism" v="guest_house" /><tag k="beds" v="4" /><tag k="opening_hours" v="Jan 01 - Mar 31, Jun 01 - Sep 01, Dec 01 - Dec 31" /><tag k="ref" v="2614" /><tag k="operator" v="Agostinis Felicita" /></node><node id="-51" lat="46.2090943" lon="13.2230363" version="1"><tag k="rooms" v="1" /><tag k="address" v="Via delle Viole 1, TARCENTO" /><tag k="tourism" v="guest_house" /><tag k="beds" v="3" /><tag k="fax" v="+39 0432 791908" /><tag k="phone" v="+39 0432 791908" /><tag k="opening_hours" v="Mar 15 - Nov 30" /><tag k="email" v="lesbouganvilles@libero.it" /><tag k="operator" v="Papinutti Donata" /><tag k="name" v="Les Bouganvilles" /><tag k="ref" v="2619" /></node><node id="-52" lat="46.0722371" lon="13.2559334" version="1"><tag k="rooms" v="3" /><tag k="address" v="Via Cividale 290, UDINE" /><tag k="ref" v="2625" /><tag k="tourism" v="guest_house" /><tag k="beds" v="5" /><tag k="fax" v="+39 0432 281863" /><tag k="phone" v="+39 0432 281863" /><tag k="opening_hours" v="Jan 01 - Aug 01, Aug 15 - Aug 20" /><tag k="email" v="maryann.mccoy@gmail.com" /><tag k="operator" v="Mary Ann" /><tag k="website" v="http://www.bbjennysgarden.com" /></node><node id="-53" lat="46.225516" lon="13.3317643" version="1"><tag k="rooms" v="3" /><tag k="phone" v="+39 0432 797194" /><tag k="ref" v="2626" /><tag k="tourism" v="guest_house" /><tag k="beds" v="6" /><tag k="fax" v="+39 0432 797194" /><tag k="address" v="Via Nongruella 7, NIMIS" /><tag k="opening_hours" v="Apr 01 - Jun 20, Jul 01 - Sep 30" /><tag k="operator" v="Barbei Ornella" /><tag k="name" v="Casa Nongruella" /><tag k="website" v="http://www.nongruella.com" /></node><node id="-54" lat="46.1255068" lon="13.4311863" version="1"><tag k="rooms" v="2" /><tag k="address" v="Via del Mulino  25/1, TORREANO" /><tag k="tourism" v="guest_house" /><tag k="beds" v="5" /><tag k="fax" v="+39 0432 712302" /><tag k="phone" v="+39 0432 712302" /><tag k="opening_hours" v="Apr 03 - Jun 06" /><tag k="email" v="friendship25@alice.it" /><tag k="operator" v="Wangler Bernadette" /><tag k="name" v="Friendship" /><tag k="ref" v="2627" /></node><node id="-55" lat="45.6896177" lon="13.067346" version="1"><tag k="rooms" v="2" /><tag k="address" v="Via Lignano sud 72, LATISANA" /><tag k="tourism" v="guest_house" /><tag k="beds" v="3" /><tag k="fax" v="+39 0431 53310" /><tag k="phone" v="+39 0431 53310" /><tag k="opening_hours" v="Mar 15 - Nov 15" /><tag k="email" v="adriana.lazzarini@virgilio.it" /><tag k="operator" v="Lazzarini Adriana" /><tag k="name" v="Casa Adriana" /><tag k="ref" v="2631" /></node><node id="-56" lat="46.1598385" lon="12.9949738" version="1"><tag k="rooms" v="1" /><tag k="phone" v="+39 0432 955879" /><tag k="tourism" v="guest_house" /><tag k="beds" v="3" /><tag k="fax" v="+39 0432 955879" /><tag k="address" v="Via delle Querce 28, SAN DANIELE DEL FRIULI" /><tag k="opening_hours" v="Mar 01 - May 15, Jul 01 - Sep 15, Dec 01 - Dec 31" /><tag k="email" v="rossi-bellomo@alice.it" /><tag k="ref" v="2632" /></node><node id="-57" lat="46.130345" lon="12.9684239" version="1"><tag k="rooms" v="3" /><tag k="phone" v="+39 0432 956013" /><tag k="tourism" v="guest_house" /><tag k="beds" v="6" /><tag k="fax" v="+39 0432 956013" /><tag k="address" v="via Nazionale 76, SAN DANIELE DEL FRIULI" /><tag k="opening_hours" v="Mar 01 - Dec 31" /><tag k="operator" v="Pischiutta Alba" /><tag k="name" v="Villa Jasmin" /><tag k="ref" v="2633" /></node><node id="-58" lat="46.0969888" lon="13.4405768" version="1"><tag k="rooms" v="2" /><tag k="address" v="Via Michele Leicht 19, CIVIDALE DEL FRIULI" /><tag k="tourism" v="guest_house" /><tag k="beds" v="4" /><tag k="fax" v="+39 0432 733172" /><tag k="phone" v="+39 0432 733172" /><tag k="opening_hours" v="Mar 26 - Aug 12, Aug 26 - Dec 23" /><tag k="email" v="rosinavogrig@gmail.com" /><tag k="operator" v="Vogrig Rosina" /><tag k="name" v="Le Margherite" /><tag k="ref" v="2634" /></node><node id="-59" lat="45.6515708" lon="13.7812167" version="1"><tag k="rooms" v="2" /><tag k="operator" v="Zocchi Vida" /><tag k="tourism" v="guest_house" /><tag k="beds" v="8" /><tag k="opening_hours" v="Jan 01 - Jan 20, Feb 01 - Feb 15, Mar 01 - Jun 15, Jun 18 - Dec 20" /><tag k="address" v="Via Paduina 4, TRIESTE" /><tag k="email" v="zocchi-ts@libero.it" /><tag k="name" v="Ad Hoc" /><tag k="ref" v="2642" /></node><node id="-60" lat="46.0717383" lon="13.2340117" version="1"><tag k="rooms" v="2" /><tag k="address" v="Via Ermes di Colloredo  11/6, UDINE" /><tag k="tourism" v="guest_house" /><tag k="beds" v="5" /><tag k="fax" v="+39 0432 45138  347 8357639" /><tag k="phone" v="+39 0432 45138  347 8357639" /><tag k="opening_hours" v="Jan 01 - May 15, Jun 15 - Dec 31" /><tag k="email" v="bbmariateresa@libero.it" /><tag k="operator" v="Maria Teresa" /><tag k="ref" v="2643" /></node><node id="-61" lat="46.0290371" lon="13.2212863" version="1"><tag k="rooms" v="3" /><tag k="address" v="Via Cussignacco  48/4, UDINE" /><tag k="tourism" v="guest_house" /><tag k="beds" v="5" /><tag k="fax" v="+39 0432 25091" /><tag k="phone" v="+39 0432 25091" /><tag k="opening_hours" v="Jan 01 - Aug 10, Aug 26 - Dec 31" /><tag k="email" v="sandra.pigani@gmail.com" /><tag k="operator" v="Pigani Sandra" /><tag k="name" v="Al Borgo Vecchio" /><tag k="ref" v="2645" /></node><node id="-62" lat="46.0220407" lon="13.2669965" version="1"><tag k="fax" v="+39 0432 600232" /><tag k="phone" v="+39 0432 600232" /><tag k="email" v="casarenata@libero.it" /><tag k="name" v="Casa Renata" /><tag k="website" v="http://www.bbcasarenata.it" /><tag k="rooms" v="3" /><tag k="address" v="Via Tissano 8, UDINE" /><tag k="tourism" v="guest_house" /><tag k="beds" v="5" /><tag k="opening_hours" v="Feb 10 - Oct 30, Dec 05 - Dec 31" /><tag k="ref" v="2649" /><tag k="operator" v="Beltramini Renata" /></node><node id="-63" lat="46.0485273" lon="12.5361595" version="1"><tag k="fax" v="+39 0434 653035" /><tag k="phone" v="+39 0434 653035" /><tag k="email" v="leglicini@gmail.com" /><tag k="name" v="Le Glicini" /><tag k="website" v="https://www.facebook.com/BedandBreakfastLeGlicini" /><tag k="rooms" v="2" /><tag k="address" v="Via Friuli  19B, BUDOIA" /><tag k="tourism" v="guest_house" /><tag k="beds" v="3" /><tag k="opening_hours" v="Mar 08 - Dec 08" /><tag k="ref" v="2652" /><tag k="operator" v="Pitton Armida" /></node><node id="-64" lat="46.1935925" lon="13.2297009" version="1"><tag k="rooms" v="2" /><tag k="phone" v="+39 0432 783843" /><tag k="ref" v="3061" /><tag k="tourism" v="guest_house" /><tag k="beds" v="4" /><tag k="fax" v="+39 0432 783843" /><tag k="address" v="Via Natisone 10, TARCENTO" /><tag k="opening_hours" v="Apr 01 - Sep 30" /><tag k="email" v="capinerafvg@alice.it" /><tag k="website" v="http://www.beb-italia.it" /></node><node id="-65" lat="46.0703538" lon="13.2297492" version="1"><tag k="rooms" v="2" /><tag k="address" v="Via Francesco di Toppo  19/3, UDINE" /><tag k="tourism" v="guest_house" /><tag k="beds" v="3" /><tag k="fax" v="+39 0432 1790713" /><tag k="phone" v="+39 0432 1790713" /><tag k="opening_hours" v="Jan 02 - Aug 14, Aug 17 - Dec 22" /><tag k="email" v="cathybb07@yahoo.it" /><tag k="operator" v="Galliussi Gabriella" /><tag k="name" v="Da Cathy" /><tag k="ref" v="32379" /></node><node id="-66" lat="45.634574" lon="13.7887135" version="1"><tag k="rooms" v="2" /><tag k="operator" v="Giacometti Chiara" /><tag k="ref" v="3240" /><tag k="tourism" v="guest_house" /><tag k="beds" v="4" /><tag k="opening_hours" v="Jan 01 - Jan 31, Feb 14 - Dec 31" /><tag k="address" v="Via dei Caldana 3, TRIESTE" /><tag k="email" v="info@bramasoletrieste.it" /><tag k="name" v="Bramasole" /><tag k="website" v="http://www.bramasoletrieste.it" /></node><node id="-67" lat="46.072598" lon="13.2225394" version="1"><tag k="rooms" v="3" /><tag k="operator" v="Lestani Lorenzo" /><tag k="tourism" v="guest_house" /><tag k="beds" v="6" /><tag k="opening_hours" v="Jan 02 - Aug 01, Aug 16 - Dec 23" /><tag k="address" v="Viale Cadore  2/A, UDINE" /><tag k="email" v="allagledizia@alice.it" /><tag k="name" v="Alla Gledizia" /><tag k="ref" v="33342" /></node><node id="-68" lat="45.9851006" lon="13.4863877" version="1"><tag k="fax" v="+39 347 7515804" /><tag k="phone" v="+39 347 7515804" /><tag k="email" v="info@casadellerose.it" /><tag k="name" v="Casa Delle Rose" /><tag k="website" v="http://www.casadellerose.it" /><tag k="rooms" v="2" /><tag k="address" v="Frazione Ruttars 17, DOLEGNA DEL COLLIO" /><tag k="tourism" v="guest_house" /><tag k="beds" v="5" /><tag k="opening_hours" v="May 01 - Sep 30" /><tag k="ref" v="3340" /><tag k="operator" v="Culot Maurizia" /></node><node id="-69" lat="45.7207793" lon="13.5058199" version="1"><tag k="rooms" v="2" /><tag k="phone" v="+39 0431 88157" /><tag k="tourism" v="guest_house" /><tag k="beds" v="3" /><tag k="fax" v="+39 0431 88157" /><tag k="address" v="Via Isonzo Vecchio 21, GRADO" /><tag k="opening_hours" v="Apr 01 - Oct 31" /><tag k="operator" v="Benolich Maria" /><tag k="name" v="Alle Conchiglie" /><tag k="ref" v="33400" /></node><node id="-70" lat="46.0904221" lon="13.4173376" version="1"><tag k="rooms" v="2" /><tag k="address" v="Via Antonio Mattioni 26, CIVIDALE DEL FRIULI" /><tag k="tourism" v="guest_house" /><tag k="beds" v="5" /><tag k="fax" v="+39 0432 733203" /><tag k="phone" v="+39 0432 733203" /><tag k="opening_hours" v="Apr 01 - May 30, Jul 01 - Jul 30, Aug 18 - Oct 30" /><tag k="email" v="renzabruno@libero.it" /><tag k="operator" v="Rossi Bruno" /><tag k="name" v="Da Renza" /><tag k="ref" v="33421" /></node><node id="-71" lat="46.5275091" lon="12.9918453" version="1"><tag k="rooms" v="3" /><tag k="operator" v="Stales William" /><tag k="ref" v="33760" /><tag k="tourism" v="guest_house" /><tag k="beds" v="6" /><tag k="opening_hours" v="Jan 01 - Mar 20, Apr 01 - Apr 25, May 01 - May 25, Jun 01 - Jun 30, Jul 08 - Sep 15, Oct 01 - Oct 20, Nov 01 - Nov 15" /><tag k="address" v="Via di Sot 51, CERCIVENTO" /><tag k="email" v="inplait@yahoo.it" /><tag k="website" v="http://www.inplait.com" /></node><node id="-72" lat="46.0026965" lon="13.4659899" version="1"><tag k="rooms" v="3" /><tag k="address" v="Località Vencò 8, DOLEGNA DEL COLLIO" /><tag k="tourism" v="guest_house" /><tag k="beds" v="7" /><tag k="fax" v="+39 0481 61692" /><tag k="phone" v="+39 0481 61692" /><tag k="opening_hours" v="Mar 01 - Jul 15" /><tag k="email" v="bb-girasole@email.it" /><tag k="operator" v="Stafuzza Sabrina" /><tag k="name" v="Il Girasole" /><tag k="ref" v="33840" /></node><node id="-73" lat="46.0894383" lon="13.4178916" version="1"><tag k="rooms" v="2" /><tag k="address" v="Via Anton Giulio Cavarzerani 39, CIVIDALE DEL FRIULI" /><tag k="tourism" v="guest_house" /><tag k="beds" v="4" /><tag k="fax" v="+39 0432 733324" /><tag k="phone" v="+39 0432 733324" /><tag k="opening_hours" v="Mar 15 - Oct 31, Dec 01 - Dec 31" /><tag k="email" v="villa.ester@alice.it" /><tag k="operator" v="Simonitti Dea" /><tag k="name" v="Villa Ester" /><tag k="ref" v="33880" /></node><node id="-74" lat="45.9879769" lon="13.4485927" version="1"><tag k="rooms" v="3" /><tag k="phone" v="+39 432759090" /><tag k="tourism" v="guest_house" /><tag k="beds" v="6" /><tag k="fax" v="+39 432759090" /><tag k="address" v="Via Judrio 14, CORNO DI ROSAZZO" /><tag k="opening_hours" v="Feb 01 - Dec 31" /><tag k="ref" v="34000" /></node><node id="-75" lat="45.8212112" lon="13.3354511" version="1"><tag k="fax" v="+39 0431 32540" /><tag k="phone" v="+39 0431 32540" /><tag k="email" v="rosanna.felicetti@libero.it" /><tag k="name" v="A Casa di Rossana" /><tag k="website" v="http://www.bbfriuli.it" /><tag k="rooms" v="2" /><tag k="address" v="Via Dante Alighieri 13, CERVIGNANO DEL FRIULI" /><tag k="tourism" v="guest_house" /><tag k="beds" v="4" /><tag k="opening_hours" v="May 10 - Sep 20, Oct 30 - Dec 10" /><tag k="ref" v="34020" /><tag k="operator" v="Felicetti Rosanna" /></node><node id="-76" lat="45.6418542" lon="13.7869191" version="1"><tag k="rooms" v="3" /><tag k="operator" v="Gallarati Fabio" /><tag k="ref" v="34220" /><tag k="tourism" v="guest_house" /><tag k="beds" v="6" /><tag k="opening_hours" v="Jan 01 - Jan 11, Jan 18 - Feb 10, Feb 12 - Feb 25, Mar 01 - Mar 09, Mar 14 - Jun 21, Jun 27 - Sep 21, Sep 26 - Dec 22" /><tag k="address" v="Via del Ghirlandaio 13, TRIESTE" /><tag k="email" v="info@ilmelogranotrieste.it" /><tag k="website" v="http://www.ilmelogranotrieste.it" /></node><node id="-77" lat="46.152056" lon="13.3485008" version="1"><tag k="fax" v="+39 0432 728606" /><tag k="phone" v="+39 0432 728606" /><tag k="email" v="cortedeimolini@libero.it" /><tag k="name" v="Alla Corte Dei Molini" /><tag k="website" v="http://www.cortedeimolini.it" /><tag k="rooms" v="2" /><tag k="address" v="Via dei Molini 59, FAEDIS" /><tag k="tourism" v="guest_house" /><tag k="beds" v="5" /><tag k="opening_hours" v="Apr 01 - May 25, Jun 15 - Sep 30, Dec 01 - Dec 31" /><tag k="ref" v="34681" /><tag k="operator" v="Ronchi Angela" /></node><node id="-78" lat="46.0963735" lon="13.4288496" version="1"><tag k="rooms" v="2" /><tag k="address" v="Via Borgo San Domenico  3/2, CIVIDALE DEL FRIULI" /><tag k="ref" v="34700" /><tag k="tourism" v="guest_house" /><tag k="beds" v="6" /><tag k="fax" v="+39 0432 732594" /><tag k="phone" v="+39 0432 732594" /><tag k="opening_hours" v="Jan 01 - Jan 03, Jan 05 - Dec 31" /><tag k="email" v="casacarbonara@gmail.com" /><tag k="operator" v="Rafael Angel" /><tag k="website" v="http://www.casacarbonara.com" /></node><node id="-79" lat="45.9602495" lon="13.4655771" version="1"><tag k="rooms" v="1" /><tag k="phone" v="+39 0481 60250" /><tag k="tourism" v="guest_house" /><tag k="beds" v="4" /><tag k="fax" v="+39 0481 60250" /><tag k="address" v="Via Piave  29/3, CORMONS" /><tag k="opening_hours" v="Jan 01 - Aug 14, Sep 01 - Dec 14" /><tag k="operator" v="Mrmolja Zora" /><tag k="name" v="Al Piave" /><tag k="ref" v="34720" /></node><node id="-80" lat="45.9296191" lon="12.6420616" version="1"><tag k="rooms" v="3" /><tag k="operator" v="Caiazzo Giusy" /><tag k="tourism" v="guest_house" /><tag k="beds" v="6" /><tag k="opening_hours" v="Jan 08 - Aug 05, Sep 05 - Dec 23" /><tag k="address" v="Via Montebelluna 16, PORDENONE" /><tag k="email" v="info@cameradoppia.it" /><tag k="name" v="Camera Doppia" /><tag k="ref" v="34740" /></node><node id="-81" lat="45.9288957" lon="13.3325097" version="1"><tag k="fax" v="+39 0432 999528" /><tag k="phone" v="+39 0432 999528" /><tag k="email" v="valentina.komauli@alice.it" /><tag k="name" v="Casa Barnaba - Manin" /><tag k="website" v="http://www.casabarnaba-manin.it" /><tag k="rooms" v="2" /><tag k="address" v="Via Stretta 1, TRIVIGNANO UDINESE" /><tag k="tourism" v="guest_house" /><tag k="beds" v="6" /><tag k="opening_hours" v="Jan 01 - Jan 08, Mar 01 - Nov 30, Dec 16 - Dec 31" /><tag k="ref" v="3480" /><tag k="operator" v="Komauli Valentina" /></node><node id="-82" lat="45.6507903" lon="13.7747769" version="1"><tag k="rooms" v="3" /><tag k="operator" v="Vassilich Roberta" /><tag k="tourism" v="guest_house" /><tag k="beds" v="5" /><tag k="opening_hours" v="Jan 01 - Jan 31, Feb 02 - Feb 22, Feb 26 - Dec 23, Dec 26 - Dec 31" /><tag k="address" v="Via Santa Caterina 9, TRIESTE" /><tag k="email" v="BBS.CATERINA@YAHOO.IT" /><tag k="name" v="Santa Caterina" /><tag k="ref" v="34940" /></node><node id="-83" lat="46.026802" lon="12.5121215" version="1"><tag k="rooms" v="2" /><tag k="operator" v="Ivan Lucia" /><tag k="tourism" v="guest_house" /><tag k="beds" v="4" /><tag k="opening_hours" v="Mar 01 - Jun 30, Jul 10 - Sep 15, Oct 01 - Dec 30" /><tag k="address" v="Via Nuova 5, POLCENIGO" /><tag k="email" v="lucia.ivan23@gmail.com" /><tag k="name" v="Lucia" /><tag k="ref" v="35120" /></node><node id="-84" lat="46.1590259" lon="13.1884284" version="1"><tag k="rooms" v="2" /><tag k="phone" v="+39 0432 853930" /><tag k="tourism" v="guest_house" /><tag k="beds" v="5" /><tag k="fax" v="+39 0432 853930" /><tag k="address" v="Via San Giovanni 29, TRICESIMO" /><tag k="opening_hours" v="Mar 15 - Apr 30, May 15 - May 31, Jun 15 - Jun 30, Jul 05 - Aug 15, Sep 01 - Sep 15, Oct 01 - Oct 31" /><tag k="operator" v="Tami Moreno" /><tag k="name" v="Colline Moreniche" /><tag k="ref" v="35321" /></node><node id="-85" lat="46.0722109" lon="13.256008" version="1"><tag k="fax" v="+39 0432 281863" /><tag k="phone" v="+39 0432 281863" /><tag k="email" v="bbjennysgarden@gmail.com" /><tag k="name" v="Jenny S Garden" /><tag k="website" v="http://www.bbjennysgarden.com" /><tag k="rooms" v="2" /><tag k="address" v="Via Cividale  290/1, UDINE" /><tag k="tourism" v="guest_house" /><tag k="beds" v="4" /><tag k="opening_hours" v="Jan 01 - Aug 01, Aug 15 - Dec 20" /><tag k="ref" v="35340" /><tag k="operator" v="Moreale Jennifer" /></node><node id="-86" lat="46.0563412" lon="13.2198313" version="1"><tag k="fax" v="+39 329 4946124" /><tag k="phone" v="+39 329 4946124" /><tag k="email" v="scenarium@alice.it" /><tag k="name" v="Scenarium" /><tag k="website" v="http://www.scenariumudine.com" /><tag k="rooms" v="3" /><tag k="address" v="Viale Venezia 184, UDINE" /><tag k="tourism" v="guest_house" /><tag k="beds" v="8" /><tag k="opening_hours" v="Jan 01 - Dec 31" /><tag k="ref" v="35341" /><tag k="operator" v="Bielcikova Slava" /></node><node id="-87" lat="46.0746708" lon="13.2478595" version="1"><tag k="rooms" v="2" /><tag k="address" v="Via Capodistria  43/1, UDINE" /><tag k="tourism" v="guest_house" /><tag k="beds" v="5" /><tag k="fax" v="+39 0432 481211" /><tag k="phone" v="+39 0432 481211" /><tag k="opening_hours" v="Jan 01 - Feb 01, Feb 15 - Jun 15, Jul 05 - Dec 31" /><tag k="email" v="3cuori@gmail.com" /><tag k="operator" v="Ardoino Cristiana" /><tag k="name" v="Tre Cuori" /><tag k="ref" v="35481" /></node><node id="-88" lat="45.820432" lon="13.341931" version="1"><tag k="rooms" v="2" /><tag k="address" v="Via Trieste 94, CERVIGNANO DEL FRIULI" /><tag k="tourism" v="guest_house" /><tag k="beds" v="3" /><tag k="fax" v="+39 0431 30552" /><tag k="phone" v="+39 0431 30552" /><tag k="opening_hours" v="Jan 01 - Feb 15, Mar 01 - Oct 15, Nov 01 - Dec 31" /><tag k="email" v="salvador.giuliana@gmail.com" /><tag k="operator" v="Salvador Giuliana" /><tag k="name" v="A Casa Azzurra di Alice" /><tag k="ref" v="35940" /></node><node id="-89" lat="46.5113207" lon="13.4730622" version="1"><tag k="rooms" v="3" /><tag k="operator" v="Zelloth Riccardo" /><tag k="tourism" v="guest_house" /><tag k="beds" v="6" /><tag k="opening_hours" v="Jan 01 - Jan 31, Jul 15 - Aug 31, Dec 01 - Dec 31" /><tag k="address" v="Via Oisternig 1, MALBORGHETTO VALBRUNA" /><tag k="email" v="rickyzelloth@libero.it" /><tag k="name" v="Da Julia" /><tag k="ref" v="35980" /></node><node id="-90" lat="46.5221833" lon="12.9220969" version="1"><tag k="rooms" v="2" /><tag k="operator" v="Crignis Flavia" /><tag k="ref" v="36040" /><tag k="tourism" v="guest_house" /><tag k="beds" v="7" /><tag k="opening_hours" v="Jan 01 - May 20, Jun 01 - Sep 30, Dec 20 - Dec 31" /><tag k="address" v="Via Valcalda 10, RAVASCLETTO" /><tag k="email" v="ilranuncolo@bbcarnia.it" /><tag k="website" v="http://www.bbcarnia.it" /></node><node id="-91" lat="45.6516102" lon="13.7715849" version="1"><tag k="fax" v="+39 040 2600312" /><tag k="phone" v="+39 040 2600312" /><tag k="email" v="alponterosso@hotmail.com" /><tag k="name" v="Al Ponterosso" /><tag k="website" v="http://www.alponterosso.it" /><tag k="rooms" v="2" /><tag k="address" v="Piazza del Ponterosso 3, TRIESTE" /><tag k="tourism" v="guest_house" /><tag k="beds" v="5" /><tag k="opening_hours" v="Jan 01 - Jan 10, Jan 26 - Feb 15, Mar 10 - Mar 28, Apr 12 - Oct 14, Nov 01 - Nov 07, Nov 25 - Dec 31" /><tag k="ref" v="36060" /><tag k="operator" v="Boschin Andrea" /></node><node id="-92" lat="46.2249859" lon="13.1102766" version="1"><tag k="fax" v="+39 0432 961351" /><tag k="phone" v="+39 0432 961351" /><tag k="email" v="bedandbreakfastcipeciop@hotmail.it" /><tag k="name" v="Cip &amp; Ciop" /><tag k="website" v="http://www.bedandbreakfastcipeciop.it" /><tag k="rooms" v="2" /><tag k="address" v="Via Sopramonte 89, BUJA" /><tag k="tourism" v="guest_house" /><tag k="beds" v="6" /><tag k="opening_hours" v="Jan 01 - Jan 15, Mar 01 - Nov 01, Dec 15 - Dec 31" /><tag k="ref" v="36340" /><tag k="operator" v="Calligaro Davide" /></node><node id="-93" lat="46.086037" lon="12.9901716" version="1"><tag k="rooms" v="2" /><tag k="address" v="Via del Varmo 54, COSEANO" /><tag k="tourism" v="guest_house" /><tag k="beds" v="4" /><tag k="fax" v="+39 0432  862012" /><tag k="phone" v="+39 0432  862012" /><tag k="opening_hours" v="Jan 01 - Oct 31" /><tag k="email" v="haiprofumidicampagna@alice.it" /><tag k="operator" v="Anna Maria" /><tag k="ref" v="36380" /></node><node id="-94" lat="46.2255195" lon="12.9755591" version="1"><tag k="rooms" v="2" /><tag k="address" v="Via Coletti 7, FORGARIA NEL FRIULI" /><tag k="tourism" v="guest_house" /><tag k="beds" v="3" /><tag k="fax" v="+39 0427 808013" /><tag k="phone" v="+39 0427 808013" /><tag k="opening_hours" v="Jan 01 - Jan 15, Mar 15 - May 02, May 15 - Jun 10, Jun 15 - Aug 31, Sep 05 - Nov 05, Dec 05 - Dec 31" /><tag k="email" v="emax.em@libero.it" /><tag k="operator" v="Zuliani Massimiliano" /><tag k="name" v="Bundi  E Buinanot" /><tag k="ref" v="36482" /></node><node id="-95" lat="45.950117" lon="13.2057358" version="1"><tag k="fax" v="+39 0432 767028" /><tag k="phone" v="+39 0432 767028" /><tag k="email" v="INFO@CORTEALFIER.COM" /><tag k="name" v="Alfier Andrea" /><tag k="website" v="http://WWW.CORTEALFIER.COM" /><tag k="rooms" v="3" /><tag k="address" v="Via Mortegliano  20/2, MORTEGLIANO" /><tag k="tourism" v="guest_house" /><tag k="beds" v="8" /><tag k="opening_hours" v="Jan 01 - Jan 16, Jan 31 - Mar 15, Apr 01 - Oct 31, Dec 01 - Dec 31" /><tag k="ref" v="36521" /><tag k="operator" v="Bernardis Andrea" /></node><node id="-96" lat="45.9554592" lon="13.2364091" version="1"><tag k="rooms" v="3" /><tag k="operator" v="Sbuelz Filippo" /><tag k="tourism" v="guest_house" /><tag k="beds" v="6" /><tag k="opening_hours" v="Jan 16 - May 27, Jul 02 - Dec 16" /><tag k="address" v="Via Battiferro  41 int.1, MORTEGLIANO" /><tag k="email" v="filippo.sbuelz@gmail.com" /><tag k="name" v="Al Batifiar" /><tag k="ref" v="36560" /></node><node id="-97" lat="46.5638694" lon="13.0042656" version="1"><tag k="rooms" v="3" /><tag k="phone" v="+39 0433 779151" /><tag k="tourism" v="guest_house" /><tag k="beds" v="6" /><tag k="fax" v="+39 0433 779151" /><tag k="address" v="Via Vittorio Veneto 10, PALUZZA" /><tag k="opening_hours" v="Jul 15 - Sep 15" /><tag k="operator" v="Bellina Carlo" /><tag k="name" v="Da Carletto" /><tag k="ref" v="36960" /></node><node id="-98" lat="45.9729624" lon="12.6881602" version="1"><tag k="fax" v="+39 0434 41476" /><tag k="phone" v="+39 0434 41476" /><tag k="email" v="info@bbkip.com" /><tag k="name" v="Kip" /><tag k="website" v="http://www.bbkip.com" /><tag k="rooms" v="3" /><tag k="address" v="Via delle Acque 23, CORDENONS" /><tag k="tourism" v="guest_house" /><tag k="beds" v="6" /><tag k="opening_hours" v="Jan 01 - Jan 11, Jan 16 - Apr 12, Apr 17 - Jul 05, Jul 11 - Oct 11, Oct 16 - Dec 31" /><tag k="ref" v="36961" /><tag k="operator" v="Manzato Rebecca" /></node><node id="-99" lat="46.2178529" lon="12.7096072" version="1"><tag k="rooms" v="2" /><tag k="address" v="Via Roman 9, FRISANCO" /><tag k="tourism" v="guest_house" /><tag k="beds" v="5" /><tag k="fax" v="+39 0427 78281" /><tag k="phone" v="+39 0427 78281" /><tag k="opening_hours" v="Apr 20 - May 02, May 19 - Jun 18, Jun 29 - Sep 17" /><tag k="email" v="sabri.pes@tiscali.it" /><tag k="operator" v="Pes Sabrina" /><tag k="name" v="Villa Spluma" /><tag k="ref" v="37160" /></node><node id="-100" lat="46.2658458" lon="12.9189241" version="1"><tag k="rooms" v="2" /><tag k="operator" v="Danieletto Elisabetta" /><tag k="tourism" v="guest_house" /><tag k="beds" v="4" /><tag k="opening_hours" v="Jun 01 - Sep 30" /><tag k="address" v="Via 4 novembre 39, VITO DASIO" /><tag k="email" v="elisabetta.danieletto@poste.it" /><tag k="name" v="Dirce" /><tag k="ref" v="37240" /></node><node id="-101" lat="46.074676" lon="13.2481886" version="1"><tag k="rooms" v="2" /><tag k="address" v="Via Capodistria 57, UDINE" /><tag k="tourism" v="guest_house" /><tag k="beds" v="5" /><tag k="fax" v="+39 0432 481211" /><tag k="phone" v="+39 0432 481211" /><tag k="opening_hours" v="Jan 01 - Jan 20, Feb 01 - Nov 17, Nov 29 - Dec 31" /><tag k="email" v="fiammettacap@yahoo.it" /><tag k="operator" v="Cappelletti Fiammetta" /><tag k="name" v="Agli Schnauzer" /><tag k="ref" v="37720" /></node><node id="-102" lat="45.6467465" lon="13.7620121" version="1"><tag k="fax" v="+39 040 2602063" /><tag k="phone" v="+39 040 2602063" /><tag k="email" v="info@aimoretti.it" /><tag k="name" v="Ai Moretti" /><tag k="website" v="http://www.aimoretti.it" /><tag k="rooms" v="3" /><tag k="address" v="Piazza Venezia 1, TRIESTE" /><tag k="tourism" v="guest_house" /><tag k="beds" v="6" /><tag k="opening_hours" v="Jan 01 - Jan 07, Jan 25 - Jan 31, Feb 08 - Dec 31" /><tag k="ref" v="37841" /><tag k="operator" v="Moretti Marcello" /></node><node id="-103" lat="46.1677239" lon="12.9219007" version="1"><tag k="rooms" v="2" /><tag k="address" v="via Roma 65, PINZANO AL TAGLIAMENTO" /><tag k="tourism" v="guest_house" /><tag k="beds" v="6" /><tag k="fax" v="+39 0432 950706" /><tag k="phone" v="+39 0432 950706" /><tag k="opening_hours" v="Sep 22 - Oct 31" /><tag k="email" v="info@sinergypn.com" /><tag k="operator" v="Pellegrini Ivo" /><tag k="name" v="B&amp;B Le Muse" /><tag k="ref" v="38080" /></node><node id="-104" lat="45.8609121" lon="13.3221057" version="1"><tag k="fax" v="+39 0431 93083" /><tag k="phone" v="+39 0431 93083" /><tag k="email" v="elisabetta.vitas@libero.it" /><tag k="name" v="Villa Vitas" /><tag k="website" v="http://www.villavitas.it" /><tag k="rooms" v="2" /><tag k="address" v="Via San Marco 3, CERVIGNANO DEL FRIULI" /><tag k="tourism" v="guest_house" /><tag k="beds" v="6" /><tag k="opening_hours" v="Jan 01 - Jan 15, Apr 01 - Oct 30, Dec 15 - Dec 31" /><tag k="ref" v="38720" /><tag k="operator" v="Vitas Elisabetta" /></node><node id="-105" lat="46.1068962" lon="13.1620637" version="1"><tag k="rooms" v="1" /><tag k="phone" v="+39 0432 678919" /><tag k="tourism" v="guest_house" /><tag k="beds" v="4" /><tag k="fax" v="+39 0432 678919" /><tag k="address" v="Via Alnicco 4, MARTIGNACCO" /><tag k="opening_hours" v="Jan 10 - Jul 31, Aug 17 - Dec 19" /><tag k="operator" v="Passarino Gabriella" /><tag k="name" v="Vivere In Campagna" /><tag k="ref" v="38920" /></node><node id="-106" lat="46.506563" lon="13.4220868" version="1"><tag k="rooms" v="2" /><tag k="address" v="Via Romana 15, MALBORGHETTO VALBRUNA" /><tag k="tourism" v="guest_house" /><tag k="beds" v="4" /><tag k="fax" v="+39 0428 60323" /><tag k="phone" v="+39 0428 60323" /><tag k="opening_hours" v="Jan 01 - Mar 31, May 01 - Sep 30, Nov 01 - Dec 31" /><tag k="email" v="robycecon@tiscali.it" /><tag k="operator" v="Zanon Serena" /><tag k="name" v="All Ombra Delle Alpi Giulie" /><tag k="ref" v="39001" /></node><node id="-107" lat="45.6915881" lon="13.7435781" version="1"><tag k="fax" v="+39 040 421086" /><tag k="phone" v="+39 040 421086" /><tag k="email" v="annalisa.cimenti@email.it" /><tag k="name" v="Ai 7 Olivi" /><tag k="website" v="http://www.bedandbreakfastai7olivitrieste.it" /><tag k="rooms" v="2" /><tag k="address" v="Salita di Contovello 74, TRIESTE" /><tag k="tourism" v="guest_house" /><tag k="beds" v="4" /><tag k="opening_hours" v="Feb 06 - Feb 28, Mar 05 - Nov 16" /><tag k="ref" v="3901" /><tag k="operator" v="Cimenti Annalisa" /></node><node id="-108" lat="45.7670215" lon="13.3657157" version="1"><tag k="rooms" v="2" /><tag k="operator" v="Dovier Gabriele" /><tag k="tourism" v="guest_house" /><tag k="beds" v="3" /><tag k="opening_hours" v="Jan 01 - Jan 07, Feb 17 - Apr 11, Apr 24 - Nov 01, Dec 01 - Dec 31" /><tag k="address" v="Via Livia 3, AQUILEIA" /><tag k="email" v="ramorosso@libero.it" /><tag k="name" v="Al Ramo Rosso" /><tag k="ref" v="39320" /></node><node id="-109" lat="45.650028" lon="13.7762227" version="1"><tag k="rooms" v="3" /><tag k="operator" v="Minca Giorgio" /><tag k="ref" v="39360" /><tag k="tourism" v="guest_house" /><tag k="beds" v="5" /><tag k="opening_hours" v="Jan 01 - Jan 06, Jan 22 - Feb 14, Mar 05 - Mar 28, Apr 10 - Oct 09, Oct 29 - Nov 20, Dec 01 - Dec 31" /><tag k="address" v="Via Mazzini 44, TRIESTE" /><tag k="email" v="bbpetra.trieste@yahoo.it" /><tag k="name" v="Petra" /><tag k="website" v="http://www.bedandbreakfastpetra.com" /></node><node id="-110" lat="46.0424119" lon="13.113758" version="1"><tag k="fax" v="+39 0432 848745" /><tag k="phone" v="+39 0432 848745" /><tag k="email" v="villanita.08@libero.it" /><tag k="name" v="Villa Anita" /><tag k="website" v="http://www.villanita.com" /><tag k="rooms" v="3" /><tag k="address" v="Via Damiano Chiesa 107, BASILIANO" /><tag k="tourism" v="guest_house" /><tag k="beds" v="6" /><tag k="opening_hours" v="Mar 01 - Nov 30" /><tag k="ref" v="39400" /><tag k="operator" v="Ferrazzutti Anita" /></node><node id="-111" lat="45.6595354" lon="13.7868225" version="1"><tag k="rooms" v="2" /><tag k="address" v="Via Monte San Gabriele 42, TRIESTE" /><tag k="tourism" v="guest_house" /><tag k="beds" v="4" /><tag k="fax" v="+39 040 568304" /><tag k="phone" v="+39 040 568304" /><tag k="opening_hours" v="Apr 01 - Nov 15" /><tag k="email" v="graziapaticchio@libero.it" /><tag k="operator" v="Schiavone Grazia" /><tag k="name" v="Alla Scuderia" /><tag k="ref" v="39481" /></node><node id="-112" lat="46.0601327" lon="13.0311537" version="1"><tag k="rooms" v="3" /><tag k="operator" v="Baldassi Michela" /><tag k="ref" v="39500" /><tag k="tourism" v="guest_house" /><tag k="beds" v="5" /><tag k="opening_hours" v="Jan 01 - Jan 31, Mar 01 - Sep 30, Dec 01 - Dec 31" /><tag k="address" v="Via Maggiore 28, COSEANO" /><tag k="email" v="kismo@tiscali.it" /><tag k="name" v="Borc di Sore" /><tag k="website" v="http://www.alcacciatore.it" /></node><node id="-113" lat="46.0699922" lon="12.5885194" version="1"><tag k="rooms" v="3" /><tag k="operator" v="Bonomi Alessandra" /><tag k="ref" v="39640" /><tag k="tourism" v="guest_house" /><tag k="beds" v="5" /><tag k="opening_hours" v="Jan 01 - Jan 06, Jan 16 - Apr 01, Apr 10 - Oct 07, Oct 17 - Dec 31" /><tag k="address" v="Via padre Marco 10, AVIANO" /><tag k="email" v="bbcasapiazza@live.it" /><tag k="name" v="Casa Piazza" /><tag k="website" v="http://www.bbcasapiazza.it" /></node><node id="-114" lat="46.192116" lon="13.3155531" version="1"><tag k="rooms" v="2" /><tag k="phone" v="+39 340 2415962" /><tag k="tourism" v="guest_house" /><tag k="beds" v="3" /><tag k="fax" v="+39 340 2415962" /><tag k="address" v="Via Campolongo 30, ATTIMIS" /><tag k="opening_hours" v="Apr 01 - Oct 01, Dec 01 - Dec 31" /><tag k="operator" v="Longato Alessandro" /><tag k="name" v="Casa Tiziana" /><tag k="ref" v="40040" /></node><node id="-115" lat="45.6548614" lon="13.7913172" version="1"><tag k="fax" v="+39 040 2413249" /><tag k="phone" v="+39 040 2413249" /><tag k="email" v="giuliabeb@gmail.com" /><tag k="name" v="Giulia" /><tag k="website" v="http://www.bbgiulia.it" /><tag k="rooms" v="2" /><tag k="address" v="Via Giulia 53, TRIESTE" /><tag k="tourism" v="guest_house" /><tag k="beds" v="4" /><tag k="opening_hours" v="Jan 01 - Feb 08, Feb 15 - Nov 07, Nov 14 - Dec 31" /><tag k="ref" v="40060" /><tag k="operator" v="Gega Valentina" /></node><node id="-116" lat="45.9535696" lon="13.4668872" version="1"><tag k="rooms" v="2" /><tag k="address" v="Via Bancaria 17, CORMONS" /><tag k="tourism" v="guest_house" /><tag k="beds" v="4" /><tag k="fax" v="+39 0481 630370" /><tag k="phone" v="+39 0481 630370" /><tag k="opening_hours" v="Jan 10 - Dec 20" /><tag k="email" v="corradomorena@alice.it" /><tag k="operator" v="Picech Morena" /><tag k="name" v="B&amp;B Morena" /><tag k="ref" v="40080" /></node><node id="-117" lat="46.2524627" lon="13.0864811" version="1"><tag k="rooms" v="2" /><tag k="phone" v="+39 0432 975428" /><tag k="tourism" v="guest_house" /><tag k="beds" v="4" /><tag k="fax" v="+39 0432 975428" /><tag k="address" v="via Buia 16, OSOPPO" /><tag k="opening_hours" v="Apr 01 - Oct 31" /><tag k="operator" v="Buiatti Enzo" /><tag k="name" v="Da Rita" /><tag k="ref" v="40180" /></node><node id="-118" lat="45.6454713" lon="13.7820734" version="1"><tag k="fax" v="+39 040 661988" /><tag k="phone" v="+39 040 661988" /><tag k="email" v="boraditrieste@hotmail.com" /><tag k="name" v="Bora di Trieste" /><tag k="website" v="http://www.boraditrieste.freshcreator.com" /><tag k="rooms" v="2" /><tag k="address" v="Via della Raffineria 8, TRIESTE" /><tag k="tourism" v="guest_house" /><tag k="beds" v="5" /><tag k="opening_hours" v="Jan 01 - Jan 12, Jan 15 - Jan 25, Jan 29 - Feb 29, Mar 04 - Dec 31" /><tag k="ref" v="40241" /><tag k="operator" v="Scherl Loredana" /></node><node id="-119" lat="46.1678876" lon="13.0338782" version="1"><tag k="rooms" v="3" /><tag k="operator" v="Ursella Ivan" /><tag k="ref" v="40420" /><tag k="tourism" v="guest_house" /><tag k="beds" v="6" /><tag k="opening_hours" v="Jan 01 - Dec 31" /><tag k="address" v="Via Soprapaludo 4, SAN DANIELE DEL FRIULI" /><tag k="email" v="federica.nonino@gmail.com" /><tag k="name" v="Sottocolle Fontana" /><tag k="fixme" v="merge and add housenumber 4" /><tag k="website" v="http://www.sottocollefontana.it" /></node><node id="-120" lat="45.965842" lon="12.655931" version="1"><tag k="rooms" v="1" /><tag k="operator" v="Martin Matteo" /><tag k="tourism" v="guest_house" /><tag k="beds" v="2" /><tag k="opening_hours" v="Jan 01 - Sep 30, Nov 01 - Dec 31" /><tag k="address" v="Via Roggiuzzole 5, PORDENONE" /><tag k="email" v="bedandbreakfast-pn@hotmail.it" /><tag k="name" v="Il Vicolo Camere In Villa" /><tag k="ref" v="40582" /></node><node id="-121" lat="45.9715949" lon="12.6543458" version="1"><tag k="rooms" v="3" /><tag k="address" v="Via San Quirino 60, PORDENONE" /><tag k="tourism" v="guest_house" /><tag k="beds" v="6" /><tag k="fax" v="+39 0434 364305" /><tag k="phone" v="+39 0434 364305" /><tag k="opening_hours" v="Jan 01 - Sep 30, Nov 01 - Dec 31" /><tag k="email" v="bedandbreakfast-pn@hotmail.it" /><tag k="operator" v="Martin Bruno" /><tag k="name" v="E.B. Camere In Villa" /><tag k="ref" v="40584" /></node><node id="-122" lat="46.1112804" lon="12.8999967" version="1"><tag k="rooms" v="3" /><tag k="operator" v="Marchi Patrizia" /><tag k="ref" v="40621" /><tag k="tourism" v="guest_house" /><tag k="beds" v="8" /><tag k="opening_hours" v="Jan 01 - Jan 09, Jan 20 - Jan 24, Jan 30 - Feb 14, Feb 22 - Mar 02, Mar 12 - Mar 23, Mar 30 - Sep 19, Sep 28 - Oct 15" /><tag k="address" v="Corso Roma 28, SPILIMBERGO" /><tag k="email" v="info@relaislatorre.com" /><tag k="website" v="http://www.relaislatorre.com" /></node><node id="-123" lat="45.7833412" lon="13.0758643" version="1"><tag k="rooms" v="3" /><tag k="address" v="Via Pra della Narda 2, PRECENICCO" /><tag k="ref" v="40760" /><tag k="tourism" v="guest_house" /><tag k="beds" v="6" /><tag k="fax" v="+39 0431 589781" /><tag k="phone" v="+39 0431 589781" /><tag k="opening_hours" v="Mar 01 - Nov 30" /><tag k="email" v="g.deminicis@cheapnet.it" /><tag k="operator" v="Minicis Giovanni" /><tag k="website" v="http://www.villapinella.it" /></node><node id="-124" lat="46.12146" lon="13.5256356" version="1"><tag k="rooms" v="2" /><tag k="phone" v="+39 0432 723457" /><tag k="tourism" v="guest_house" /><tag k="beds" v="5" /><tag k="fax" v="+39 0432 723457" /><tag k="address" v="Via Merso di Sopra 15, SAN LEONARDO" /><tag k="opening_hours" v="May 01 - Aug 31" /><tag k="operator" v="Sibau Ada" /><tag k="name" v="Ada" /><tag k="ref" v="4100" /></node><node id="-125" lat="46.0977306" lon="13.1342165" version="1"><tag k="rooms" v="3" /><tag k="phone" v="+39 0432 677820" /><tag k="tourism" v="guest_house" /><tag k="beds" v="6" /><tag k="fax" v="+39 0432 677820" /><tag k="address" v="Via Cividina 14, MARTIGNACCO" /><tag k="opening_hours" v="Jan 01 - Jul 31, Sep 01 - Dec 31" /><tag k="ref" v="4120" /></node><node id="-126" lat="45.6347072" lon="13.8312499" version="1"><tag k="rooms" v="3" /><tag k="phone" v="+39 040 910557" /><tag k="tourism" v="guest_house" /><tag k="beds" v="6" /><tag k="fax" v="+39 040 910557" /><tag k="address" v="Strada di Fiume 555, TRIESTE" /><tag k="opening_hours" v="Jan 01 - Aug 20, Sep 01 - Dec 20" /><tag k="operator" v="Sav Marjanca" /><tag k="name" v="Cattinara" /><tag k="ref" v="41481" /></node><node id="-127" lat="46.0960881" lon="13.4328919" version="1"><tag k="rooms" v="2" /><tag k="address" v="Via Monte Matajur 8, CIVIDALE DEL FRIULI" /><tag k="tourism" v="guest_house" /><tag k="beds" v="3" /><tag k="fax" v="+39 0432 701084" /><tag k="phone" v="+39 0432 701084" /><tag k="opening_hours" v="Jan 01 - Jan 10, Apr 01 - Dec 31" /><tag k="email" v="bebpatty@libero.it" /><tag k="operator" v="Vogrig Silvana" /><tag k="name" v="Da Patty" /><tag k="ref" v="41740" /></node><node id="-128" lat="45.8819203" lon="13.3807478" version="1"><tag k="rooms" v="3" /><tag k="address" v="Via Aquileia 36, SAN VITO AL TORRE" /><tag k="tourism" v="guest_house" /><tag k="beds" v="6" /><tag k="fax" v="+39 0432 999528" /><tag k="phone" v="+39 0432 999528" /><tag k="opening_hours" v="Apr 01 - Oct 31" /><tag k="email" v="villa.steffaneo@virgilio.it" /><tag k="operator" v="Roncato Roberto" /><tag k="name" v="Villa Steffaneo" /><tag k="ref" v="41741" /></node><node id="-129" lat="45.9624301" lon="12.9717011" version="1"><tag k="rooms" v="2" /><tag k="address" v="Via Piave 38, CODROIPO" /><tag k="ref" v="41860" /><tag k="tourism" v="guest_house" /><tag k="beds" v="4" /><tag k="fax" v="+39 0432 904350" /><tag k="phone" v="+39 0432 904350" /><tag k="opening_hours" v="Jan 01 - Feb 01, Feb 20 - Dec 31" /><tag k="email" v="giuli.danieli@email.it" /><tag k="operator" v="Picchio Rosso" /><tag k="website" v="http://www.alpicchiorosso.it" /></node><node id="-130" lat="46.2156469" lon="12.7986244" version="1"><tag k="rooms" v="2" /><tag k="operator" v="Meneghin Paola" /><tag k="ref" v="41880" /><tag k="tourism" v="guest_house" /><tag k="beds" v="4" /><tag k="opening_hours" v="Jan 15 - Mar 15, Apr 01 - May 31, Jun 15 - Aug 30, Sep 15 - Dec 31" /><tag k="address" v="Via Mizzeri 27, MEDUNO" /><tag k="name" v="La Piccola Venezia" /><tag k="website" v="http://www.friuli.net/paolameneghin" /></node><node id="-131" lat="45.8481694" lon="13.0686784" version="1"><tag k="rooms" v="2" /><tag k="address" v="Via San Marco 3, RIVIGNANO TEOR" /><tag k="tourism" v="guest_house" /><tag k="beds" v="8" /><tag k="fax" v="+39 0432 771039" /><tag k="phone" v="+39 0432 771039" /><tag k="opening_hours" v="Feb 01 - Nov 30" /><tag k="email" v="redeme@hotmail.com" /><tag k="operator" v="Mestre Renzo" /><tag k="ref" v="42021" /></node><node id="-132" lat="46.072367" lon="13.2391468" version="1"><tag k="fax" v="+39 0432 470421" /><tag k="phone" v="+39 0432 470421" /><tag k="email" v="bbdeimusicanti@email.it" /><tag k="name" v="B &amp; B Dei Musicanti" /><tag k="website" v="http://www.bbmusicanti.it" /><tag k="rooms" v="1" /><tag k="address" v="Via Gorizia 18, UDINE" /><tag k="tourism" v="guest_house" /><tag k="beds" v="2" /><tag k="opening_hours" v="Jan 10 - Jul 31, Aug 10 - Dec 20" /><tag k="ref" v="42080" /><tag k="operator" v="Biondi Roberto" /></node><node id="-133" lat="46.5322773" lon="12.9525885" version="1"><tag k="rooms" v="3" /><tag k="address" v="Via Stalivieri  24/BIS, RAVASCLETTO" /><tag k="tourism" v="guest_house" /><tag k="beds" v="5" /><tag k="fax" v="+39 0433 66371" /><tag k="phone" v="+39 0433 66371" /><tag k="opening_hours" v="Jan 01 - Jan 06, Feb 01 - Mar 31, Jun 15 - Sep 15, Dec 27 - Dec 31" /><tag k="email" v="inesramon@libero.it" /><tag k="operator" v="Ramon Ines" /><tag k="name" v="Infiore" /><tag k="ref" v="42380" /></node><node id="-134" lat="46.1668275" lon="13.3254653" version="1"><tag k="rooms" v="3" /><tag k="phone" v="+39 432789038" /><tag k="tourism" v="guest_house" /><tag k="beds" v="5" /><tag k="fax" v="+39 432789038" /><tag k="address" v="Piazza della Chiesa 1, ATTIMIS" /><tag k="opening_hours" v="Jan 01 - Jan 31, Feb 16 - Dec 31" /><tag k="operator" v="Martinuzzi Cristina" /><tag k="name" v="Al Pettirosso" /><tag k="ref" v="42440" /></node><node id="-135" lat="45.9179526" lon="13.6002508" version="1"><tag k="rooms" v="3" /><tag k="address" v="Via del San Michele  300/D, GORIZIA" /><tag k="tourism" v="guest_house" /><tag k="beds" v="6" /><tag k="fax" v="+39 0481 522963" /><tag k="phone" v="+39 0481 522963" /><tag k="opening_hours" v="Jan 01 - Feb 17, Feb 23 - Dec 31" /><tag k="email" v="paolo.nanut@libero.it" /><tag k="operator" v="Nanut Paolo" /><tag k="name" v="B&amp;B Lucia" /><tag k="ref" v="42441" /></node><node id="-136" lat="45.6413208" lon="13.8252411" version="1"><tag k="fax" v="+39 040 910579" /><tag k="phone" v="+39 040 910579" /><tag k="email" v="daisy.2008@libero.it" /><tag k="name" v="La Culla di Trieste" /><tag k="website" v="http://www.laculladitrieste.it" /><tag k="rooms" v="3" /><tag k="address" v="Via Carlo De Marchesetti  12/8, TRIESTE" /><tag k="tourism" v="guest_house" /><tag k="beds" v="6" /><tag k="opening_hours" v="Jan 07 - Jul 01, Jul 15 - Dec 30" /><tag k="ref" v="42541" /><tag k="operator" v="Giannotta Alida" /></node><node id="-137" lat="45.6558755" lon="13.7717164" version="1"><tag k="rooms" v="3" /><tag k="operator" v="Lincetto Silvana" /><tag k="ref" v="42580" /><tag k="tourism" v="guest_house" /><tag k="beds" v="8" /><tag k="opening_hours" v="Jan 01 - Jan 10, Jan 29 - Feb 14, Mar 01 - Dec 31" /><tag k="address" v="Via della Geppa 2, TRIESTE" /><tag k="email" v="info@palazzopanfilli.it" /><tag k="name" v="Palazzo Panfilli" /><tag k="website" v="http://www.palazzopanfilli.it" /></node><node id="-138" lat="46.1825826" lon="13.1962886" version="1"><tag k="fax" v="+39 0432851487" /><tag k="phone" v="+39 0432851487" /><tag k="email" v="info@deciani.it" /><tag k="name" v="Villa Gallici Deciani" /><tag k="website" v="http://www.deciani.it" /><tag k="rooms" v="3" /><tag k="address" v="Via Gallici 27, CASSACCO" /><tag k="tourism" v="guest_house" /><tag k="beds" v="6" /><tag k="opening_hours" v="Jan 15 - Dec 15" /><tag k="ref" v="42642" /><tag k="operator" v="Deciani Luigi" /></node><node id="-139" lat="45.9976847" lon="13.3947944" version="1"><tag k="rooms" v="4" /><tag k="address" v="Via San Tommaso 21, MANZANO" /><tag k="tourism" v="guest_house" /><tag k="beds" v="8" /><tag k="fax" v="+39 0432 740657" /><tag k="phone" v="+39 0432 740657" /><tag k="opening_hours" v="Jan 10 - Mar 20, Apr 21 - Jun 20, Jul 18 - Jul 31, Sep 01 - Dec 15" /><tag k="email" v="francesco.sapia@alice.it" /><tag k="operator" v="Del Sole" /><tag k="ref" v="42700" /></node><node id="-140" lat="46.5113495" lon="13.4735346" version="1"><tag k="rooms" v="3" /><tag k="operator" v="Errath Natascia" /><tag k="tourism" v="guest_house" /><tag k="beds" v="6" /><tag k="opening_hours" v="Jan 01 - Mar 15, Jul 01 - Sep 30, Dec 15 - Dec 31" /><tag k="address" v="Via dei Campi 9, MALBORGHETTO VALBRUNA" /><tag k="email" v="emyfive@live.it" /><tag k="name" v="Le Genziane" /><tag k="ref" v="42800" /></node><node id="-141" lat="46.1327709" lon="13.0163264" version="1"><tag k="fax" v="+39 0432 809291" /><tag k="phone" v="+39 0432 809291" /><tag k="email" v="giacomini.franco@gmail.com" /><tag k="name" v="Nel Cuore Del Friuli" /><tag k="website" v="http://www.locandanelcuoredelfriuli.it" /><tag k="rooms" v="3" /><tag k="address" v="Via della Stazione 6, RIVE DARCANO" /><tag k="tourism" v="guest_house" /><tag k="beds" v="6" /><tag k="opening_hours" v="Feb 01 - Dec 31" /><tag k="ref" v="43520" /><tag k="operator" v="Giacomini Franco" /></node><node id="-142" lat="45.8198019" lon="13.5789200001601" version="1"><tag k="rooms" v="2" /><tag k="operator" v="Stepanovic Radmila" /><tag k="ref" v="43640" /><tag k="tourism" v="guest_house" /><tag k="beds" v="4" /><tag k="opening_hours" v="Jun 01 - Aug 31" /><tag k="address" v="Via Primo maggio  3/A, DOBERDÒ DEL LAGO" /><tag k="email" v="villaalbosco@yahoo.it" /><tag k="name" v="Villa Al Bosco" /><tag k="fixme" v="merge" /><tag k="website" v="http://www.villa-albosco.it" /></node><node id="-143" lat="46.0443219" lon="13.2558632" version="1"><tag k="fax" v="+39 338 6045489" /><tag k="phone" v="+39 338 6045489" /><tag k="email" v="bb.borgonuvola@gmail.com" /><tag k="name" v="Borgo Nuvola" /><tag k="website" v="http://www.borgonuvola.it" /><tag k="rooms" v="2" /><tag k="address" v="Via Risano  19/4, UDINE" /><tag k="tourism" v="guest_house" /><tag k="beds" v="3" /><tag k="opening_hours" v="Jan 06 - Feb 10, Mar 20 - May 30, Jun 10 - Jun 30, Jul 15 - Aug 20, Sep 01 - Dec 31" /><tag k="ref" v="43680" /><tag k="operator" v="Calligaris Pamela" /></node><node id="-144" lat="46.4776266" lon="12.8532137" version="1"><tag k="rooms" v="3" /><tag k="phone" v="+39 0433 747650" /><tag k="ref" v="43740" /><tag k="tourism" v="guest_house" /><tag k="beds" v="6" /><tag k="fax" v="+39 0433 747650" /><tag k="address" v="Via Otto Ottobre di Mione 43, OVARO" /><tag k="opening_hours" v="Jan 01 - Nov 04, Dec 05 - Dec 31" /><tag k="operator" v="Maria Nagostinis" /><tag k="name" v="Mandi Mandi" /><tag k="website" v="http://www.mandimandi.it" /></node><node id="-145" lat="46.1094388" lon="13.0903975" version="1"><tag k="rooms" v="3" /><tag k="address" v="Via Udine 63, FAGAGNA" /><tag k="tourism" v="guest_house" /><tag k="beds" v="5" /><tag k="fax" v="+39 0432 800172" /><tag k="phone" v="+39 0432 800172" /><tag k="opening_hours" v="Apr 01 - Oct 31" /><tag k="email" v="zemiralino@yahoo.it" /><tag k="operator" v="E Lino" /><tag k="ref" v="43800" /></node><node id="-146" lat="46.4083764" lon="12.9997511" version="1"><tag k="rooms" v="3" /><tag k="operator" v="Orlando Caterina" /><tag k="tourism" v="guest_house" /><tag k="beds" v="4" /><tag k="opening_hours" v="Jan 01 - Feb 28, May 01 - Sep 30, Nov 01 - Dec 31" /><tag k="address" v="Via monte Grappa  74/C, TOLMEZZO" /><tag k="ref" v="43881" /></node><node id="-147" lat="45.6059663" lon="13.7635649" version="1"><tag k="rooms" v="2" /><tag k="phone" v="+39 040 330747" /><tag k="ref" v="43882" /><tag k="tourism" v="guest_house" /><tag k="beds" v="5" /><tag k="fax" v="+39 040 330747" /><tag k="address" v="Lungomare Venezia 7, MUGGIA" /><tag k="opening_hours" v="Apr 15 - Dec 15" /><tag k="operator" v="Zuppet Serafino" /><tag k="name" v="B&amp;B Le Vele" /><tag k="website" v="http://www.inognidove.com" /></node><node id="-148" lat="45.8366671" lon="13.4840548" version="1"><tag k="fax" v="+39 0481 475244" /><tag k="phone" v="+39 0481 475244" /><tag k="email" v="anita@villanita-guesthouse.it" /><tag k="name" v="Villa Anita" /><tag k="website" v="http://www.villanita-guesthouse.it" /><tag k="rooms" v="2" /><tag k="address" v="Piazza San Tommaso  10/B, RONCHI DEI LEGIONARI" /><tag k="tourism" v="guest_house" /><tag k="beds" v="4" /><tag k="opening_hours" v="Apr 01 - Sep 30, Oct 15 - Dec 31" /><tag k="ref" v="44000" /><tag k="operator" v="Marizza Paolo" /></node><node id="-149" lat="46.0059191" lon="13.2280892" version="1"><tag k="rooms" v="3" /><tag k="address" v="Via San Giorgio 27, POZZUOLO DEL FRIULI" /><tag k="tourism" v="guest_house" /><tag k="beds" v="6" /><tag k="fax" v="+39 0432 560205" /><tag k="phone" v="+39 0432 560205" /><tag k="opening_hours" v="Jan 01 - Apr 30, May 16 - Jul 31, Sep 01 - Oct 31, Dec 01 - Dec 15" /><tag k="email" v="bebluna@alice.it" /><tag k="operator" v="Gori Nadia" /><tag k="name" v="Alla Luna" /><tag k="ref" v="44160" /></node><node id="-150" lat="45.6653835" lon="13.76809" version="1"><tag k="fax" v="+39 040 415252" /><tag k="phone" v="+39 040 415252" /><tag k="email" v="mail@villafausta-trieste.com" /><tag k="name" v="Villa Fausta" /><tag k="website" v="http://www.villafausta-trieste.com" /><tag k="rooms" v="3" /><tag k="address" v="Salita di Gretta 5, TRIESTE" /><tag k="tourism" v="guest_house" /><tag k="beds" v="8" /><tag k="opening_hours" v="Jan 01 - Jan 10, Jan 15 - Dec 21, Dec 28 - Dec 31" /><tag k="ref" v="44180" /><tag k="operator" v="Tracanelli Sergio" /></node><node id="-151" lat="46.0297724" lon="13.3074474" version="1"><tag k="fax" v="+39 0432 670174" /><tag k="phone" v="+39 0432 670174" /><tag k="email" v="vinitami@libero.it" /><tag k="name" v="Italia" /><tag k="website" v="http://www.vinitami.it" /><tag k="rooms" v="3" /><tag k="address" v="Via Lovaria 26, PRADAMANO" /><tag k="tourism" v="guest_house" /><tag k="beds" v="6" /><tag k="opening_hours" v="Jan 15 - Dec 15" /><tag k="ref" v="44440" /><tag k="operator" v="Tami Roberto" /></node><node id="-152" lat="45.6455895" lon="13.76084" version="1"><tag k="rooms" v="1" /><tag k="address" v="Via del Lazzaretto Vecchio 12, TRIESTE" /><tag k="tourism" v="guest_house" /><tag k="beds" v="2" /><tag k="fax" v="+39 040 3220618" /><tag k="phone" v="+39 040 3220618" /><tag k="opening_hours" v="Mar 01 - Nov 02, Dec 07 - Dec 31" /><tag k="email" v="marina.peppino@hotmail.it" /><tag k="operator" v="Rondini Marina" /><tag k="name" v="La Casa Dei Bassotti" /><tag k="ref" v="44500" /></node><node id="-153" lat="45.9425688" lon="13.0482058" version="1"><tag k="rooms" v="3" /><tag k="operator" v="Brisotto Claudia" /><tag k="tourism" v="guest_house" /><tag k="beds" v="7" /><tag k="opening_hours" v="Jan 01 - Jan 09, Mar 01 - Nov 09, Dec 20 - Dec 31" /><tag k="address" v="Piazza Mercato 7, BERTIOLO" /><tag k="email" v="snowleagle@yahoo.it" /><tag k="name" v="Salvia E Rosmarino" /><tag k="ref" v="44660" /></node><node id="-154" lat="45.6851998" lon="13.7917372" version="1"><tag k="fax" v="+39 040 211380" /><tag k="phone" v="+39 040 211380" /><tag k="email" v="diana@bb-trieste.com" /><tag k="name" v="Diana" /><tag k="website" v="http://www.bb-trieste.com" /><tag k="rooms" v="2" /><tag k="address" v="Via di Conconello 19, TRIESTE" /><tag k="tourism" v="guest_house" /><tag k="beds" v="3" /><tag k="opening_hours" v="Jan 01 - Jan 09, Jan 16 - Nov 17, Nov 25 - Dec 31" /><tag k="ref" v="44980" /><tag k="operator" v="Marchesich Diana" /></node><node id="-155" lat="45.6418687" lon="13.7998717" version="1"><tag k="fax" v="+39 040 0642236" /><tag k="phone" v="+39 040 0642236" /><tag k="email" v="info@bedandbreakfastgrim.it" /><tag k="name" v="Grim" /><tag k="website" v="http://www.bedandbreakfastgrim.it" /><tag k="rooms" v="4" /><tag k="address" v="Via Pasquale Revoltella 87, TRIESTE" /><tag k="tourism" v="guest_house" /><tag k="beds" v="7" /><tag k="opening_hours" v="Jan 10 - Jul 31, Aug 15 - Dec 25" /><tag k="ref" v="45100" /><tag k="operator" v="Zamarin Giuliano" /></node><node id="-156" lat="46.1061115" lon="12.8634372" version="1"><tag k="rooms" v="1" /><tag k="phone" v="+39 0427 950970" /><tag k="ref" v="45120" /><tag k="tourism" v="guest_house" /><tag k="beds" v="3" /><tag k="fax" v="+39 0427 950970" /><tag k="address" v="Vicolo Stretto 1, SPILIMBERGO" /><tag k="opening_hours" v="Apr 01 - Dec 31" /><tag k="email" v="borgomora@borgodalamora.it" /><tag k="website" v="http://www.borgodalamora.it" /></node><node id="-157" lat="45.6575404" lon="13.7960506" version="1"><tag k="rooms" v="3" /><tag k="address" v="Via dello Scoglio 51, TRIESTE" /><tag k="tourism" v="guest_house" /><tag k="beds" v="6" /><tag k="fax" v="+39 040 2032367" /><tag k="phone" v="+39 040 2032367" /><tag k="opening_hours" v="Jan 01 - Nov 06, Dec 05 - Dec 31" /><tag k="email" v="alloscoglio@libero.it" /><tag k="operator" v="Grieco Ruggero" /><tag k="name" v="Allo Scoglio" /><tag k="ref" v="45200" /></node><node id="-158" lat="45.7774968" lon="13.3734696" version="1"><tag k="rooms" v="3" /><tag k="phone" v="+39 0431 918659" /><tag k="tourism" v="guest_house" /><tag k="beds" v="6" /><tag k="fax" v="+39 0431 918659" /><tag k="address" v="Via Rosa Rosemberg 1, AQUILEIA" /><tag k="opening_hours" v="Mar 01 - May 20, May 25 - Jun 30, Jul 05 - Aug 20, Aug 25 - Oct 30" /><tag k="operator" v="Mian Giovanni" /><tag k="name" v="Casa Disma" /><tag k="ref" v="45280" /></node><node id="-159" lat="46.4320453" lon="13.0190003" version="1"><tag k="rooms" v="2" /><tag k="operator" v="Marcolini Daniela" /><tag k="tourism" v="guest_house" /><tag k="beds" v="4" /><tag k="opening_hours" v="Jan 01 - Apr 15, May 01 - Sep 15, Nov 01 - Nov 30, Dec 15 - Dec 31" /><tag k="address" v="Via Romana 20, TOLMEZZO" /><tag k="email" v="scriviadaniela@yahoo.it" /><tag k="name" v="Nel Verde" /><tag k="ref" v="45421" /></node><node id="-160" lat="46.047671" lon="13.2256937" version="1"><tag k="rooms" v="2" /><tag k="address" v="Via Paolo Fistulario 42, UDINE" /><tag k="tourism" v="guest_house" /><tag k="beds" v="5" /><tag k="fax" v="+39 0432 234077" /><tag k="phone" v="+39 0432 234077" /><tag k="opening_hours" v="Mar 01 - Jul 31, Sep 16 - Dec 31" /><tag k="email" v="maxbighammers@libero.it" /><tag k="operator" v="Pessotto Erica" /><tag k="name" v="B &amp; B Erica" /><tag k="ref" v="45841" /></node><node id="-161" lat="45.9060296" lon="13.3103147" version="1"><tag k="rooms" v="1" /><tag k="phone" v="+39 0432 923774" /><tag k="tourism" v="guest_house" /><tag k="beds" v="4" /><tag k="fax" v="+39 0432 923774" /><tag k="address" v="Piazza Grande 14, PALMANOVA" /><tag k="opening_hours" v="Feb 01 - Feb 28, Apr 01 - Jun 30, Aug 01 - Aug 30, Sep 15 - Sep 30" /><tag k="email" v="LUCIA@CREDRA.COM" /><tag k="ref" v="45960" /></node><node id="-162" lat="45.6469648" lon="13.7746412" version="1"><tag k="fax" v="+39 040 302564" /><tag k="phone" v="+39 040 302564" /><tag k="email" v="info@trerosetrieste.it" /><tag k="name" v="Tre Rose" /><tag k="website" v="http://www.trerosetrieste.it" /><tag k="rooms" v="1" /><tag k="address" v="Via Tommaso Grossi 16, TRIESTE" /><tag k="tourism" v="guest_house" /><tag k="beds" v="4" /><tag k="opening_hours" v="Jan 01 - Jan 10, Jan 15 - Jan 18, Jan 22 - Jan 24, Jan 29 - Jan 31, Feb 05 - Feb 07, Feb 11 - Dec 31" /><tag k="ref" v="46180" /><tag k="operator" v="Battelini Aisha" /></node><node id="-163" lat="46.0437614" lon="13.2371649" version="1"><tag k="rooms" v="2" /><tag k="address" v="Via Campagnola 60, UDINE" /><tag k="tourism" v="guest_house" /><tag k="beds" v="4" /><tag k="fax" v="+39 349 2228475" /><tag k="phone" v="+39 349 2228475" /><tag k="opening_hours" v="Jan 01 - Jan 14, Feb 15 - Mar 14, Apr 15 - Sep 30, Nov 01 - Dec 31" /><tag k="email" v="gigliobiancoud@yahoo.it" /><tag k="operator" v="Levi Gigliola" /><tag k="name" v="Al Giglio Bianco" /><tag k="ref" v="46240" /></node><node id="-164" lat="45.8486582" lon="12.6882548" version="1"><tag k="rooms" v="3" /><tag k="phone" v="+39 0434 649165" /><tag k="ref" v="46380" /><tag k="tourism" v="guest_house" /><tag k="beds" v="6" /><tag k="fax" v="+39 0434 649165" /><tag k="address" v="Via Chiesa Antica 6, AZZANO DECIMO" /><tag k="opening_hours" v="Mar 01 - Nov 30" /><tag k="email" v="info@camarsure.com" /><tag k="website" v="http://www.camarsure.com" /></node><node id="-165" lat="45.6854799" lon="13.7956515" version="1"><tag k="rooms" v="3" /><tag k="operator" v="Carli Vaslij" /><tag k="ref" v="46400" /><tag k="tourism" v="guest_house" /><tag k="beds" v="6" /><tag k="opening_hours" v="Mar 01 - Dec 31" /><tag k="address" v="Via di Basovizza 20, TRIESTE" /><tag k="email" v="info@beblaghetto.it" /><tag k="name" v="Al Laghetto" /><tag k="website" v="http://www.beblaghetto.it" /></node><node id="-166" lat="45.6553096" lon="13.8361374" version="1"><tag k="fax" v="+39 040 226554" /><tag k="phone" v="+39 040 226554" /><tag k="email" v="info@stirenca.it" /><tag k="name" v="?tirenca" /><tag k="website" v="http://www.stirenca.it" /><tag k="rooms" v="3" /><tag k="address" v="sentiero padriciano 260, TRIESTE" /><tag k="tourism" v="guest_house" /><tag k="beds" v="7" /><tag k="opening_hours" v="Mar 18 - Dec 01" /><tag k="ref" v="46440" /><tag k="operator" v="Palcich Anna" /></node><node id="-167" lat="45.6781446" lon="13.0814784" version="1"><tag k="rooms" v="3" /><tag k="address" v="Via del Capricorno 6, LATISANA" /><tag k="tourism" v="guest_house" /><tag k="beds" v="6" /><tag k="fax" v="+39 0431 096082" /><tag k="phone" v="+39 0431 096082" /><tag k="opening_hours" v="Jan 01 - Jan 10, Mar 01 - Oct 31, Dec 20 - Dec 31" /><tag k="email" v="claudiagrando@libero.it" /><tag k="operator" v="Grando Claudia" /><tag k="name" v="B&amp;B Al Ponte" /><tag k="ref" v="46780" /></node><node id="-168" lat="45.7773535" lon="13.3734309" version="1"><tag k="rooms" v="4" /><tag k="phone" v="+39 0431 918659" /><tag k="tourism" v="guest_house" /><tag k="beds" v="8" /><tag k="fax" v="+39 0431 918659" /><tag k="address" v="Via Rosa Rosemberg 7, AQUILEIA" /><tag k="opening_hours" v="Jan 10 - Jan 15, Feb 10 - Mar 15, Mar 28 - May 05, May 10 - Jun 30, Jul 05 - Aug 25, Aug 30 - Sep 30, Oct 10 - Nov 15" /><tag k="operator" v="Bertogna Maria" /><tag k="name" v="Casa Maria" /><tag k="ref" v="46940" /></node><node id="-169" lat="45.7761835" lon="13.3735171" version="1"><tag k="rooms" v="4" /><tag k="phone" v="+39 0431 918664" /><tag k="tourism" v="guest_house" /><tag k="beds" v="8" /><tag k="fax" v="+39 0431 918664" /><tag k="address" v="Via Rosa Rosemberg 19, AQUILEIA" /><tag k="opening_hours" v="Mar 01 - Mar 28, Apr 01 - Apr 28, May 01 - Jun 28, Jul 01 - Aug 26, Sep 01 - Oct 30" /><tag k="operator" v="Lorenzut Norma" /><tag k="name" v="Casa Norma" /><tag k="ref" v="46941" /></node><node id="-170" lat="45.7799838" lon="13.3601966" version="1"><tag k="rooms" v="4" /><tag k="phone" v="+39 0431 91452" /><tag k="tourism" v="guest_house" /><tag k="beds" v="8" /><tag k="fax" v="+39 0431 91452" /><tag k="address" v="Via Giulia Augusta 81, AQUILEIA" /><tag k="opening_hours" v="Mar 20 - Sep 20" /><tag k="ref" v="46942" /></node><node id="-171" lat="45.6486871" lon="13.7795323" version="1"><tag k="fax" v="+39 040 639517" /><tag k="phone" v="+39 040 639517" /><tag k="email" v="brass@bedandbreakfast-trieste.com" /><tag k="name" v="Brass" /><tag k="website" v="http://www.bedandbreakfast-trieste.com" /><tag k="rooms" v="4" /><tag k="address" v="Via San Maurizio 5, TRIESTE" /><tag k="tourism" v="guest_house" /><tag k="beds" v="8" /><tag k="opening_hours" v="Jan 01 - Jan 08, Jan 09 - Feb 22, Mar 02 - Nov 22, Nov 23 - Dec 31" /><tag k="ref" v="47080" /><tag k="operator" v="Romich Giovanni" /></node><node id="-172" lat="45.6429812" lon="13.7895262" version="1"><tag k="rooms" v="1" /><tag k="operator" v="Blasizza Federica" /><tag k="ref" v="47081" /><tag k="tourism" v="guest_house" /><tag k="beds" v="4" /><tag k="opening_hours" v="Jan 01 - Jan 10, Jan 22 - Oct 10, Oct 21 - Dec 31" /><tag k="address" v="Via Bartoletti 4, TRIESTE" /><tag k="email" v="info@ventodibora.it" /><tag k="name" v="Ventodibora" /><tag k="website" v="http://www.ventodibora.it" /></node><node id="-173" lat="45.6866133" lon="13.7879705" version="1"><tag k="fax" v="+39 040 420341" /><tag k="phone" v="+39 040 420341" /><tag k="email" v="info@villalbori.it" /><tag k="name" v="Villa Albori" /><tag k="website" v="http://www.villaalbori.it" /><tag k="rooms" v="3" /><tag k="address" v="via Nazionale 41, TRIESTE" /><tag k="tourism" v="guest_house" /><tag k="beds" v="7" /><tag k="opening_hours" v="Jan 01 - Jan 09, Jan 16 - Feb 10, Feb 17 - Oct 11, Oct 18 - Dec 31" /><tag k="ref" v="47260" /><tag k="operator" v="Piazzi Martina" /></node><node id="-174" lat="46.2092928" lon="12.897066" version="1"><tag k="fax" v="+39 0427 97515" /><tag k="phone" v="+39 0427 97515" /><tag k="email" v="donatello.trevisanutto@gmail.com" /><tag k="name" v="B&amp;B Valli Pordenonesi I" /><tag k="website" v="http://www.bedfriuli.it" /><tag k="rooms" v="2" /><tag k="address" v="Località Almadis 17, CASTELNOVO DEL FRIULI" /><tag k="tourism" v="guest_house" /><tag k="beds" v="6" /><tag k="opening_hours" v="Jan 01 - Jan 08, Apr 01 - Sep 15, Dec 20 - Dec 31" /><tag k="ref" v="47580" /><tag k="operator" v="Trevisanutto Donatello" /></node><node id="-175" lat="45.6449529" lon="13.7602211" version="1"><tag k="rooms" v="2" /><tag k="operator" v="Lombardi Rachele" /><tag k="ref" v="47620" /><tag k="tourism" v="guest_house" /><tag k="beds" v="4" /><tag k="opening_hours" v="Jan 01 - Feb 01, Feb 08 - Aug 02, Aug 09 - Dec 31" /><tag k="address" v="Via Belpoggio 5, TRIESTE" /><tag k="name" v="Belcinque" /><tag k="website" v="http://www.belcinque.it" /></node><node id="-176" lat="45.7721882" lon="13.3664542" version="1"><tag k="fax" v="+39 0431 918742" /><tag k="phone" v="+39 0431 918742" /><tag k="email" v="info@casadigiulia.it" /><tag k="name" v="Casa di Giulia" /><tag k="website" v="http://www.casadigiulia.it" /><tag k="rooms" v="3" /><tag k="address" v="Via Giulia Augusta 21, AQUILEIA" /><tag k="tourism" v="guest_house" /><tag k="beds" v="8" /><tag k="opening_hours" v="Mar 16 - Oct 31, Nov 01 - Nov 06, Nov 23 - Dec 31" /><tag k="ref" v="47680" /><tag k="operator" v="Comelli Giuliamaria" /></node><node id="-177" lat="45.6934813" lon="13.7393466" version="1"><tag k="rooms" v="2" /><tag k="address" v="Viale Miramare  281/2, TRIESTE" /><tag k="tourism" v="guest_house" /><tag k="beds" v="3" /><tag k="fax" v="+39 040 410936" /><tag k="phone" v="+39 040 410936" /><tag k="opening_hours" v="Apr 10 - Oct 31" /><tag k="email" v="mitta13@virgilio.it" /><tag k="operator" v="Lindegg Maria" /><tag k="ref" v="47741" /></node><node id="-178" lat="45.6651618" lon="13.7797756" version="1"><tag k="rooms" v="1" /><tag k="operator" v="Olivo Dorina" /><tag k="ref" v="47742" /><tag k="tourism" v="guest_house" /><tag k="beds" v="3" /><tag k="opening_hours" v="Sep 01 - Dec 31" /><tag k="address" v="Via Commerciale  148/5, TRIESTE" /><tag k="email" v="gavazzisa@tin.it" /><tag k="name" v="All Ancora Blu" /><tag k="website" v="http://www.bebancorablu.it" /></node><node id="-179" lat="45.7720226" lon="13.0167711" version="1"><tag k="rooms" v="2" /><tag k="operator" v="Pez Albina" /><tag k="tourism" v="guest_house" /><tag k="beds" v="3" /><tag k="opening_hours" v="Jun 01 - Aug 29" /><tag k="address" v="Via Damiano Chiesa 46, LATISANA" /><tag k="email" v="dasabrina@hotmail.it" /><tag k="name" v="4 Chiacchiere" /><tag k="ref" v="47780" /></node><node id="-180" lat="45.995637" lon="13.025972" version="1"><tag k="rooms" v="1" /><tag k="address" v="Vicolo Chiuso 23, CODROIPO" /><tag k="tourism" v="guest_house" /><tag k="beds" v="2" /><tag k="fax" v="+39 432900100" /><tag k="phone" v="+39 432900100" /><tag k="opening_hours" v="Sep 01 - Sep 30" /><tag k="email" v="c.scanferlato@gmail.com" /><tag k="operator" v="Scanferlato Chiara" /><tag k="name" v="Abbastanza" /><tag k="ref" v="47821" /></node><node id="-181" lat="46.0382731" lon="12.4952738" version="1"><tag k="rooms" v="2" /><tag k="address" v="Via Giuliana 32, POLCENIGO" /><tag k="tourism" v="guest_house" /><tag k="beds" v="4" /><tag k="fax" v="+39 0434 748959" /><tag k="phone" v="+39 0434 748959" /><tag k="opening_hours" v="Feb 01 - Dec 31" /><tag k="email" v="bbgorgazzo@gmail.com" /><tag k="operator" v="Celant Vanda" /><tag k="name" v="B&amp;B Gorgazzo" /><tag k="ref" v="47860" /></node><node id="-182" lat="45.7625892" lon="13.5163845" version="1"><tag k="rooms" v="1" /><tag k="operator" v="Stefanetto Lorenza" /><tag k="tourism" v="guest_house" /><tag k="beds" v="1" /><tag k="opening_hours" v="Jan 01 - Jan 06, Jan 22 - Sep 07, Sep 22 - Dec 31" /><tag k="address" v="Via Grappeta 28, STARANZANO" /><tag k="email" v="lorenzastefanetto@gmail.com" /><tag k="name" v="Trova Tempo" /><tag k="ref" v="48040" /></node><node id="-183" lat="45.9695247" lon="12.6510119" version="1"><tag k="rooms" v="3" /><tag k="address" v="Via Montereale 45, PORDENONE" /><tag k="ref" v="48360" /><tag k="tourism" v="guest_house" /><tag k="beds" v="6" /><tag k="fax" v="+39 0434 366288" /><tag k="phone" v="+39 0434 366288" /><tag k="opening_hours" v="Jan 17 - Aug 12, Aug 27 - Dec 31" /><tag k="email" v="info@giardinoincitta.it" /><tag k="operator" v="Re Enrichetta" /><tag k="website" v="http://www.giardinoincitta.it" /></node><node id="-184" lat="45.9630823" lon="12.6602957" version="1"><tag k="rooms" v="1" /><tag k="operator" v="Tius Silvano" /><tag k="ref" v="48381" /><tag k="tourism" v="guest_house" /><tag k="beds" v="2" /><tag k="opening_hours" v="Feb 15 - Nov 14" /><tag k="address" v="Via Molinari 14, PORDENONE" /><tag k="email" v="lovisan@libero.it" /><tag k="name" v="Casa Ai Gelsomini" /><tag k="website" v="http://casaaigelsomini.it" /></node><node id="-185" lat="45.957337" lon="13.4721619" version="1"><tag k="rooms" v="1" /><tag k="address" v="Via Gorizia  18/3, CORMONS" /><tag k="tourism" v="guest_house" /><tag k="beds" v="4" /><tag k="fax" v="+39 0481 630887" /><tag k="phone" v="+39 0481 630887" /><tag k="opening_hours" v="Jan 01 - Aug 11, Aug 13 - Dec 31" /><tag k="email" v="dasandruta@yahoo.it" /><tag k="operator" v="Zanuttin Stefano" /><tag k="name" v="B&amp;B da Sandruta" /><tag k="ref" v="48460" /></node><node id="-186" lat="45.9416407" lon="13.0524057" version="1"><tag k="rooms" v="4" /><tag k="operator" v="Olivo Ermenegildo" /><tag k="ref" v="48500" /><tag k="tourism" v="guest_house" /><tag k="beds" v="8" /><tag k="opening_hours" v="Jan 15 - Dec 15" /><tag k="address" v="Via Margherita 12, BERTIOLO" /><tag k="email" v="info@bebgildo.it" /><tag k="website" v="http://www.bebgildo.it" /></node><node id="-187" lat="46.5222445" lon="12.7715215" version="1"><tag k="rooms" v="2" /><tag k="address" v="Frazione Pesariis 117, PRATO CARNICO" /><tag k="tourism" v="guest_house" /><tag k="beds" v="3" /><tag k="opening_hours" v="Mar 20 - Oct 25" /><tag k="ref" v="48560" /><tag k="email" v="teresadalnuf@yahoo.it" /></node><node id="-188" lat="45.6631856" lon="13.7701732" version="1"><tag k="rooms" v="1" /><tag k="operator" v="Feno Marina" /><tag k="ref" v="48641" /><tag k="tourism" v="guest_house" /><tag k="beds" v="2" /><tag k="opening_hours" v="Jan 01 - Jan 11, Jan 29 - Feb 15, Mar 04 - Dec 31" /><tag k="address" v="Largo a Roiano  3/4, TRIESTE" /><tag k="email" v="mdf@familylifetrieste.it" /><tag k="website" v="http://www.familylifetrieste.it" /></node><node id="-189" lat="45.6189284" lon="13.7901164" version="1"><tag k="rooms" v="2" /><tag k="operator" v="Franzinelli Gabriela" /><tag k="ref" v="48780" /><tag k="tourism" v="guest_house" /><tag k="beds" v="4" /><tag k="opening_hours" v="Jan 25 - Mar 24, Apr 04 - Jun 16, Jun 27 - Jul 07, Jul 18 - Aug 12, Aug 29 - Sep 16, Sep 26 - Oct 27, Nov 07 - Dec 22" /><tag k="address" v="Via Carlo Schmidl 5, TRIESTE" /><tag k="email" v="bb-mimosa@libero.it" /><tag k="name" v="Mimosa" /><tag k="website" v="http://www.bb-mimosa-trieste.weebly.com" /></node><node id="-190" lat="45.8741072" lon="13.5330883" version="1"><tag k="rooms" v="2" /><tag k="operator" v="Fegino Renato" /><tag k="tourism" v="guest_house" /><tag k="beds" v="4" /><tag k="opening_hours" v="Jan 01 - Jan 15, Mar 01 - Oct 15, Dec 15 - Dec 31" /><tag k="address" v="Via Piantella 3, SAGRADO" /><tag k="email" v="renatofegino@alice.it" /><tag k="name" v="B &amp; B S. Martino" /><tag k="fixme" v="merge" /><tag k="ref" v="48920" /></node><node id="-191" lat="45.8874103" lon="13.5005061" version="1"><tag k="rooms" v="1" /><tag k="address" v="Viale Trieste 27, GRADISCA DISONZO" /><tag k="tourism" v="guest_house" /><tag k="beds" v="2" /><tag k="fax" v="+39 0481 483236" /><tag k="phone" v="+39 0481 483236" /><tag k="opening_hours" v="Jan 03 - Jan 15, Feb 01 - Sep 30, Nov 01 - Dec 31" /><tag k="email" v="assita46@libero.it" /><tag k="operator" v="Pugliese Assunta" /><tag k="name" v="La Fortezza" /><tag k="ref" v="48960" /></node><node id="-192" lat="45.8526039" lon="12.740577" version="1"><tag k="rooms" v="2" /><tag k="phone" v="+39 349 6278838" /><tag k="tourism" v="guest_house" /><tag k="beds" v="6" /><tag k="fax" v="+39 349 6278838" /><tag k="address" v="Via Villalta  33/B, CHIONS" /><tag k="opening_hours" v="Jan 01 - Nov 30" /><tag k="operator" v="Carraro Gianni" /><tag k="name" v="La Cantina" /><tag k="ref" v="49060" /></node><node id="-193" lat="45.6909857" lon="13.7444843" version="1"><tag k="fax" v="+39 040 412086" /><tag k="phone" v="+39 040 412086" /><tag k="email" v="info@triestealtramonto.it" /><tag k="name" v="Al Tramonto" /><tag k="website" v="http://WWW.TRIESTEALTRAMONTO.IT" /><tag k="rooms" v="2" /><tag k="address" v="Salita di Contovello  69/2, TRIESTE" /><tag k="tourism" v="guest_house" /><tag k="beds" v="5" /><tag k="opening_hours" v="Mar 15 - Jun 11, Jun 21 - Nov 05, Dec 07 - Dec 31" /><tag k="ref" v="49080" /><tag k="operator" v="Giambirtone Rosalba" /></node><node id="-194" lat="45.8608919" lon="13.3233796" version="1"><tag k="rooms" v="4" /><tag k="operator" v="Del Riso" /><tag k="ref" v="49221" /><tag k="tourism" v="guest_house" /><tag k="beds" v="4" /><tag k="opening_hours" v="Mar 15 - Nov 15" /><tag k="address" v="Via dei Castelli 21, CERVIGNANO DEL FRIULI" /><tag k="email" v="info@castellodistrassoldo.it" /><tag k="website" v="http://www.castellodistrassoldo.it" /></node><node id="-195" lat="45.6715318" lon="13.793133" version="1"><tag k="fax" v="+39 348 3064809" /><tag k="phone" v="+39 348 3064809" /><tag k="email" v="lanuvola@istrieste.it" /><tag k="name" v="La Nuvola Bianca" /><tag k="website" v="http://www.lanuvolabianca.it" /><tag k="rooms" v="1" /><tag k="address" v="Via dei Bidischini  2/3, TRIESTE" /><tag k="tourism" v="guest_house" /><tag k="beds" v="5" /><tag k="opening_hours" v="Jan 01 - Jun 15, Jul 01 - Nov 10, Dec 01 - Dec 31" /><tag k="ref" v="49404" /><tag k="operator" v="Zotti Monica" /></node><node id="-196" lat="45.6652707" lon="13.7662035" version="1"><tag k="rooms" v="1" /><tag k="operator" v="Paola Cantarutti" /><tag k="tourism" v="guest_house" /><tag k="beds" v="3" /><tag k="opening_hours" v="Jan 01 - Feb 02, Feb 10 - Sep 07, Sep 15 - Dec 31" /><tag k="address" v="Viale Miramare 55, TRIESTE" /><tag k="email" v="paola.cantarutti6@gmail.com" /><tag k="name" v="Miramare" /><tag k="ref" v="49520" /></node><node id="-197" lat="46.1903327" lon="13.0005125" version="1"><tag k="rooms" v="2" /><tag k="operator" v="Marini Marina" /><tag k="ref" v="49640" /><tag k="tourism" v="guest_house" /><tag k="beds" v="6" /><tag k="opening_hours" v="Mar 01 - Nov 30" /><tag k="address" v="Via Osoppo 41, RAGOGNA" /><tag k="email" v="info@bebmarina.com" /><tag k="name" v="B&amp;B Marina" /><tag k="website" v="http://www.bebmarina.com" /></node><node id="-198" lat="46.1187583" lon="13.1835234" version="1"><tag k="rooms" v="1" /><tag k="address" v="Via Plaino  17/4, PAGNACCO" /><tag k="tourism" v="guest_house" /><tag k="beds" v="2" /><tag k="fax" v="+39 0432 661194" /><tag k="phone" v="+39 0432 661194" /><tag k="opening_hours" v="Mar 01 - Oct 31" /><tag k="email" v="mauro.ganzini@gmail.com" /><tag k="operator" v="Ganzini Mauro" /><tag k="name" v="Green Time" /><tag k="ref" v="49641" /></node><node id="-199" lat="45.9257265" lon="12.546335" version="1"><tag k="rooms" v="2" /><tag k="operator" v="Casetta Graziella" /><tag k="tourism" v="guest_house" /><tag k="beds" v="4" /><tag k="opening_hours" v="Jan 01 - Jul 31, Aug 11 - Sep 20, Oct 01 - Dec 31" /><tag k="address" v="Via Carriade 44, BRUGNERA" /><tag k="email" v="graziella_casetta@libero.it" /><tag k="name" v="La Casa Rossa" /><tag k="ref" v="49901" /></node><node id="-200" lat="45.6540232" lon="13.7861359" version="1"><tag k="rooms" v="2" /><tag k="address" v="Via Giulia 6, TRIESTE" /><tag k="tourism" v="guest_house" /><tag k="beds" v="5" /><tag k="fax" v="+39 392 2941592" /><tag k="phone" v="+39 392 2941592" /><tag k="opening_hours" v="Jan 01 - Feb 14, Feb 29 - Nov 14, Dec 01 - Dec 31" /><tag k="email" v="esmeab@virgilio.it" /><tag k="operator" v="Esmeralda Abruzzese" /><tag k="name" v="Al Parco" /><tag k="ref" v="49920" /></node><node id="-201" lat="45.8140504" lon="13.4100447" version="1"><tag k="rooms" v="3" /><tag k="operator" v="Marconato Patrizia" /><tag k="tourism" v="guest_house" /><tag k="beds" v="6" /><tag k="opening_hours" v="Apr 01 - Sep 30" /><tag k="address" v="Via Cortona 21, RUDA" /><tag k="email" v="bbvillaritaruda@gmail.com" /><tag k="name" v="Villa Rita" /><tag k="ref" v="50083" /></node><node id="-202" lat="46.4373446" lon="12.8705281" version="1"><tag k="fax" v="+39 0433 746212" /><tag k="phone" v="+39 0433 746212" /><tag k="email" v="stefanocordovado@alice.it" /><tag k="name" v="Fra Luci E Misteli" /><tag k="website" v="http://www.fraluciemisteli.it" /><tag k="rooms" v="3" /><tag k="address" v="Via Macilles 13, RAVEO" /><tag k="tourism" v="guest_house" /><tag k="beds" v="6" /><tag k="opening_hours" v="Jun 01 - Jul 02, Jul 03 - Jul 31, Aug 01 - Aug 31, Sep 01 - Sep 30" /><tag k="ref" v="50161" /><tag k="operator" v="Cordovado Stefano" /></node><node id="-203" lat="45.886613" lon="13.5814244" version="1"><tag k="rooms" v="2" /><tag k="address" v="Piazza Indipendenza 3, SAVOGNA DISONZO" /><tag k="tourism" v="guest_house" /><tag k="beds" v="4" /><tag k="fax" v="+39 0481 882543" /><tag k="phone" v="+39 0481 882543" /><tag k="opening_hours" v="Mar 01 - Oct 31" /><tag k="email" v="edysambo@libero.it" /><tag k="operator" v="Sambo Edoardo" /><tag k="name" v="B&amp;B Al Vecchio Glicine" /><tag k="ref" v="50162" /></node><node id="-204" lat="45.9664013" lon="12.6533631" version="1"><tag k="rooms" v="3" /><tag k="operator" v="Guarini Roberto" /><tag k="ref" v="50302" /><tag k="tourism" v="guest_house" /><tag k="beds" v="6" /><tag k="opening_hours" v="Jan 01 - Jan 09, Feb 11 - Jul 31, Aug 31 - Nov 14, Dec 16 - Dec 31" /><tag k="address" v="Via Montereale 22, PORDENONE" /><tag k="email" v="info@bblagila.it" /><tag k="name" v="La Gila" /><tag k="website" v="http://www.bblagila.it" /></node><node id="-205" lat="46.3695076" lon="13.043046" version="1"><tag k="rooms" v="4" /><tag k="operator" v="Rulli Mattia" /><tag k="tourism" v="guest_house" /><tag k="beds" v="5" /><tag k="opening_hours" v="Jan 01 - Jan 15, Apr 01 - Nov 15, Dec 15 - Dec 31" /><tag k="address" v="Via San Rocco 30, CAVAZZO CARNICO" /><tag k="email" v="rullimattia@libero.it" /><tag k="name" v="A Li  Dal Cuac" /><tag k="ref" v="50360" /></node><node id="-206" lat="45.8228033" lon="13.355341" version="1"><tag k="rooms" v="2" /><tag k="address" v="Via L. Chiozza 43, CERVIGNANO DEL FRIULI" /><tag k="tourism" v="guest_house" /><tag k="beds" v="6" /><tag k="fax" v="+39 0431 909983" /><tag k="phone" v="+39 0431 909983" /><tag k="opening_hours" v="Mar 01 - Oct 10" /><tag k="email" v="sandrabuttignon@tiscali.it" /><tag k="operator" v="Buttignon Sandra" /><tag k="ref" v="50900" /></node><node id="-207" lat="46.0749419" lon="13.2289171" version="1"><tag k="fax" v="+39 392 8812742" /><tag k="phone" v="+39 392 8812742" /><tag k="email" v="bbmeriggio@gmail.com" /><tag k="name" v="B &amp; B Al Meriggio" /><tag k="website" v="http://www.bbmeriggio.com" /><tag k="rooms" v="3" /><tag k="address" v="Via Latisana 41, UDINE" /><tag k="tourism" v="guest_house" /><tag k="beds" v="6" /><tag k="opening_hours" v="Jan 15 - Jul 20, Sep 01 - Dec 15" /><tag k="ref" v="51240" /><tag k="operator" v="Pitis Giovanni" /></node><node id="-208" lat="46.0025593" lon="13.446419" version="1"><tag k="rooms" v="2" /><tag k="operator" v="Arrigoni Laura" /><tag k="tourism" v="guest_house" /><tag k="beds" v="4" /><tag k="opening_hours" v="Apr 01 - Oct 15" /><tag k="address" v="Località Gramogliano  13/B, CORNO DI ROSAZZO" /><tag k="email" v="bblacasadelpozzo@gmail.com" /><tag k="ref" v="51360" /></node><node id="-209" lat="45.9575248" lon="12.6302931" version="1"><tag k="rooms" v="2" /><tag k="phone" v="+39 0434 082243" /><tag k="ref" v="51400" /><tag k="tourism" v="guest_house" /><tag k="beds" v="4" /><tag k="fax" v="+39 0434 082243" /><tag k="address" v="Via Piave 2, PORCIA" /><tag k="opening_hours" v="Mar 01 - Nov 30" /><tag k="email" v="il.tubia.bb@gmail.com" /><tag k="website" v="http://www.iltubia.wordpress.com" /></node><node id="-210" lat="45.6572552" lon="13.7739242" version="1"><tag k="fax" v="+39 340 2360894" /><tag k="phone" v="+39 340 2360894" /><tag k="email" v="info@triesteplus.com" /><tag k="name" v="Trieste Plus" /><tag k="website" v="http://WWW.TRIESTEPLUS.COM" /><tag k="rooms" v="4" /><tag k="address" v="Via Udine 12, TRIESTE" /><tag k="tourism" v="guest_house" /><tag k="beds" v="7" /><tag k="opening_hours" v="Jan 01 - Feb 15, Feb 22 - Nov 20, Nov 28 - Dec 31" /><tag k="ref" v="51420" /><tag k="operator" v="Savanelli Stefano" /></node><node id="-211" lat="46.0307445" lon="13.2527733" version="1"><tag k="rooms" v="2" /><tag k="address" v="Via Veneto  177/11, UDINE" /><tag k="tourism" v="guest_house" /><tag k="beds" v="4" /><tag k="fax" v="+39 346 3748706" /><tag k="phone" v="+39 346 3748706" /><tag k="opening_hours" v="Jan 01 - Oct 31, Nov 12 - Dec 31" /><tag k="email" v="ceraunavolta_bb@libero.it" /><tag k="operator" v="Vidoni Ludovica" /><tag k="name" v="C Era Una Volta" /><tag k="ref" v="51680" /></node><node id="-212" lat="45.9609776" lon="12.8350651" version="1"><tag k="rooms" v="1" /><tag k="address" v="Via Manaras 12, CASARSA DELLA DELIZIA" /><tag k="tourism" v="guest_house" /><tag k="beds" v="3" /><tag k="fax" v="+39 0434 870931" /><tag k="phone" v="+39 0434 870931" /><tag k="opening_hours" v="Jan 01 - Jan 14, Mar 16 - Nov 14, Dec 16 - Dec 31" /><tag k="email" v="ester.pilosio@libero.it" /><tag k="operator" v="Ester Maria" /><tag k="ref" v="51681" /></node><node id="-213" lat="45.6530702" lon="13.7771464" version="1"><tag k="rooms" v="2" /><tag k="operator" v="Bilucaglia Laura" /><tag k="ref" v="51720" /><tag k="tourism" v="guest_house" /><tag k="beds" v="7" /><tag k="opening_hours" v="Jan 01 - Jan 17, Jan 25 - Feb 07, Feb 15 - Dec 31" /><tag k="address" v="Via del Coroneo 1, TRIESTE" /><tag k="email" v="atelierlidiapolla@gmail.com" /><tag k="name" v="Atelier Lidia Polla" /><tag k="website" v="http://www.atelierlidiapolla.com" /></node><node id="-214" lat="45.9734684" lon="13.3186063" version="1"><tag k="rooms" v="1" /><tag k="address" v="Via Pre Zaneto 34, PAVIA DI UDINE" /><tag k="tourism" v="guest_house" /><tag k="beds" v="3" /><tag k="fax" v="+39 0432676386  0432676340" /><tag k="phone" v="+39 0432676386  0432676340" /><tag k="opening_hours" v="Mar 01 - May 15, Jun 01 - Aug 15, Sep 01 - Dec 30" /><tag k="email" v="elena@lapein.it" /><tag k="operator" v="Grinovero Elena" /><tag k="name" v="B.&amp; B. Il Borghetto" /><tag k="ref" v="51820" /></node><node id="-215" lat="46.0393657" lon="13.2164186" version="1"><tag k="rooms" v="2" /><tag k="address" v="Via Cormor 81, CAMPOFORMIDO" /><tag k="tourism" v="guest_house" /><tag k="beds" v="4" /><tag k="fax" v="+39 0432 237059" /><tag k="phone" v="+39 0432 237059" /><tag k="opening_hours" v="Jan 01 - Jan 15, Mar 16 - Jun 16, Jul 01 - Aug 24, Sep 01 - Nov 20, Dec 01 - Dec 31" /><tag k="email" v="ciaolaurav27@libero.it" /><tag k="operator" v="Venuti Giancarlo" /><tag k="name" v="Benvenuti" /><tag k="ref" v="52260" /></node><node id="-216" lat="46.0199912" lon="12.6480398" version="1"><tag k="rooms" v="1" /><tag k="address" v="Via Pola 2, SAN QUIRINO" /><tag k="tourism" v="guest_house" /><tag k="beds" v="2" /><tag k="fax" v="+39 0434 919470" /><tag k="phone" v="+39 0434 919470" /><tag k="opening_hours" v="Feb 12 - Nov 09" /><tag k="email" v="regra1@virgilio.it" /><tag k="operator" v="Arca Graziella" /><tag k="name" v="Podere 35" /><tag k="ref" v="52380" /></node><node id="-217" lat="45.6664463" lon="13.766898" version="1"><tag k="rooms" v="3" /><tag k="operator" v="Lorenzo Meula" /><tag k="tourism" v="guest_house" /><tag k="beds" v="6" /><tag k="opening_hours" v="Jan 11 - Dec 22" /><tag k="address" v="Via al Cisternone 9, TRIESTE" /><tag k="email" v="chiarabeb@libero.it" /><tag k="name" v="Chiara" /><tag k="ref" v="52560" /></node><node id="-218" lat="45.6477406" lon="13.7643497" version="1"><tag k="rooms" v="2" /><tag k="operator" v="Viva Donatella" /><tag k="tourism" v="guest_house" /><tag k="beds" v="6" /><tag k="opening_hours" v="Jan 01 - Jan 30, Feb 02 - Feb 28, Mar 03 - Mar 28, Apr 01 - Apr 30, May 01 - May 23, May 26 - Jun 30, Jul 01 - Jul 30" /><tag k="address" v="Via Armando Diaz 19, TRIESTE" /><tag k="email" v="barcolanagold@gmail.com" /><tag k="name" v="Barcolana Gold" /><tag k="ref" v="52600" /></node><node id="-219" lat="45.6481153" lon="13.778446" version="1"><tag k="rooms" v="3" /><tag k="address" v="Largo della Barriera Vecchia 15, TRIESTE" /><tag k="ref" v="52640" /><tag k="tourism" v="guest_house" /><tag k="beds" v="6" /><tag k="fax" v="+39 345 5673624" /><tag k="phone" v="+39 345 5673624" /><tag k="opening_hours" v="Jan 01 - Jan 09, Feb 08 - Dec 31" /><tag k="email" v="info@zenzerocannella.it" /><tag k="operator" v="Gonzalez Herrera" /><tag k="website" v="http://www.zenzerocannella.it" /></node><node id="-220" lat="46.0364289" lon="13.3784494" version="1"><tag k="rooms" v="2" /><tag k="address" v="Via Buttrio 8, PREMARIACCO" /><tag k="ref" v="52780" /><tag k="tourism" v="guest_house" /><tag k="beds" v="6" /><tag k="fax" v="+39 0432 720563" /><tag k="phone" v="+39 0432 720563" /><tag k="opening_hours" v="Mar 01 - Nov 30" /><tag k="email" v="info@dorsaria.it" /><tag k="operator" v="Maria Flavia" /><tag k="website" v="http://www.dorsariabedandbreakfast.it" /></node><node id="-221" lat="45.7973268" lon="13.5313572" version="1"><tag k="rooms" v="4" /><tag k="operator" v="Favretto Laura" /><tag k="tourism" v="guest_house" /><tag k="beds" v="7" /><tag k="opening_hours" v="Jan 01 - Feb 15, Mar 01 - May 10, May 20 - Jul 31, Aug 01 - Nov 15, Dec 04 - Dec 31" /><tag k="address" v="Via San Gabriele 2, MONFALCONE" /><tag k="email" v="bandb.lormeggio2013@tiscali.it" /><tag k="name" v="L Ormeggio" /><tag k="ref" v="52800" /></node><node id="-222" lat="45.9747892" lon="12.6781046" version="1"><tag k="rooms" v="2" /><tag k="operator" v="Mary Anne" /><tag k="ref" v="52860" /><tag k="tourism" v="guest_house" /><tag k="beds" v="4" /><tag k="opening_hours" v="Jan 01 - Feb 10, Mar 03 - Dec 31" /><tag k="address" v="Via Adamello  7/B, PORDENONE" /><tag k="email" v="casadimary@gmail.com" /><tag k="website" v="http://www.casadimary.it" /></node><node id="-223" lat="45.9914874" lon="13.4120866" version="1"><tag k="rooms" v="4" /><tag k="address" v="Via Ronchi 13, SAN GIOVANNI AL NATISONE" /><tag k="tourism" v="guest_house" /><tag k="beds" v="8" /><tag k="fax" v="+39 0432 756691" /><tag k="phone" v="+39 0432 756691" /><tag k="opening_hours" v="Mar 01 - Nov 30" /><tag k="email" v="casa-demarco@virgilio.it" /><tag k="operator" v="Marco Franca" /><tag k="ref" v="52880" /></node><node id="-224" lat="45.6583725" lon="13.7732852" version="1"><tag k="fax" v="+39 040 2452935" /><tag k="phone" v="+39 040 2452935" /><tag k="email" v="alessandra.doratti@gmail.com" /><tag k="name" v="Better" /><tag k="website" v="http://www.bettertrieste.it" /><tag k="rooms" v="3" /><tag k="address" v="Via Udine 20, TRIESTE" /><tag k="tourism" v="guest_house" /><tag k="beds" v="5" /><tag k="opening_hours" v="Jan 01 - Jan 31, Mar 01 - Nov 20, Nov 30 - Dec 31" /><tag k="ref" v="53480" /><tag k="operator" v="Doratti Alessandra" /></node><node id="-225" lat="45.867626" lon="13.1454298" version="1"><tag k="rooms" v="2" /><tag k="operator" v="di Paradiso" /><tag k="ref" v="53481" /><tag k="tourism" v="guest_house" /><tag k="beds" v="3" /><tag k="opening_hours" v="Apr 01 - Oct 31" /><tag k="address" v="Via Crosaris 2, POCENIA" /><tag k="email" v="f.tonizzo@gmail.com" /><tag k="website" v="http://www.facebook.com/pages/BB-Angolo-di-Paradiso" /></node><node id="-226" lat="45.9637843" lon="13.4932214" version="1"><tag k="fax" v="+39 0481 60531" /><tag k="phone" v="+39 0481 60531" /><tag k="email" v="info@lasubida.it" /><tag k="name" v="B &amp; B Kozovci" /><tag k="website" v="http://www.lasubida.it" /><tag k="rooms" v="1" /><tag k="address" v="Via Subida 67, CORMONS" /><tag k="tourism" v="guest_house" /><tag k="beds" v="3" /><tag k="opening_hours" v="Jan 01 - Feb 16" /><tag k="ref" v="53582" /><tag k="operator" v="Sirk Adriano" /></node><node id="-227" lat="46.0857353" lon="12.5997144" version="1"><tag k="rooms" v="3" /><tag k="operator" v="Biasutti Gianluigi" /><tag k="ref" v="53660" /><tag k="tourism" v="guest_house" /><tag k="beds" v="7" /><tag k="opening_hours" v="Jan 01 - May 14, Jun 01 - Nov 14, Dec 01 - Dec 31" /><tag k="address" v="Via Wassermann 38, AVIANO" /><tag k="email" v="info@bbalridovan.it" /><tag k="name" v="Al Ridovan" /><tag k="website" v="http://www.bbalridovan.it" /></node><node id="-228" lat="45.7669461" lon="13.0103417" version="1"><tag k="rooms" v="2" /><tag k="address" v="Via La Rotta 21, LATISANA" /><tag k="tourism" v="guest_house" /><tag k="beds" v="6" /><tag k="opening_hours" v="May 18 - Nov 30" /><tag k="ref" v="53860" /><tag k="email" v="SIMONIN@ALICEPOSTA.IT" /></node><node id="-229" lat="45.6528839" lon="13.7733552" version="1"><tag k="fax" v="+39 348 4302556" /><tag k="phone" v="+39 348 4302556" /><tag k="email" v="alcucherle@gmail.com" /><tag k="name" v="Al Cucherle" /><tag k="website" v="http://www.bedandbreakfast-alcucherle-trieste.com" /><tag k="rooms" v="3" /><tag k="address" v="Via di Torre Bianca 21, TRIESTE" /><tag k="tourism" v="guest_house" /><tag k="beds" v="8" /><tag k="opening_hours" v="Jan 01 - Feb 15, Feb 23 - Nov 20, Nov 27 - Dec 31" /><tag k="ref" v="53880" /><tag k="operator" v="Bonelli Daniela" /></node><node id="-230" lat="45.8809042" lon="13.3800983" version="1"><tag k="rooms" v="4" /><tag k="operator" v="Qualizza Eleonora" /><tag k="ref" v="53900" /><tag k="tourism" v="guest_house" /><tag k="beds" v="8" /><tag k="opening_hours" v="Jan 01 - Jan 31, Mar 01 - Oct 31, Dec 01 - Dec 31" /><tag k="address" v="Via Venezia 7, SAN VITO AL TORRE" /><tag k="email" v="info@casadellafornace.it" /><tag k="name" v="Casa Della Fornace" /><tag k="website" v="http://www.casadellafornace.it" /></node><node id="-231" lat="45.8067241" lon="13.5141008" version="1"><tag k="rooms" v="2" /><tag k="address" v="Via Trieste 128, MONFALCONE" /><tag k="tourism" v="guest_house" /><tag k="beds" v="3" /><tag k="fax" v="+39 0481 484210" /><tag k="phone" v="+39 0481 484210" /><tag k="opening_hours" v="Jan 01 - Dec 31" /><tag k="email" v="lacasapiccola@libero.it" /><tag k="operator" v="Maggiore Maurizio" /><tag k="name" v="La Casa Piccola" /><tag k="ref" v="54000" /></node><node id="-232" lat="45.9988723" lon="13.3961159" version="1"><tag k="rooms" v="4" /><tag k="phone" v="+39 0432 751061" /><tag k="tourism" v="guest_house" /><tag k="beds" v="8" /><tag k="fax" v="+39 0432 751061" /><tag k="address" v="Via dei Ronchi 12, MANZANO" /><tag k="opening_hours" v="Jan 01 - Dec 31" /><tag k="ref" v="54120" /></node><node id="-233" lat="46.0859976" lon="13.2012159" version="1"><tag k="fax" v="+39 0432 403428" /><tag k="phone" v="+39 0432 403428" /><tag k="email" v="amalfia@virgilio.it" /><tag k="name" v="La Luna E Le Stelle" /><tag k="website" v="http://www.lunastelle.it" /><tag k="rooms" v="1" /><tag k="address" v="Via Brescia  11/1, UDINE" /><tag k="tourism" v="guest_house" /><tag k="beds" v="2" /><tag k="opening_hours" v="Jan 01 - Mar 24, Apr 07 - Jul 15, Aug 16 - Sep 04, Sep 15 - Dec 10" /><tag k="ref" v="54240" /><tag k="operator" v="Rizzi Amalfia" /></node><node id="-234" lat="46.148871" lon="12.9648194" version="1"><tag k="rooms" v="2" /><tag k="operator" v="Clarini Elvia" /><tag k="tourism" v="guest_house" /><tag k="beds" v="3" /><tag k="opening_hours" v="Jan 01 - Jan 12, Feb 24 - Mar 02, Apr 03 - Sep 14, Oct 01 - Oct 19, Oct 31 - Dec 31" /><tag k="address" v="Località Aonedis 20, SAN DANIELE DEL FRIULI" /><tag k="email" v="a.lenarduzzi@hotmail.it" /><tag k="name" v="Bed And Breakfast Antico Borgo" /><tag k="ref" v="54360" /></node><node id="-235" lat="46.3883685" lon="12.9923644" version="1"><tag k="rooms" v="4" /><tag k="address" v="Via Vittorio Cella 7, VERZEGNIS" /><tag k="tourism" v="guest_house" /><tag k="beds" v="8" /><tag k="fax" v="+39 0433 44646" /><tag k="phone" v="+39 0433 44646" /><tag k="opening_hours" v="Jan 01 - Jan 15, Mar 16 - Oct 31, Dec 01 - Dec 31" /><tag k="email" v="lagerlablu@virgilio.it" /><tag k="operator" v="Paschini Pietro" /><tag k="name" v="La Gerla Blu" /><tag k="ref" v="54367" /></node><node id="-236" lat="46.1606969" lon="13.0128322" version="1"><tag k="rooms" v="2" /><tag k="operator" v="Bulligan Mariano" /><tag k="tourism" v="guest_house" /><tag k="beds" v="6" /><tag k="opening_hours" v="May 16 - Dec 31" /><tag k="address" v="Via Alessandro Manzoni 18, SAN DANIELE DEL FRIULI" /><tag k="email" v="hangout.thegreencorners@gmail.com" /><tag k="name" v="The Green Corner S Hangout" /><tag k="ref" v="54460" /></node><node id="-237" lat="45.6526601" lon="13.7807002" version="1"><tag k="rooms" v="3" /><tag k="address" v="Via Cesare Battisti 23, TRIESTE" /><tag k="tourism" v="guest_house" /><tag k="beds" v="7" /><tag k="fax" v="+39 040  2464982" /><tag k="phone" v="+39 040  2464982" /><tag k="opening_hours" v="Jan 01 - Jan 06, Jan 21 - Jan 31, Feb 16 - Dec 31" /><tag k="email" v="bbangelotrieste@gmail.com" /><tag k="operator" v="Angelo Gaiangos" /><tag k="name" v="Angelo" /><tag k="ref" v="54500" /></node><node id="-238" lat="45.9147009" lon="13.3795316" version="1"><tag k="rooms" v="3" /><tag k="operator" v="Rossi Paola" /><tag k="tourism" v="guest_house" /><tag k="beds" v="6" /><tag k="opening_hours" v="Apr 01 - Dec 31" /><tag k="address" v="Via Julia 23, SAN VITO AL TORRE" /><tag k="email" v="bedandbreakfast23@libero.it" /><tag k="name" v="B &amp; B 23" /><tag k="ref" v="54740" /></node><node id="-239" lat="46.0752919" lon="13.232562" version="1"><tag k="rooms" v="2" /><tag k="address" v="Via Cormons 25, UDINE" /><tag k="tourism" v="guest_house" /><tag k="beds" v="3" /><tag k="fax" v="+39 0432 482562" /><tag k="phone" v="+39 0432 482562" /><tag k="opening_hours" v="Apr 15 - Dec 31" /><tag k="email" v="alessandralinda@aruba.it" /><tag k="operator" v="Linda Alessandra" /><tag k="name" v="La 12° Notte" /><tag k="ref" v="54840" /></node><node id="-240" lat="45.6524974" lon="13.8183876" version="1"><tag k="rooms" v="3" /><tag k="operator" v="Nadal Nela" /><tag k="tourism" v="guest_house" /><tag k="beds" v="6" /><tag k="opening_hours" v="Jan 01 - Jan 31, Mar 01 - Oct 30, Dec 01 - Dec 31" /><tag k="address" v="Strada per Basovizza 50, TRIESTE" /><tag k="email" v="alessio.giannella@yahoo.it" /><tag k="ref" v="54841" /></node><node id="-241" lat="45.6561881" lon="13.8124769" version="1"><tag k="rooms" v="3" /><tag k="operator" v="Lampi Lorena" /><tag k="tourism" v="guest_house" /><tag k="beds" v="6" /><tag k="opening_hours" v="Jan 01 - Jan 05, Jan 10 - Nov 16, Nov 22 - Dec 31" /><tag k="address" v="Via Damiano Chiesa 98, TRIESTE" /><tag k="email" v="marypoppinshouse6@gmail.com" /><tag k="name" v="Mary Poppins S House" /><tag k="ref" v="54842" /></node><node id="-242" lat="45.6550086" lon="13.8157875" version="1"><tag k="rooms" v="3" /><tag k="address" v="Strada per Basovizza 20, TRIESTE" /><tag k="tourism" v="guest_house" /><tag k="beds" v="7" /><tag k="fax" v="+39 040 567489" /><tag k="phone" v="+39 040 567489" /><tag k="opening_hours" v="Jan 01 - Jan 17, Jan 25 - Oct 16, Dec 30 - Dec 31" /><tag k="email" v="casadodic@yahoo.it" /><tag k="operator" v="Lorenzi Viviana" /><tag k="name" v="Casa Dodic" /><tag k="ref" v="54843" /></node><node id="-243" lat="45.7131518" lon="13.7113906" version="1"><tag k="rooms" v="2" /><tag k="operator" v="Roscioli Valeria" /><tag k="tourism" v="guest_house" /><tag k="beds" v="5" /><tag k="opening_hours" v="Jan 01 - Jan 24, Feb 01 - Nov 20, Nov 28 - Dec 31" /><tag k="address" v="Via del Pucino 12, TRIESTE" /><tag k="email" v="le5muse@email.it" /><tag k="name" v="Le 5 Muse" /><tag k="ref" v="54844" /></node><node id="-244" lat="46.5221099" lon="13.0091744" version="1"><tag k="rooms" v="1" /><tag k="operator" v="Centa Manuela" /><tag k="ref" v="55160" /><tag k="tourism" v="guest_house" /><tag k="beds" v="5" /><tag k="opening_hours" v="Jan 01 - Mar 15, Mar 25 - May 15, Jun 01 - Sep 25, Oct 29 - Nov 15, Dec 01 - Dec 31" /><tag k="address" v="Via Principale 12, PALUZZA" /><tag k="email" v="casadicenta@manueladicenta.it" /><tag k="website" v="http://www.casadicenta.it" /></node><node id="-245" lat="45.6489609" lon="13.7773222" version="1"><tag k="rooms" v="4" /><tag k="operator" v="Riosa Michela" /><tag k="tourism" v="guest_house" /><tag k="beds" v="8" /><tag k="opening_hours" v="Jan 01 - Jan 31, Feb 05 - May 15, May 20 - Oct 02, Oct 07 - Dec 31" /><tag k="address" v="Via delle Zudecche 1, TRIESTE" /><tag k="email" v="michela.riosa@gmail.com" /><tag k="name" v="Z1 - Zudecche 1" /><tag k="ref" v="55240" /></node><node id="-246" lat="45.6432254" lon="13.7782683" version="1"><tag k="rooms" v="3" /><tag k="address" v="Via Luigi Frausin 19, TRIESTE" /><tag k="tourism" v="guest_house" /><tag k="beds" v="7" /><tag k="fax" v="+39 328 6894017" /><tag k="phone" v="+39 328 6894017" /><tag k="opening_hours" v="Jan 01 - Jan 24, Feb 19 - Nov 13, Dec 16 - Dec 31" /><tag k="email" v="st.jackts@gmail.com" /><tag k="operator" v="Antonini Erminia" /><tag k="name" v="St. Jack" /><tag k="ref" v="55241" /></node><node id="-247" lat="45.6789153" lon="13.7591731" version="1"><tag k="rooms" v="3" /><tag k="address" v="Via del Boveto 18, TRIESTE" /><tag k="ref" v="55280" /><tag k="tourism" v="guest_house" /><tag k="beds" v="6" /><tag k="fax" v="+39 040 412586" /><tag k="phone" v="+39 040 412586" /><tag k="opening_hours" v="Jan 01 - Feb 24, Mar 17 - Nov 06, Nov 18 - Dec 31" /><tag k="email" v="sottoilfaro@gmail.com" /><tag k="operator" v="Stjepan Babic" /><tag k="website" v="http://www.sottoilfaro.com" /></node><node id="-248" lat="46.0495434" lon="13.2447027" version="1"><tag k="rooms" v="4" /><tag k="address" v="Via della Madonnetta 51, UDINE" /><tag k="tourism" v="guest_house" /><tag k="beds" v="7" /><tag k="fax" v="+39 0432 524201" /><tag k="phone" v="+39 0432 524201" /><tag k="opening_hours" v="Jan 01 - Dec 31" /><tag k="email" v="andmazud@hotmail.it" /><tag k="operator" v="Mazzucchelli Andrea" /><tag k="name" v="Madonnetta" /><tag k="ref" v="55560" /></node><node id="-249" lat="45.6186714" lon="13.864808" version="1"><tag k="rooms" v="1" /><tag k="address" v="Strada della Rosandra 135, SAN DORLIGO DELLA VALLE - DOLINA" /><tag k="tourism" v="guest_house" /><tag k="beds" v="3" /><tag k="fax" v="+39 040 281954" /><tag k="phone" v="+39 040 281954" /><tag k="opening_hours" v="Jan 01 - Jan 15, Jan 30 - Dec 31" /><tag k="email" v="BBROSANDRA@GMAIL.COM" /><tag k="operator" v="Codaglio Michele" /><tag k="ref" v="55621" /></node><node id="-250" lat="46.2270565" lon="12.9989711" version="1"><tag k="rooms" v="2" /><tag k="address" v="Via Belvedere 1, FORGARIA NEL FRIULI" /><tag k="tourism" v="guest_house" /><tag k="beds" v="6" /><tag k="fax" v="+39 0427 808314" /><tag k="phone" v="+39 0427 808314" /><tag k="opening_hours" v="Jan 01 - Jan 31, Jul 10 - Dec 31" /><tag k="email" v="giuliamondolo@libero.it" /><tag k="operator" v="Ortali Giovanni" /><tag k="name" v="Da Gi &amp; Jo" /><tag k="ref" v="55680" /></node><node id="-251" lat="45.8199173" lon="13.5001021" version="1"><tag k="fax" v="+39 340 2882561" /><tag k="phone" v="+39 340 2882561" /><tag k="email" v="info.borgosanvito@gmail.com" /><tag k="name" v="B&amp;B Borgo San Vito" /><tag k="website" v="http://www.borgosanvito.it" /><tag k="rooms" v="1" /><tag k="address" v="Via San Vito 8, RONCHI DEI LEGIONARI" /><tag k="tourism" v="guest_house" /><tag k="beds" v="2" /><tag k="opening_hours" v="Jan 01 - Dec 31" /><tag k="ref" v="55780" /><tag k="operator" v="Deiuri Ivana" /></node><node id="-252" lat="45.6469081" lon="13.7689006" version="1"><tag k="rooms" v="3" /><tag k="operator" v="Dell Agata" /><tag k="tourism" v="guest_house" /><tag k="beds" v="6" /><tag k="opening_hours" v="Jan 01 - Jan 17, Jan 24 - Feb 24, Mar 03 - Dec 31" /><tag k="address" v="Via San Michele 7, TRIESTE" /><tag k="email" v="gensjuliats@virgilio.it" /><tag k="ref" v="55821" /></node><node id="-253" lat="46.1052647" lon="13.1624372" version="1"><tag k="rooms" v="3" /><tag k="address" v="Piazza San Tommaso 2, MARTIGNACCO" /><tag k="tourism" v="guest_house" /><tag k="beds" v="6" /><tag k="fax" v="+39 0432 678155" /><tag k="phone" v="+39 0432 678155" /><tag k="opening_hours" v="Jan 01 - Jul 31, Sep 01 - Dec 31" /><tag k="email" v="lino@villacantarutti.it" /><tag k="operator" v="Bettio Manuela" /><tag k="name" v="Villa Cantarutti" /><tag k="ref" v="56126" /></node><node id="-254" lat="46.0917122" lon="13.2272226" version="1"><tag k="ref" v="56440" /><tag k="fax" v="+39 335 6399172" /><tag k="address" v="Via Tavagnacco  64/12, UDINE" /><tag k="email" v="bedbreakfastmarameo@gmail.com" /><tag k="name" v="Marameo" /><tag k="fixme" v="position" /><tag k="rooms" v="3" /><tag k="phone" v="+39 335 6399172" /><tag k="tourism" v="guest_house" /><tag k="beds" v="5" /><tag k="opening_hours" v="Apr 16 - Dec 31" /><tag k="operator" v="Carnevali Mauro" /></node><node id="-255" lat="45.6338028" lon="13.7920238" version="1"><tag k="rooms" v="1" /><tag k="address" v="Via Costalunga 69, TRIESTE" /><tag k="tourism" v="guest_house" /><tag k="beds" v="3" /><tag k="fax" v="+39 040 814668" /><tag k="phone" v="+39 040 814668" /><tag k="opening_hours" v="Jan 11 - Jan 29, Feb 08 - Dec 31" /><tag k="email" v="luisaviezzoli@yahoo.it" /><tag k="operator" v="Luisa Viezzoli" /><tag k="ref" v="56760" /></node><node id="-256" lat="45.91567" lon="12.52503" version="1"><tag k="rooms" v="4" /><tag k="address" v="Strada Valle Brugnera 7, SACILE" /><tag k="tourism" v="guest_house" /><tag k="beds" v="8" /><tag k="fax" v="+39 0434 767927" /><tag k="phone" v="+39 0434 767927" /><tag k="opening_hours" v="Feb 04 - Feb 17, Mar 11 - Nov 07, Dec 07 - Dec 31" /><tag k="email" v="info@casacarrer.it" /><tag k="operator" v="Carrer Gilberto" /><tag k="name" v="Casa Carrer" /><tag k="ref" v="56800" /></node><node id="-257" lat="45.6465965" lon="13.7670091" version="1"><tag k="rooms" v="2" /><tag k="address" v="Via Vittoria Colonna 4, TRIESTE" /><tag k="tourism" v="guest_house" /><tag k="beds" v="4" /><tag k="fax" v="+39 040 311716" /><tag k="phone" v="+39 040 311716" /><tag k="opening_hours" v="Jan 15 - Dec 15" /><tag k="email" v="marco.nordio@gmail.com" /><tag k="operator" v="Michela Coslan" /><tag k="name" v="Colors" /><tag k="ref" v="56840" /></node><node id="-258" lat="46.0609372" lon="13.2559767" version="1"><tag k="rooms" v="2" /><tag k="address" v="Via Monzambano 138, UDINE" /><tag k="tourism" v="guest_house" /><tag k="beds" v="4" /><tag k="fax" v="+39 338 3000414" /><tag k="phone" v="+39 338 3000414" /><tag k="opening_hours" v="Jan 01 - Dec 31" /><tag k="email" v="mzaffira@gmail.com" /><tag k="operator" v="Secchi Maria" /><tag k="name" v="Il Posto di Zaffira" /><tag k="ref" v="56960" /></node><node id="-259" lat="46.1603374" lon="13.1331169" version="1"><tag k="rooms" v="3" /><tag k="operator" v="Lodolo Clara" /><tag k="tourism" v="guest_house" /><tag k="beds" v="5" /><tag k="opening_hours" v="Jan 01 - Sep 20, Dec 20 - Dec 31" /><tag k="address" v="Via Lauzzana 56, COLLOREDO DI MONTE ALBANO" /><tag k="email" v="bedbreakfastdora@gmail.com" /><tag k="name" v="B&amp;B Dora" /><tag k="ref" v="57120" /></node><node id="-260" lat="45.9144566" lon="13.3791392" version="1"><tag k="rooms" v="2" /><tag k="operator" v="Simeon Daniele" /><tag k="tourism" v="guest_house" /><tag k="beds" v="4" /><tag k="opening_hours" v="Jan 15 - Jul 31" /><tag k="address" v="Via Julia 19, SAN VITO AL TORRE" /><tag k="email" v="marinella.cordiglia@alice.it" /><tag k="name" v="Il Cammino" /><tag k="ref" v="57420" /></node><node id="-261" lat="45.880947" lon="13.3799438" version="1"><tag k="rooms" v="2" /><tag k="operator" v="Rossana Roncato" /><tag k="tourism" v="guest_house" /><tag k="beds" v="6" /><tag k="opening_hours" v="Jan 01 - Jan 07, Mar 01 - Oct 30, Dec 12 - Dec 31" /><tag k="address" v="Via Venezia  1/a, SAN VITO AL TORRE" /><tag k="name" v="Palazzo Roncato" /><tag k="ref" v="57580" /></node><node id="-262" lat="45.8302605" lon="13.4954677" version="1"><tag k="rooms" v="1" /><tag k="address" v="Via delle Loare 9, RONCHI DEI LEGIONARI" /><tag k="tourism" v="guest_house" /><tag k="beds" v="2" /><tag k="opening_hours" v="Apr 01 - Dec 31" /><tag k="ref" v="57700" /><tag k="email" v="taniapetroni89@gmail.com" /></node><node id="-263" lat="45.8241084" lon="13.5194679" version="1"><tag k="rooms" v="1" /><tag k="operator" v="Beltrame Alessio" /><tag k="tourism" v="guest_house" /><tag k="beds" v="2" /><tag k="opening_hours" v="Jan 01 - Dec 31" /><tag k="address" v="Via Monte Cosich 62, RONCHI DEI LEGIONARI" /><tag k="email" v="eziodona@gmail.com" /><tag k="ref" v="57720" /></node><node id="-264" lat="45.8678864" lon="13.0421976" version="1"><tag k="rooms" v="4" /><tag k="operator" v="Pitton Piera" /><tag k="ref" v="57820" /><tag k="tourism" v="guest_house" /><tag k="beds" v="8" /><tag k="opening_hours" v="Jan 03 - Nov 03" /><tag k="address" v="Via Paolo Solimbergo 19, RIVIGNANO TEOR" /><tag k="email" v="beb.casamia@libero.it" /><tag k="website" v="http://www.bebcasamia.it" /></node><node id="-265" lat="46.110218" lon="13.4578328" version="1"><tag k="rooms" v="3" /><tag k="operator" v="Zanutto Valnea" /><tag k="tourism" v="guest_house" /><tag k="beds" v="7" /><tag k="address" v="Strada di Gradois 60, CIVIDALE DEL FRIULI" /><tag k="name" v="Sot La Mont" /><tag k="ref" v="58020" /></node><node id="-266" lat="45.6523859" lon="13.7761884" version="1"><tag k="rooms" v="3" /><tag k="address" v="Via San Lazzaro 20, TRIESTE" /><tag k="ref" v="58260" /><tag k="tourism" v="guest_house" /><tag k="beds" v="8" /><tag k="fax" v="+39 340 2361780" /><tag k="phone" v="+39 340 2361780" /><tag k="opening_hours" v="Jan 01 - Jan 11, Feb 02 - Feb 20, Mar 01 - Dec 31" /><tag k="email" v="info@anticoborgoteresiano.it" /><tag k="operator" v="Alessandro Conte" /><tag k="website" v="http://WWW.ANTICOBORGOTERESIANO.IT" /></node><node id="-267" lat="46.5020302" lon="13.3785479" version="1"><tag k="rooms" v="3" /><tag k="operator" v="Buzzi August" /><tag k="tourism" v="guest_house" /><tag k="beds" v="5" /><tag k="opening_hours" v="Jan 01 - Dec 31" /><tag k="address" v="Via Sorgenti Solforose 4, MALBORGHETTO VALBRUNA" /><tag k="email" v="miro62@live.it" /><tag k="name" v="La Casetta Rosa" /><tag k="ref" v="58440" /></node><node id="-268" lat="46.040817" lon="12.53964" version="1"><tag k="rooms" v="3" /><tag k="address" v="Via Pordenone 31, BUDOIA" /><tag k="ref" v="58760" /><tag k="tourism" v="guest_house" /><tag k="beds" v="6" /><tag k="fax" v="+39 0434 653480" /><tag k="phone" v="+39 0434 653480" /><tag k="opening_hours" v="Jan 01 - Dec 31" /><tag k="email" v="tommaso.rosatella@gmail.com" /><tag k="operator" v="Iracema Silva" /><tag k="website" v="http://www.mariabedandbreakfast.it" /></node><node id="-269" lat="45.866808" lon="12.8601706" version="1"><tag k="rooms" v="1" /><tag k="operator" v="Nonis Misha" /><tag k="ref" v="59040" /><tag k="tourism" v="guest_house" /><tag k="beds" v="6" /><tag k="opening_hours" v="Jan 08 - Dec 06" /><tag k="address" v="Via Monte Santo  40B, SESTO AL REGHENA" /><tag k="email" v="info@allaolla.it" /><tag k="name" v="Allaolla" /><tag k="website" v="http://www.allaolla.it" /></node><node id="-270" lat="46.1142003" lon="13.084183" version="1"><tag k="rooms" v="2" /><tag k="address" v="Via Umberto I 74, FAGAGNA" /><tag k="tourism" v="guest_house" /><tag k="beds" v="4" /><tag k="fax" v="+39 0432 800639" /><tag k="phone" v="+39 0432 800639" /><tag k="opening_hours" v="Feb 01 - Dec 31" /><tag k="email" v="loriszanor@gmail.com" /><tag k="operator" v="Zanor Loris" /><tag k="ref" v="59080" /></node><node id="-271" lat="45.6607755" lon="13.7738808" version="1"><tag k="rooms" v="1" /><tag k="address" v="Via Commerciale 45, TRIESTE" /><tag k="tourism" v="guest_house" /><tag k="beds" v="2" /><tag k="fax" v="+39 040 415282" /><tag k="phone" v="+39 040 415282" /><tag k="opening_hours" v="Jan 01 - Jan 06, Jan 15 - Nov 06, Nov 18 - Dec 31" /><tag k="email" v="suite45trieste@libero.it" /><tag k="operator" v="Veronese Manilla" /><tag k="name" v="Suite 45" /><tag k="ref" v="59320" /></node><node id="-272" lat="46.1623683" lon="13.2156386" version="1"><tag k="rooms" v="3" /><tag k="address" v="Via Borgobello 4, TRICESIMO" /><tag k="tourism" v="guest_house" /><tag k="beds" v="6" /><tag k="fax" v="+39 0432 883590" /><tag k="phone" v="+39 0432 883590" /><tag k="opening_hours" v="Jun 06 - Oct 30" /><tag k="email" v="miotti@villamiotti.it" /><tag k="operator" v="Miotti Giovanni" /><tag k="name" v="Villa  Miotti De Braida" /><tag k="ref" v="59700" /></node><node id="-273" lat="46.4949926" lon="13.6548014" version="1"><tag k="rooms" v="2" /><tag k="address" v="Via Cadorna 18, TARVISIO" /><tag k="tourism" v="guest_house" /><tag k="beds" v="5" /><tag k="fax" v="+39 0428 3038" /><tag k="phone" v="+39 0428 3038" /><tag k="opening_hours" v="Mar 15 - Apr 15, Jun 01 - Sep 30, Dec 01 - Dec 31" /><tag k="email" v="anfrea.tomasi67@gmail.com" /><tag k="operator" v="Filaferro Nives" /><tag k="name" v="B&amp;B Boscoverde" /><tag k="ref" v="60060" /></node><node id="-274" lat="45.6433553" lon="13.7708286" version="1"><tag k="rooms" v="1" /><tag k="address" v="Via Vettor Carpaccio 8, TRIESTE" /><tag k="tourism" v="guest_house" /><tag k="beds" v="2" /><tag k="fax" v="+39 040 306226" /><tag k="phone" v="+39 040 306226" /><tag k="opening_hours" v="Jan 01 - Feb 13, Mar 02 - Dec 31" /><tag k="email" v="bettinamail@yahoo.it" /><tag k="operator" v="Elisabetta Acampora" /><tag k="name" v="Elisabetta" /><tag k="ref" v="60220" /></node><node id="-275" lat="45.6531195" lon="13.7752756" version="1"><tag k="rooms" v="3" /><tag k="operator" v="Vidman Natalia" /><tag k="tourism" v="guest_house" /><tag k="beds" v="4" /><tag k="opening_hours" v="Jan 01 - Jan 31, Feb 15 - Feb 29, Mar 15 - Dec 31" /><tag k="address" v="Via XXX Ottobre 13, TRIESTE" /><tag k="email" v="bbaltram@gmail.com" /><tag k="name" v="Al Tram" /><tag k="ref" v="60460" /></node><node id="-276" lat="46.3541" lon="13.0520736" version="1"><tag k="rooms" v="2" /><tag k="operator" v="Ceretti Barbara" /><tag k="tourism" v="guest_house" /><tag k="beds" v="4" /><tag k="opening_hours" v="Aug 20 - Dec 31" /><tag k="address" v="Villaggio Navalascia 4, CAVAZZO CARNICO" /><tag k="email" v="bbcjaseme@gmail.com" /><tag k="name" v="Cjase Me" /><tag k="ref" v="60540" /></node><node id="-277" lat="45.8756351" lon="13.4849505" version="1"><tag k="rooms" v="2" /><tag k="operator" v="Cicutto Eduardo" /><tag k="tourism" v="guest_house" /><tag k="beds" v="4" /><tag k="opening_hours" v="Jan 01 - Dec 31" /><tag k="address" v="Via Dante Alighieri 33, SAGRADO" /><tag k="email" v="cicutto3000@gmsil.com" /><tag k="ref" v="61060" /></node><node id="-278" lat="46.0506433" lon="13.209216" version="1"><tag k="rooms" v="1" /><tag k="address" v="Via San Rocco 368, UDINE" /><tag k="tourism" v="guest_house" /><tag k="beds" v="3" /><tag k="fax" v="+39 338 9992725" /><tag k="phone" v="+39 338 9992725" /><tag k="opening_hours" v="Jan 01 - Dec 31" /><tag k="email" v="rickonline@tin.it" /><tag k="operator" v="Venuti Riccardo" /><tag k="name" v="Friul" /><tag k="ref" v="61080" /></node><node id="-279" lat="46.0715187" lon="13.2386971" version="1"><tag k="rooms" v="2" /><tag k="address" v="Via Monte Hermada 1, UDINE" /><tag k="tourism" v="guest_house" /><tag k="beds" v="6" /><tag k="fax" v="+39 335 7559957" /><tag k="phone" v="+39 335 7559957" /><tag k="opening_hours" v="Jan 01 - Dec 31" /><tag k="email" v="info.pianobb@gmail.com" /><tag k="operator" v="Scala Carlo" /><tag k="ref" v="61120" /></node><node id="-280" lat="45.6238888" lon="13.7841948" version="1"><tag k="rooms" v="2" /><tag k="operator" v="Gregoris Carla" /><tag k="tourism" v="guest_house" /><tag k="beds" v="5" /><tag k="opening_hours" v="Jan 01 - Jan 10, Mar 01 - Dec 31" /><tag k="address" v="Via dei Giardini  21/1, TRIESTE" /><tag k="email" v="gregoris.carla@tiscali.it" /><tag k="name" v="Giardini" /><tag k="ref" v="61640" /></node><node id="-281" lat="45.9280834" lon="12.6412474" version="1"><tag k="rooms" v="2" /><tag k="address" v="Via Brugnera 15, PORDENONE" /><tag k="ref" v="61760" /><tag k="tourism" v="guest_house" /><tag k="beds" v="3" /><tag k="fax" v="+39 0434 578114" /><tag k="phone" v="+39 0434 578114" /><tag k="opening_hours" v="Jan 01 - Dec 31" /><tag k="email" v="marilena.klugmann@gmail.com" /><tag k="operator" v="Maria Elena" /><tag k="website" v="http://www.bbnaon.com" /></node><node id="-282" lat="46.1856604" lon="12.7482306" version="1"><tag k="rooms" v="2" /><tag k="operator" v="Mion Matteo" /><tag k="ref" v="61801" /><tag k="tourism" v="guest_house" /><tag k="beds" v="4" /><tag k="opening_hours" v="Jan 01 - Dec 31" /><tag k="address" v="Via Castellani 38, FANNA" /><tag k="email" v="bb.castellani@gmail.com" /><tag k="name" v="B&amp;B Castellani" /><tag k="website" v="http://www.bedbreakfast-castellani.it" /></node><node id="-283" lat="46.0570391" lon="13.2369921" version="1"><tag k="rooms" v="1" /><tag k="address" v="Via Teobaldo Ciconi 18, UDINE" /><tag k="tourism" v="guest_house" /><tag k="beds" v="2" /><tag k="fax" v="+39 349 5208243" /><tag k="phone" v="+39 349 5208243" /><tag k="opening_hours" v="Jan 01 - Dec 31" /><tag k="email" v="l_melania@hotmail.com" /><tag k="operator" v="Lunazzi Melania" /><tag k="name" v="Cinqueminutidacentroestazione" /><tag k="ref" v="61860" /></node><node id="-284" lat="45.652468" lon="13.8107104" version="1"><tag k="rooms" v="2" /><tag k="address" v="Strada per Longera 46, TRIESTE" /><tag k="tourism" v="guest_house" /><tag k="beds" v="5" /><tag k="opening_hours" v="Jan 01 - Jan 15, Feb 04 - Feb 28, Mar 08 - Nov 11, Dec 01 - Dec 31" /><tag k="ref" v="62020" /><tag k="email" v="margherita.rudella@libero.it" /></node><node id="-285" lat="45.633344" lon="13.8233173" version="1"><tag k="rooms" v="1" /><tag k="address" v="Via del Botro 19, TRIESTE" /><tag k="tourism" v="guest_house" /><tag k="beds" v="4" /><tag k="fax" v="+39 040 814331" /><tag k="phone" v="+39 040 814331" /><tag k="opening_hours" v="Jan 01 - Mar 30, Apr 09 - Aug 30, Sep 10 - Nov 03" /><tag k="email" v="chipandchopbnb@gmail.com" /><tag k="operator" v="Marussi Flavia" /><tag k="name" v="Chip And Chop" /><tag k="ref" v="62076" /></node><node id="-286" lat="45.6585092" lon="13.7744448" version="1"><tag k="rooms" v="2" /><tag k="operator" v="Gelletti Giulia" /><tag k="tourism" v="guest_house" /><tag k="beds" v="3" /><tag k="opening_hours" v="Jan 01 - Jan 10, Jan 18 - Jan 24, Feb 01 - Dec 31" /><tag k="address" v="Via Ruggero Manna 20, TRIESTE" /><tag k="email" v="casadipenny@gmail.com" /><tag k="name" v="The Smiling Home" /><tag k="ref" v="62077" /></node><node id="-287" lat="46.0915284" lon="13.4278738" version="1"><tag k="rooms" v="3" /><tag k="address" v="Via Alcide de Gasperi 7, CIVIDALE DEL FRIULI" /><tag k="tourism" v="guest_house" /><tag k="beds" v="5" /><tag k="fax" v="+39 0432 733459" /><tag k="phone" v="+39 0432 733459" /><tag k="opening_hours" v="Nov 21 - Dec 31" /><tag k="email" v="marioavifu@libero.it" /><tag k="operator" v="Fulvio Mario" /><tag k="ref" v="62160" /></node><node id="-288" lat="46.0883808" lon="13.231716" version="1"><tag k="rooms" v="2" /><tag k="address" v="Via Pinerolo 9, UDINE" /><tag k="tourism" v="guest_house" /><tag k="beds" v="6" /><tag k="fax" v="+39 329 7447225" /><tag k="phone" v="+39 329 7447225" /><tag k="opening_hours" v="Jan 01 - Dec 31" /><tag k="email" v="fattoridaniela@gmail.com" /><tag k="operator" v="Fattori Daniela" /><tag k="name" v="Plume" /><tag k="ref" v="62220" /></node><node id="-289" lat="45.8209864" lon="13.0835903" version="1"><tag k="rooms" v="2" /><tag k="operator" v="Feruglio Anna" /><tag k="tourism" v="guest_house" /><tag k="beds" v="5" /><tag k="opening_hours" v="Apr 05 - Oct 31" /><tag k="address" v="Vicolo Molino 3, RIVIGNANO TEOR" /><tag k="email" v="anna.feruglio@casafilaferro.it" /><tag k="name" v="Casa Filaferro" /><tag k="ref" v="62480" /></node><node id="-290" lat="45.6443276" lon="13.7822869" version="1"><tag k="rooms" v="2" /><tag k="address" v="Largo Sidney Sonnino 9, TRIESTE" /><tag k="tourism" v="guest_house" /><tag k="beds" v="5" /><tag k="fax" v="+39 040 2415605" /><tag k="phone" v="+39 040 2415605" /><tag k="opening_hours" v="Jan 01 - Feb 14, Feb 29 - Dec 31" /><tag k="email" v="debernardisme@hotmail.com" /><tag k="operator" v="De Bernardis" /><tag k="ref" v="62501" /></node><node id="-291" lat="45.6546269" lon="13.7864149" version="1"><tag k="rooms" v="3" /><tag k="operator" v="Claudio Puja" /><tag k="tourism" v="guest_house" /><tag k="beds" v="5" /><tag k="opening_hours" v="Jan 09 - Jan 30, Feb 20 - Dec 22" /><tag k="address" v="Via Cologna 2, TRIESTE" /><tag k="email" v="sunclaud@yahoo.it" /><tag k="name" v="Al Giardino Pubblico" /><tag k="ref" v="62502" /></node><node id="-292" lat="45.8939446" lon="13.0203539" version="1"><tag k="rooms" v="4" /><tag k="operator" v="Guatelli Dante" /><tag k="tourism" v="guest_house" /><tag k="beds" v="8" /><tag k="opening_hours" v="Jan 01 - Jan 08, Jan 28 - Oct 13, Oct 23 - Dec 31" /><tag k="address" v="Via dei prati 17, VARMO" /><tag k="name" v="Ai Prati" /><tag k="ref" v="62562" /></node><node id="-293" lat="46.0745852" lon="13.2579553" version="1"><tag k="rooms" v="1" /><tag k="phone" v="+39 340 3930870" /><tag k="tourism" v="guest_house" /><tag k="beds" v="2" /><tag k="fax" v="+39 340 3930870" /><tag k="address" v="Via Adige 45, UDINE" /><tag k="opening_hours" v="Jan 01 - Dec 31" /><tag k="operator" v="Ana Mercedes" /><tag k="ref" v="62620" /></node><node id="-294" lat="45.6783364" lon="13.7585226" version="1"><tag k="rooms" v="1" /><tag k="address" v="Via del Boveto 41, TRIESTE" /><tag k="tourism" v="guest_house" /><tag k="beds" v="5" /><tag k="fax" v="+39 040 2608572" /><tag k="phone" v="+39 040 2608572" /><tag k="opening_hours" v="Jan 01 - Feb 21, Feb 29 - Nov 20, Nov 28 - Dec 31" /><tag k="email" v="villasisko@libero.it" /><tag k="operator" v="Ngrid Siskovic" /><tag k="name" v="Villa Sisko" /><tag k="ref" v="62680" /></node><node id="-295" lat="45.6617147" lon="13.7809238" version="1"><tag k="rooms" v="4" /><tag k="address" v="Via Cesare Cantù 59, TRIESTE" /><tag k="tourism" v="guest_house" /><tag k="beds" v="6" /><tag k="fax" v="+39 333 8674678" /><tag k="phone" v="+39 333 8674678" /><tag k="opening_hours" v="Jan 01 - Jan 10, Mar 04 - Jun 04, Jun 13 - Nov 06, Dec 01 - Dec 31" /><tag k="email" v="trieste59bb@gmail.com" /><tag k="operator" v="Camilla Gombani" /><tag k="name" v="Trieste 59" /><tag k="ref" v="62800" /></node><node id="-296" lat="45.8921177" lon="13.4797364" version="1"><tag k="rooms" v="3" /><tag k="operator" v="Bordon Ezio" /><tag k="tourism" v="guest_house" /><tag k="beds" v="6" /><tag k="opening_hours" v="Jan 01 - Dec 31" /><tag k="address" v="via Roma 61, GRADISCA DISONZO" /><tag k="ref" v="62820" /></node><node id="-297" lat="45.908616" lon="13.0042172" version="1"><tag k="rooms" v="3" /><tag k="address" v="Via Roveredo 4, CODROIPO" /><tag k="tourism" v="guest_house" /><tag k="beds" v="6" /><tag k="fax" v="+39 0432 909713" /><tag k="phone" v="+39 0432 909713" /><tag k="opening_hours" v="Apr 21 - Sep 27, Oct 29 - Nov 08, Dec 02 - Dec 31" /><tag k="email" v="beb.fioridimaggio@gmail.com" /><tag k="operator" v="Maria Rosa" /><tag k="ref" v="62920" /></node><node id="-298" lat="46.0170089" lon="13.3362619" version="1"><tag k="rooms" v="1" /><tag k="address" v="Via Tomasoni 3, BUTTRIO" /><tag k="tourism" v="guest_house" /><tag k="beds" v="3" /><tag k="fax" v="+39 0432 674022" /><tag k="phone" v="+39 0432 674022" /><tag k="opening_hours" v="Jan 01 - Dec 31" /><tag k="email" v="francesca.todone@gmail.com" /><tag k="operator" v="Todone Francesca" /><tag k="name" v="Antica Liscivaia" /><tag k="ref" v="62922" /></node><node id="-299" lat="45.6052975" lon="13.7640506" version="1"><tag k="rooms" v="3" /><tag k="operator" v="Milic Olivera" /><tag k="tourism" v="guest_house" /><tag k="beds" v="7" /><tag k="opening_hours" v="Mar 01 - Oct 31" /><tag k="address" v="Salita Muggia Vecchia 4, MUGGIA" /><tag k="email" v="milic.olivera@gmail.com" /><tag k="name" v="Uphill" /><tag k="ref" v="63160" /></node><node id="-300" lat="45.9958446" lon="13.0270636" version="1"><tag k="rooms" v="1" /><tag k="address" v="Via Ferrovia 6, CODROIPO" /><tag k="tourism" v="guest_house" /><tag k="beds" v="2" /><tag k="fax" v="+39 0432 907815" /><tag k="phone" v="+39 0432 907815" /><tag k="opening_hours" v="Jan 01 - Nov 30" /><tag k="email" v="rossella.tosatto@gmail.com" /><tag k="operator" v="Tosatto Rossella" /><tag k="name" v="Rossella" /><tag k="ref" v="63341" /></node><node id="-301" lat="45.7636936" lon="13.3661935" version="1"><tag k="rooms" v="2" /><tag k="operator" v="Polizzi Adele" /><tag k="tourism" v="guest_house" /><tag k="beds" v="4" /><tag k="opening_hours" v="Apr 25 - Dec 31" /><tag k="address" v="Corso Antonio Gramsci 8, AQUILEIA" /><tag k="email" v="bbfatamorgana@gmail.com" /><tag k="name" v="Fata Morgana" /><tag k="ref" v="63344" /></node><node id="-302" lat="45.6871942" lon="13.0573422" version="1"><tag k="rooms" v="3" /><tag k="phone" v="+39 347 0164607" /><tag k="tourism" v="guest_house" /><tag k="beds" v="6" /><tag k="fax" v="+39 347 0164607" /><tag k="address" v="Via Volton 13, LATISANA" /><tag k="opening_hours" v="Apr 23 - Oct 30" /><tag k="operator" v="D Angelo" /><tag k="ref" v="63360" /></node><node id="-303" lat="45.9545027" lon="12.6240507" version="1"><tag k="rooms" v="2" /><tag k="operator" v="Pasut Franca" /><tag k="tourism" v="guest_house" /><tag k="beds" v="4" /><tag k="opening_hours" v="Jan 01 - Dec 31" /><tag k="address" v="Via Muzzile 68, PORCIA" /><tag k="name" v="Ca Del Cuore" /><tag k="ref" v="63440" /></node><node id="-304" lat="45.8338082" lon="13.4670667" version="1"><tag k="rooms" v="4" /><tag k="operator" v="Lai Flavia" /><tag k="tourism" v="guest_house" /><tag k="beds" v="6" /><tag k="opening_hours" v="Jan 01 - Dec 31" /><tag k="address" v="Via San Zanut 80, SAN PIER DISONZO" /><tag k="name" v="Happy Family" /><tag k="ref" v="63481" /></node><node id="-305" lat="45.7603632" lon="13.3730515" version="1"><tag k="rooms" v="2" /><tag k="address" v="Località Beligna 38, AQUILEIA" /><tag k="tourism" v="guest_house" /><tag k="beds" v="4" /><tag k="fax" v="+39 0431 919219" /><tag k="phone" v="+39 0431 919219" /><tag k="opening_hours" v="Jan 01 - Jan 15, Mar 15 - Oct 15, Nov 15 - Dec 31" /><tag k="email" v="staltan@teletu.it" /><tag k="operator" v="Altan Silvia" /><tag k="ref" v="63520" /></node><node id="-306" lat="45.6347803" lon="13.8210636" version="1"><tag k="rooms" v="2" /><tag k="address" v="Via Giorgio Nicolich 4, TRIESTE" /><tag k="tourism" v="guest_house" /><tag k="beds" v="4" /><tag k="fax" v="+39 333 2072876" /><tag k="phone" v="+39 333 2072876" /><tag k="opening_hours" v="Jan 01 - Feb 04, Feb 07 - Nov 06, Nov 16 - Dec 31" /><tag k="email" v="unussdorfer@gmail.com" /><tag k="operator" v="Ursula Nussdorfer" /><tag k="ref" v="63800" /></node><node id="-307" lat="45.8065649" lon="13.5347426" version="1"><tag k="rooms" v="2" /><tag k="address" v="Viale San Marco 60, MONFALCONE" /><tag k="tourism" v="guest_house" /><tag k="beds" v="3" /><tag k="opening_hours" v="Jan 01 - Dec 31" /><tag k="ref" v="63841" /><tag k="email" v="b&amp;b@angelorossi.it" /></node><node id="-308" lat="45.653442" lon="13.7830943" version="1"><tag k="rooms" v="4" /><tag k="address" v="Via Giulia 5, TRIESTE" /><tag k="tourism" v="guest_house" /><tag k="beds" v="8" /><tag k="fax" v="+39 349 3448631" /><tag k="phone" v="+39 349 3448631" /><tag k="opening_hours" v="Jan 01 - Jan 23, Feb 01 - Feb 20, Mar 01 - Nov 19, Nov 26 - Dec 31" /><tag k="email" v="prinzalessandra@gmail.com" /><tag k="operator" v="Alessandra Prinz" /><tag k="name" v="Blu&amp;blu" /><tag k="ref" v="63900" /></node><node id="-309" lat="46.1913626" lon="13.1800036" version="1"><tag k="rooms" v="2" /><tag k="operator" v="Luisa Cristina" /><tag k="tourism" v="guest_house" /><tag k="beds" v="5" /><tag k="opening_hours" v="Jan 01 - Aug 10, Aug 20 - Oct 31, Dec 01 - Dec 31" /><tag k="address" v="Via Palamazi 11, CASSACCO" /><tag k="email" v="luisacris@virgilio.it" /><tag k="ref" v="64140" /></node><node id="-310" lat="46.0199094" lon="12.8271188" version="1"><tag k="rooms" v="2" /><tag k="address" v="Via Borgo Leone  35/1, SAN GIORGIO DELLA RICHINVELDA" /><tag k="tourism" v="guest_house" /><tag k="beds" v="4" /><tag k="fax" v="+39 3404963701" /><tag k="phone" v="+39 3404963701" /><tag k="opening_hours" v="Mar 01 - Sep 21, Oct 21 - Dec 21" /><tag k="email" v="dbgiovanni@hotmail.it" /><tag k="operator" v="Borgo Leone" /><tag k="ref" v="64520" /></node><node id="-311" lat="45.9442155" lon="12.6641059" version="1"><tag k="rooms" v="2" /><tag k="address" v="Via Nuova di Corva 87, PORDENONE" /><tag k="tourism" v="guest_house" /><tag k="beds" v="4" /><tag k="opening_hours" v="Jan 01 - Jan 03, Mar 03 - Dec 31" /><tag k="ref" v="64540" /><tag k="email" v="info@lavalada.it" /><tag k="website" v="http://www.lavalada.it" /></node><node id="-312" lat="45.7210677" lon="13.5222983" version="1"><tag k="rooms" v="3" /><tag k="operator" v="Galante Brian" /><tag k="tourism" v="guest_house" /><tag k="beds" v="6" /><tag k="opening_hours" v="Mar 21 - Oct 21" /><tag k="address" v="Via Cittanova 17, GRADO" /><tag k="email" v="albonvento@gmail.com" /><tag k="name" v="Al Bon Vento" /><tag k="ref" v="64603" /></node><node id="-313" lat="45.640759" lon="13.7720355" version="1"><tag k="rooms" v="1" /><tag k="phone" v="+39 334 3366036" /><tag k="tourism" v="guest_house" /><tag k="beds" v="2" /><tag k="fax" v="+39 334 3366036" /><tag k="address" v="Via Luigi Negrelli 2, TRIESTE" /><tag k="opening_hours" v="Jan 01 - Mar 01, Mar 08 - Aug 07, Aug 14 - Dec 31" /><tag k="operator" v="Silva Roveretto" /><tag k="name" v="Stella Marina" /><tag k="ref" v="64760" /></node><node id="-314" lat="45.8745778" lon="13.5320717" version="1"><tag k="rooms" v="3" /><tag k="address" v="Via Vicenza 23, SAGRADO" /><tag k="tourism" v="guest_house" /><tag k="beds" v="6" /><tag k="fax" v="+39 0481 969812" /><tag k="phone" v="+39 0481 969812" /><tag k="opening_hours" v="Jan 01 - Dec 31" /><tag k="email" v="giadaleghissa@yahoo.it" /><tag k="operator" v="Leghissa Giada" /><tag k="name" v="La Fojarola" /><tag k="ref" v="64920" /></node><node id="-315" lat="45.6558905" lon="13.7726122" version="1"><tag k="rooms" v="3" /><tag k="address" v="Via Carlo Ghega 3, TRIESTE" /><tag k="tourism" v="guest_house" /><tag k="beds" v="8" /><tag k="fax" v="+39 040 2601625" /><tag k="phone" v="+39 040 2601625" /><tag k="opening_hours" v="Feb 01 - Feb 15, Mar 01 - Dec 31" /><tag k="email" v="info@66trieste.com" /><tag k="operator" v="Radovancev Jelena" /><tag k="ref" v="65002" /></node><node id="-316" lat="46.4312156" lon="13.0188013" version="1"><tag k="rooms" v="1" /><tag k="phone" v="+39 043340971" /><tag k="tourism" v="guest_house" /><tag k="beds" v="2" /><tag k="fax" v="+39 043340971" /><tag k="address" v="Via Monte Sernio 3, TOLMEZZO" /><tag k="opening_hours" v="Jan 01 - Dec 31" /><tag k="operator" v="Orlando Daniela" /><tag k="ref" v="65120" /></node><node id="-317" lat="45.9008472" lon="12.9789134" version="1"><tag k="rooms" v="3" /><tag k="operator" v="Tammaro Massimo" /><tag k="tourism" v="guest_house" /><tag k="beds" v="8" /><tag k="opening_hours" v="Mar 01 - Nov 15" /><tag k="address" v="Via Due Platani 15, VARMO" /><tag k="name" v="Villa Bartolini" /><tag k="ref" v="65160" /></node><node id="-318" lat="45.6421984" lon="13.7781447" version="1"><tag k="rooms" v="1" /><tag k="address" v="Via Amerigo Vespucci  4/1, TRIESTE" /><tag k="tourism" v="guest_house" /><tag k="beds" v="2" /><tag k="fax" v="+39 346 3025822" /><tag k="phone" v="+39 346 3025822" /><tag k="opening_hours" v="Jan 01 - Feb 07, Feb 15 - Jun 25, Jul 02 - Dec 31" /><tag k="email" v="tommasinimanuela@live.com" /><tag k="operator" v="Manuela Tommasini" /><tag k="name" v="Atema" /><tag k="ref" v="65200" /></node><node id="-319" lat="46.075645" lon="13.2392088" version="1"><tag k="rooms" v="3" /><tag k="address" v="Via Gorizia 51, UDINE" /><tag k="tourism" v="guest_house" /><tag k="beds" v="7" /><tag k="fax" v="+39 347 7770474" /><tag k="phone" v="+39 347 7770474" /><tag k="opening_hours" v="Jan 01 - Dec 31" /><tag k="email" v="info@civico51.it" /><tag k="operator" v="Merlo Angela" /><tag k="name" v="Civico 51" /><tag k="ref" v="65201" /></node><node id="-320" lat="45.8870453" lon="13.498587" version="1"><tag k="rooms" v="2" /><tag k="address" v="Viale Trieste 40, GRADISCA DISONZO" /><tag k="tourism" v="guest_house" /><tag k="beds" v="5" /><tag k="fax" v="+39 0481 99899" /><tag k="phone" v="+39 0481 99899" /><tag k="opening_hours" v="Jan 01 - Jan 31, Mar 01 - Dec 31" /><tag k="email" v="furiogaudiano@yahoo.it" /><tag k="operator" v="Gaudiano Furio" /><tag k="name" v="Eggenberg" /><tag k="ref" v="65300" /></node><node id="-321" lat="45.7758145" lon="13.1684867" version="1"><tag k="fax" v="+39 0431 67607" /><tag k="phone" v="+39 0431 67607" /><tag k="email" v="simon.canciani@gmail.com" /><tag k="name" v="B &amp; B da Simon" /><tag k="website" v="http://www.bb-dasimon.flazio.com" /><tag k="rooms" v="2" /><tag k="address" v="Via Nimis 9, CARLINO" /><tag k="tourism" v="guest_house" /><tag k="beds" v="4" /><tag k="opening_hours" v="Jan 01 - Jan 31, Apr 01 - Oct 31, Dec 01 - Dec 31" /><tag k="ref" v="65381" /><tag k="operator" v="Canciani Simonetta" /></node><node id="-322" lat="45.9606047" lon="12.6692051" version="1"><tag k="rooms" v="3" /><tag k="address" v="Via Beata Domicilla 17, PORDENONE" /><tag k="tourism" v="guest_house" /><tag k="beds" v="4" /><tag k="opening_hours" v="Jan 10 - Jul 03, Jul 11 - Dec 30" /><tag k="ref" v="65480" /><tag k="email" v="santosh_sadeha@yahoo.it" /></node><node id="-323" lat="45.7737327" lon="13.410365" version="1"><tag k="rooms" v="1" /><tag k="operator" v="Timpano Manuela" /><tag k="ref" v="65701" /><tag k="tourism" v="guest_house" /><tag k="beds" v="4" /><tag k="opening_hours" v="Feb 01 - Feb 14, Mar 06 - Mar 13, Mar 19 - Oct 16, Oct 29 - Nov 06" /><tag k="address" v="Via don Carmelo Weffort 10, FIUMICELLO" /><tag k="email" v="madi2008@alice.it" /><tag k="website" v="http://www.villamadi.com" /></node><node id="-324" lat="45.7413874" lon="13.0628437" version="1"><tag k="rooms" v="3" /><tag k="address" v="Via Canedo 2, PRECENICCO" /><tag k="tourism" v="guest_house" /><tag k="beds" v="6" /><tag k="fax" v="+39 3484441464" /><tag k="phone" v="+39 3484441464" /><tag k="opening_hours" v="Feb 01 - Nov 30" /><tag k="email" v="virginiaranch@yahoo.it" /><tag k="operator" v="Virginia Ranch" /><tag k="ref" v="65940" /></node><node id="-325" lat="45.6655798" lon="13.7723741" version="1"><tag k="rooms" v="3" /><tag k="address" v="Piazza tra i Rivi 5, TRIESTE" /><tag k="tourism" v="guest_house" /><tag k="beds" v="4" /><tag k="fax" v="+39 3939000143" /><tag k="phone" v="+39 3939000143" /><tag k="opening_hours" v="Jan 01 - Jan 10, Jan 17 - Jul 31, Aug 08 - Dec 31" /><tag k="email" v="trairivi@gmail.com" /><tag k="operator" v="I Rivi" /><tag k="ref" v="66061" /></node><node id="-326" lat="46.1455251" lon="13.0920519" version="1"><tag k="rooms" v="2" /><tag k="operator" v="Presello Marco" /><tag k="ref" v="66080" /><tag k="tourism" v="guest_house" /><tag k="beds" v="7" /><tag k="opening_hours" v="Mar 01 - Dec 31" /><tag k="address" v="Via San Daniele 7, COLLOREDO DI MONTE ALBANO" /><tag k="email" v="marco_pisi@pec.it" /><tag k="name" v="Nella Terra di Mezzo" /><tag k="website" v="http://www.nellaterradimezzo.com" /></node><node id="-327" lat="45.6457673" lon="13.7792347" version="1"><tag k="rooms" v="2" /><tag k="operator" v="Silvia Cerino" /><tag k="tourism" v="guest_house" /><tag k="beds" v="6" /><tag k="opening_hours" v="Mar 01 - Dec 31" /><tag k="address" v="Via Filippo Corridoni 12, TRIESTE" /><tag k="email" v="cerisil@libero.it" /><tag k="name" v="Cerino" /><tag k="ref" v="66280" /></node><node id="-328" lat="46.09079" lon="13.2026948" version="1"><tag k="rooms" v="2" /><tag k="address" v="Via Chiavris 12, TAVAGNACCO" /><tag k="tourism" v="guest_house" /><tag k="beds" v="6" /><tag k="opening_hours" v="Jan 01 - Jan 17, Feb 01 - Feb 28, Mar 15 - Jul 31, Sep 01 - Dec 31" /><tag k="ref" v="66402" /><tag k="email" v="chevanton7@gmail.com" /></node><node id="-329" lat="45.6614511" lon="13.7745426" version="1"><tag k="rooms" v="2" /><tag k="operator" v="Frizzi Ingrid" /><tag k="tourism" v="guest_house" /><tag k="beds" v="5" /><tag k="opening_hours" v="Mar 18 - Dec 31" /><tag k="address" v="Vicolo dei Gattorno 2, TRIESTE" /><tag k="email" v="elisabethf116@gmail.com" /><tag k="name" v="Apartment Elisabeth" /><tag k="ref" v="66520" /></node><node id="-330" lat="45.8941312" lon="12.8857506" version="1"><tag k="rooms" v="3" /><tag k="operator" v="Trevisan Alessandro" /><tag k="tourism" v="guest_house" /><tag k="beds" v="4" /><tag k="opening_hours" v="Jan 01 - Jun 30, Sep 01 - Dec 31" /><tag k="address" v="Località Santa Sabina 10, SAN VITO AL TAGLIAMENTO" /><tag k="email" v="info.bebchiarodiluna@gmail.com" /><tag k="name" v="Chiaro di Luna" /><tag k="ref" v="66680" /></node><node id="-331" lat="45.6529668" lon="13.7725251" version="1"><tag k="fax" v="+39 347 4449936" /><tag k="phone" v="+39 347 4449936" /><tag k="email" v="andreagargano@libero.it" /><tag k="name" v="Lo Studio di Joyce" /><tag k="website" v="http://www.lostudiodijoyce.it" /><tag k="rooms" v="3" /><tag k="address" v="via Roma 20, TRIESTE" /><tag k="tourism" v="guest_house" /><tag k="beds" v="7" /><tag k="opening_hours" v="Apr 14 - May 02, May 06 - Nov 10, Nov 14 - Dec 31" /><tag k="ref" v="66781" /><tag k="operator" v="Andrea Gargano" /></node><node id="-332" lat="45.6883938" lon="13.7763468" version="1"><tag k="rooms" v="3" /><tag k="address" v="Via Carsia  34/7, TRIESTE" /><tag k="tourism" v="guest_house" /><tag k="beds" v="4" /><tag k="fax" v="+39 348 3145904" /><tag k="phone" v="+39 348 3145904" /><tag k="opening_hours" v="May 02 - Nov 15, Dec 01 - Dec 31" /><tag k="email" v="guraziuzef@gmail.com" /><tag k="operator" v="Zef Gurasiu" /><tag k="name" v="Carsia B&amp;B" /><tag k="ref" v="66800" /></node><node id="-333" lat="46.1774149" lon="12.8165757" version="1"><tag k="rooms" v="2" /><tag k="address" v="Via del Capitel 4, SEQUALS" /><tag k="tourism" v="guest_house" /><tag k="beds" v="4" /><tag k="fax" v="+39 042 793587" /><tag k="phone" v="+39 042 793587" /><tag k="opening_hours" v="Jan 01 - Dec 31" /><tag k="email" v="sassodoto@pec.coldiretti.it" /><tag k="operator" v="Zara Paolo" /><tag k="name" v="Bed And Breakfast da Paolo" /><tag k="ref" v="66841" /></node><node id="-334" lat="45.7894016" lon="13.3996993" version="1"><tag k="rooms" v="3" /><tag k="operator" v="Salvini Cristina" /><tag k="ref" v="66861" /><tag k="tourism" v="guest_house" /><tag k="beds" v="6" /><tag k="opening_hours" v="Jan 01 - Jan 10, Apr 01 - Jun 12, Jun 19 - Sep 04, Sep 11 - Nov 06, Dec 01 - Dec 31" /><tag k="address" v="Via Giacomo Matteotti 36, FIUMICELLO" /><tag k="email" v="alecrisara@gmail.com" /><tag k="name" v="Tibu" /><tag k="website" v="http://bbtibu.it" /></node><node id="-335" lat="45.9620958" lon="13.4627755" version="1"><tag k="rooms" v="1" /><tag k="operator" v="Gaeta Ciro" /><tag k="tourism" v="guest_house" /><tag k="beds" v="3" /><tag k="opening_hours" v="Jan 01 - Dec 31" /><tag k="address" v="Via Colombicchio  4/TER, CORMONS" /><tag k="email" v="cirogaeta@alice.it" /><tag k="name" v="Sunny S House" /><tag k="ref" v="66901" /></node><node id="-336" lat="45.6819268" lon="13.795804" version="1"><tag k="rooms" v="2" /><tag k="phone" v="+39 349 28888708" /><tag k="tourism" v="guest_house" /><tag k="beds" v="5" /><tag k="fax" v="+39 349 28888708" /><tag k="address" v="Via di Conconello 67, TRIESTE" /><tag k="opening_hours" v="May 09 - Nov 29, Dec 07 - Dec 31" /><tag k="email" v="l.cicia@icloud.com" /><tag k="ref" v="67040" /></node><node id="-337" lat="45.6416424" lon="13.7724432" version="1"><tag k="rooms" v="1" /><tag k="address" v="Via dei Navali 28, TRIESTE" /><tag k="tourism" v="guest_house" /><tag k="beds" v="2" /><tag k="fax" v="+39 040 309067" /><tag k="phone" v="+39 040 309067" /><tag k="opening_hours" v="Jun 01 - Oct 30" /><tag k="email" v="licia.davanzo@gmail.com" /><tag k="operator" v="Caterina Cinello" /><tag k="ref" v="67100" /></node><node id="-338" lat="46.2216901" lon="13.0671008" version="1"><tag k="rooms" v="2" /><tag k="address" v="Via Gravate 2, OSOPPO" /><tag k="tourism" v="guest_house" /><tag k="beds" v="5" /><tag k="fax" v="+39 0432 986224" /><tag k="phone" v="+39 0432 986224" /><tag k="opening_hours" v="Jun 01 - Oct 01" /><tag k="email" v="nadja.pittino@pec.it" /><tag k="operator" v="Pittino Nadja" /><tag k="name" v="Al Vecchio Glicine" /><tag k="ref" v="67180" /></node><node id="-339" lat="45.9168088" lon="13.4251084" version="1"><tag k="rooms" v="2" /><tag k="operator" v="Armone Patrizia" /><tag k="tourism" v="guest_house" /><tag k="beds" v="4" /><tag k="opening_hours" v="Mar 15 - Aug 30, Oct 01 - Dec 31" /><tag k="address" v="Via Scuole 5, MEDEA" /><tag k="name" v="Bed &amp; Breakfast East Wind" /><tag k="ref" v="67221" /></node><node id="-340" lat="46.5086559" lon="13.5343301" version="1"><tag k="rooms" v="4" /><tag k="address" v="Via Lussari  18/D, TARVISIO" /><tag k="ref" v="67280" /><tag k="tourism" v="guest_house" /><tag k="beds" v="8" /><tag k="fax" v="+39 348 2564748" /><tag k="phone" v="+39 348 2564748" /><tag k="opening_hours" v="Jan 01 - Dec 31" /><tag k="email" v="info@albuonditarvisio.com" /><tag k="operator" v="Cillia Loredana" /><tag k="website" v="http://www.albuonditarvisio.com" /></node><node id="-341" lat="45.6459424" lon="13.790857" version="1"><tag k="rooms" v="2" /><tag k="address" v="Via Giusto dei Girardi 7, TRIESTE" /><tag k="tourism" v="guest_house" /><tag k="beds" v="4" /><tag k="fax" v="+39 040 944553" /><tag k="phone" v="+39 040 944553" /><tag k="opening_hours" v="Jun 01 - Aug 31, Sep 15 - Oct 15, Dec 01 - Dec 31" /><tag k="email" v="elloy@tin.it" /><tag k="operator" v="De Leichenfeld" /><tag k="ref" v="67301" /></node><node id="-342" lat="45.6556995" lon="13.7994961" version="1"><tag k="rooms" v="2" /><tag k="address" v="Via San Primo 24, TRIESTE" /><tag k="tourism" v="guest_house" /><tag k="beds" v="6" /><tag k="fax" v="+39 040 569946" /><tag k="phone" v="+39 040 569946" /><tag k="opening_hours" v="Jun 15 - Oct 31, Nov 15 - Dec 31" /><tag k="email" v="elvio.tonsi@gmail.com" /><tag k="operator" v="Elvio Tonsi" /><tag k="name" v="Dream 22" /><tag k="ref" v="67360" /></node><node id="-343" lat="45.6542546" lon="13.7885402" version="1"><tag k="rooms" v="2" /><tag k="operator" v="Diego Duratorre" /><tag k="tourism" v="guest_house" /><tag k="beds" v="5" /><tag k="opening_hours" v="Jun 01 - Dec 31" /><tag k="address" v="Via Giulia 39, TRIESTE" /><tag k="email" v="diego1512@icloud.com" /><tag k="name" v="Area 39" /><tag k="ref" v="67361" /></node><node id="-344" lat="45.669054" lon="13.7632552" version="1"><tag k="rooms" v="2" /><tag k="address" v="Salita alla Madonna di Gretta 19, TRIESTE" /><tag k="tourism" v="guest_house" /><tag k="beds" v="3" /><tag k="fax" v="+39 040 416243" /><tag k="phone" v="+39 040 416243" /><tag k="opening_hours" v="Jul 15 - Nov 15" /><tag k="email" v="giorgio.schumann@alice.it" /><tag k="operator" v="Giorgio Schumann" /><tag k="name" v="Art&amp;breakfast Atelier" /><tag k="ref" v="67482" /></node><node id="-345" lat="45.9677887" lon="12.7650187" version="1"><tag k="rooms" v="2" /><tag k="operator" v="Vecchio Glicine" /><tag k="tourism" v="guest_house" /><tag k="beds" v="5" /><tag k="opening_hours" v="Jan 01 - Dec 31" /><tag k="address" v="Via Saciletti 17, ZOPPOLA" /><tag k="email" v="orianafavretti@alice.it" /><tag k="ref" v="67483" /></node><node id="-346" lat="46.4100594" lon="13.0129878" version="1"><tag k="rooms" v="1" /><tag k="operator" v="Cosetti Gabriella" /><tag k="tourism" v="guest_house" /><tag k="beds" v="2" /><tag k="opening_hours" v="Jan 01 - Dec 31" /><tag k="address" v="Via della Vittoria 19, TOLMEZZO" /><tag k="email" v="cosetti@alice.it" /><tag k="name" v="La Mansarda di Gabri" /><tag k="ref" v="67620" /></node><node id="-347" lat="45.6623301" lon="13.7701027" version="1"><tag k="rooms" v="3" /><tag k="phone" v="+39 040 411620" /><tag k="ref" v="67683" /><tag k="tourism" v="guest_house" /><tag k="beds" v="8" /><tag k="fax" v="+39 040 411620" /><tag k="address" v="Viale Miramare 27, TRIESTE" /><tag k="opening_hours" v="Jul 01 - Nov 28, Dec 05 - Dec 31" /><tag k="email" v="goldenrooms.ts@gmail.com" /><tag k="website" v="https://www.facebook.com/goldenroomsts/" /></node><node id="-348" lat="45.6624957" lon="13.7700051" version="1"><tag k="rooms" v="3" /><tag k="address" v="Viale Miramare 29, TRIESTE" /><tag k="tourism" v="guest_house" /><tag k="beds" v="8" /><tag k="fax" v="+39 3461392966" /><tag k="phone" v="+39 3461392966" /><tag k="opening_hours" v="Jul 05 - Dec 31" /><tag k="email" v="lacogoma29@gmail.com" /><tag k="operator" v="Eleonora Callipo" /><tag k="name" v="La Cogoma" /><tag k="ref" v="67684" /></node><node id="-349" lat="46.5058391" lon="13.5663975" version="1"><tag k="rooms" v="1" /><tag k="address" v="Via Armando Diaz 18, TARVISIO" /><tag k="tourism" v="guest_house" /><tag k="beds" v="2" /><tag k="fax" v="+39 331 5855856" /><tag k="phone" v="+39 331 5855856" /><tag k="opening_hours" v="Jan 01 - Apr 30, Jun 01 - Sep 30, Dec 01 - Dec 31" /><tag k="email" v="dante.tosoni@alice.it" /><tag k="operator" v="Tosoni Dante" /><tag k="name" v="B&amp;B da Dante" /><tag k="ref" v="67801" /></node><node id="-350" lat="46.1824558" lon="12.9787438" version="1"><tag k="rooms" v="1" /><tag k="operator" v="Sivilotti Micaela" /><tag k="tourism" v="guest_house" /><tag k="beds" v="3" /><tag k="opening_hours" v="Jan 01 - Jan 31, Apr 01 - Oct 30, Dec 01 - Dec 31" /><tag k="address" v="Via Muris 37, RAGOGNA" /><tag k="email" v="micaela.sivi@gmail.com" /><tag k="name" v="Armonie" /><tag k="ref" v="67900" /></node><node id="-351" lat="45.6839925" lon="13.7569903" version="1"><tag k="rooms" v="4" /><tag k="phone" v="+39 040 414625" /><tag k="tourism" v="guest_house" /><tag k="beds" v="8" /><tag k="fax" v="+39 040 414625" /><tag k="address" v="Via Ulderico Moro 1, TRIESTE" /><tag k="opening_hours" v="Aug 02 - Dec 31" /><tag k="operator" v="Guido Samsa" /><tag k="name" v="Villa Inn" /><tag k="ref" v="68000" /></node><node id="-352" lat="45.6574966" lon="13.7882868" version="1"><tag k="rooms" v="1" /><tag k="address" v="Via Fabio Severo  90/1, TRIESTE" /><tag k="tourism" v="guest_house" /><tag k="beds" v="3" /><tag k="fax" v="+39 328 1551487" /><tag k="phone" v="+39 328 1551487" /><tag k="opening_hours" v="Aug 25 - Nov 20, Nov 28 - Dec 31" /><tag k="email" v="danielmiccu@gmail.com" /><tag k="operator" v="Felicia Simeoli" /><tag k="name" v="Felicia" /><tag k="ref" v="68140" /></node><node id="-353" lat="46.2033326" lon="13.3438947" version="1"><tag k="rooms" v="3" /><tag k="address" v="Borgo Cancellier 25, ATTIMIS" /><tag k="tourism" v="guest_house" /><tag k="beds" v="5" /><tag k="fax" v="+39 4321847986" /><tag k="phone" v="+39 4321847986" /><tag k="opening_hours" v="Mar 21 - May 22, Jun 03 - Jun 16, Jun 20 - Sep 11, Sep 26 - Oct 30" /><tag k="email" v="christian.cericco@hotmail.it" /><tag k="operator" v="Cericco Christian" /><tag k="name" v="Agane" /><tag k="ref" v="68300" /></node><node id="-354" lat="45.9677007" lon="12.4339006" version="1"><tag k="rooms" v="2" /><tag k="operator" v="Osta Graziella" /><tag k="tourism" v="guest_house" /><tag k="beds" v="4" /><tag k="opening_hours" v="May 20 - Oct 20, Dec 01 - Dec 31" /><tag k="address" v="Piazza del Carmine  6/A, CANEVA" /><tag k="ref" v="68340" /></node><node id="-355" lat="45.9683234" lon="12.4307577" version="1"><tag k="rooms" v="4" /><tag k="operator" v="Posocco Stefania" /><tag k="ref" v="68341" /><tag k="tourism" v="guest_house" /><tag k="beds" v="8" /><tag k="opening_hours" v="Jun 28 - Nov 03, Nov 20 - Dec 31" /><tag k="address" v="Via dei Figherat 9, CANEVA" /><tag k="email" v="info@lamolacaneva.it" /><tag k="name" v="B&amp;B &quot;la Mola &quot;" /><tag k="website" v="http://www.lamolacaneva.it" /></node><node id="-356" lat="46.3118258" lon="13.0496497" version="1"><tag k="rooms" v="3" /><tag k="address" v="Via Napoleonica 7, TRASAGHIS" /><tag k="tourism" v="guest_house" /><tag k="beds" v="5" /><tag k="fax" v="+39 3401001009" /><tag k="phone" v="+39 3401001009" /><tag k="opening_hours" v="Mar 01 - Oct 31" /><tag k="email" v="bebpalar@gmail.com" /><tag k="operator" v="Latino Adele" /><tag k="name" v="Palar" /><tag k="ref" v="68460" /></node><node id="-357" lat="45.9608495" lon="12.6564468" version="1"><tag k="rooms" v="3" /><tag k="operator" v="Falomo Enrico" /><tag k="tourism" v="guest_house" /><tag k="beds" v="5" /><tag k="opening_hours" v="Jan 07 - Jun 14, Aug 25 - Dec 21" /><tag k="address" v="Corso Giuseppe Garibaldi 48, PORDENONE" /><tag k="email" v="daria.moro22@gmail.com" /><tag k="name" v="B &amp; B Airis" /><tag k="ref" v="68500" /></node><node id="-358" lat="46.1340808" lon="12.971313" version="1"><tag k="rooms" v="3" /><tag k="address" v="via Nazionale  37-39, SAN DANIELE DEL FRIULI" /><tag k="tourism" v="guest_house" /><tag k="beds" v="6" /><tag k="fax" v="+39 0432 956262" /><tag k="phone" v="+39 0432 956262" /><tag k="opening_hours" v="Jan 01 - Dec 31" /><tag k="email" v="monica.dececco@tiscali.it" /><tag k="operator" v="Cecco Monica" /><tag k="ref" v="68660" /></node><node id="-359" lat="45.644799" lon="13.7667247" version="1"><tag k="rooms" v="1" /><tag k="address" v="Via Giacomo Ciamician 20, TRIESTE" /><tag k="tourism" v="guest_house" /><tag k="beds" v="1" /><tag k="fax" v="+39 3396009054" /><tag k="phone" v="+39 3396009054" /><tag k="opening_hours" v="Jan 01 - Jul 14, Aug 01 - Dec 23" /><tag k="email" v="francescagandolfo@hotmail.it" /><tag k="operator" v="Francesca Gandolfo" /><tag k="name" v="A Casa di Fra" /><tag k="ref" v="68800" /></node><node id="-360" lat="45.6498499" lon="13.7750493" version="1"><tag k="rooms" v="4" /><tag k="operator" v="Paola Viano" /><tag k="tourism" v="guest_house" /><tag k="beds" v="8" /><tag k="opening_hours" v="Oct 26 - Dec 31" /><tag k="address" v="Via San Lazzaro 1, TRIESTE" /><tag k="email" v="bnbpeggytrieste@gmail.com" /><tag k="name" v="Peggy" /><tag k="ref" v="68822" /></node><node id="-361" lat="45.6493642" lon="13.7672511" version="1"><tag k="rooms" v="2" /><tag k="address" v="Via Pozzo del Mare 1, TRIESTE" /><tag k="tourism" v="guest_house" /><tag k="beds" v="5" /><tag k="fax" v="+39 040 2606497" /><tag k="phone" v="+39 040 2606497" /><tag k="opening_hours" v="Nov 10 - Dec 31" /><tag k="email" v="torrebinacaitalia@gmail.com" /><tag k="operator" v="Stefano Canato" /><tag k="name" v="Torrebianca" /><tag k="ref" v="68880" /></node><node id="-362" lat="45.679793" lon="13.3846212" version="1"><tag k="rooms" v="4" /><tag k="operator" v="Carmine Gianni" /><tag k="tourism" v="guest_house" /><tag k="beds" v="7" /><tag k="opening_hours" v="Jan 01 - Dec 31" /><tag k="address" v="Via del Tintoretto 13, GRADO" /><tag k="name" v="Casa di Mirea" /><tag k="ref" v="69100" /></node><node id="-363" lat="46.1048171" lon="13.1664544" version="1"><tag k="rooms" v="3" /><tag k="phone" v="+39 348 3704725" /><tag k="tourism" v="guest_house" /><tag k="beds" v="5" /><tag k="fax" v="+39 348 3704725" /><tag k="address" v="Via Plaino 13, MARTIGNACCO" /><tag k="opening_hours" v="Sep 20 - Nov 30" /><tag k="operator" v="Pittolo Dolores" /><tag k="name" v="Brunives" /><tag k="ref" v="69200" /></node><node id="-364" lat="45.8429979" lon="12.6153003" version="1"><tag k="rooms" v="2" /><tag k="phone" v="+39 335 303178" /><tag k="tourism" v="guest_house" /><tag k="beds" v="4" /><tag k="fax" v="+39 335 303178" /><tag k="address" v="Via Brozzette di Pozzo 9, PASIANO DI PORDENONE" /><tag k="opening_hours" v="Jan 01 - Dec 31" /><tag k="operator" v="Parcianello Lucia" /><tag k="name" v="La Casa di Lucia" /><tag k="ref" v="69421" /></node><node id="-365" lat="46.2017553" lon="12.7184982" version="1"><tag k="rooms" v="1" /><tag k="operator" v="Simonetto Giulia" /><tag k="tourism" v="guest_house" /><tag k="beds" v="3" /><tag k="fax" v="+39 347 5286854" /><tag k="phone" v="+39 347 5286854" /><tag k="opening_hours" v="Jan 01 - Dec 31" /><tag k="email" v="fattoriadimonte@gmail.com" /><tag k="name" v="B&amp;B In Fattoria" /><tag k="ref" v="69580" /></node><node id="-366" lat="46.0000062" lon="12.6559174" version="1"><tag k="rooms" v="1" /><tag k="address" v="Via dei Templari 16, SAN QUIRINO" /><tag k="tourism" v="guest_house" /><tag k="beds" v="2" /><tag k="fax" v="+39 0434 366464" /><tag k="phone" v="+39 0434 366464" /><tag k="opening_hours" v="Jan 01 - Dec 31" /><tag k="email" v="info@aitemplari.com" /><tag k="operator" v="Rosset Ivana" /><tag k="name" v="Ai Templari" /><tag k="ref" v="69620" /></node><node id="-367" lat="45.67880495" lon="13.7619331622856" version="1"><tag k="rooms" v="2" /><tag k="operator" v="Stefania Trevisan" /><tag k="tourism" v="guest_house" /><tag k="beds" v="4" /><tag k="opening_hours" v="Jan 01 - Jan 14, Feb 01 - Feb 12, Mar 01 - Oct 14, Oct 26 - Nov 04, Nov 26 - Dec 31" /><tag k="address" v="Strada del Friuli 177, TRIESTE" /><tag k="email" v="stefania1928@hotmail.it" /><tag k="name" v="Esperia" /><tag k="ref" v="69642" /></node><node id="-368" lat="45.6845778" lon="13.7571712" version="1"><tag k="rooms" v="1" /><tag k="address" v="Via Ulderico Moro  4/1, TRIESTE" /><tag k="ref" v="69643" /><tag k="tourism" v="guest_house" /><tag k="beds" v="3" /><tag k="fax" v="+39 040 421301" /><tag k="phone" v="+39 040 421301" /><tag k="opening_hours" v="Jan 01 - Dec 31" /><tag k="email" v="info@ormedibora.com" /><tag k="operator" v="Daniela Frisori" /><tag k="website" v="http://www.ormedibora.com" /></node><node id="-369" lat="45.6588238" lon="13.7751338" version="1"><tag k="rooms" v="1" /><tag k="address" v="Via Commerciale 40, TRIESTE" /><tag k="tourism" v="guest_house" /><tag k="beds" v="2" /><tag k="fax" v="+39 040 2410211" /><tag k="phone" v="+39 040 2410211" /><tag k="opening_hours" v="Jan 21 - Feb 10, Feb 27 - Jul 03, Jul 16 - Dec 15" /><tag k="email" v="franca.natur@gmail.com" /><tag k="operator" v="Franca Stefani" /><tag k="name" v="Casa Liberty" /><tag k="ref" v="69644" /></node><node id="-370" lat="45.641218" lon="13.7893385" version="1"><tag k="rooms" v="1" /><tag k="operator" v="Elisabeth Antonaglia" /><tag k="tourism" v="guest_house" /><tag k="beds" v="2" /><tag k="opening_hours" v="Feb 01 - Feb 12, Feb 17 - Mar 05, Mar 10 - Apr 02, Apr 07 - May 07, May 12 - Oct 22, Oct 27 - Nov 05, Nov 11 - Dec 10" /><tag k="address" v="Via del Ghirlandaio  22/2, TRIESTE" /><tag k="email" v="eli.antonaglia@gmail.com" /><tag k="name" v="Shabby Lullaby" /><tag k="ref" v="69820" /></node><node id="-371" lat="45.6475734" lon="13.7664002" version="1"><tag k="rooms" v="1" /><tag k="address" v="Via della Madonna del Mare 2, TRIESTE" /><tag k="tourism" v="guest_house" /><tag k="beds" v="2" /><tag k="fax" v="+39 040 4702814" /><tag k="phone" v="+39 040 4702814" /><tag k="opening_hours" v="Mar 04 - May 12, May 22 - Jun 01, Jun 19 - Sep 15, Oct 02 - Dec 31" /><tag k="email" v="andreamilio@yahoo.it" /><tag k="operator" v="Andrea Milio" /><tag k="name" v="Pepeu" /><tag k="ref" v="69980" /></node><node id="-372" lat="45.6462589" lon="13.7653971" version="1"><tag k="rooms" v="2" /><tag k="operator" v="Salvatore Amato" /><tag k="tourism" v="guest_house" /><tag k="beds" v="4" /><tag k="opening_hours" v="Feb 18 - Dec 11, Dec 16 - Dec 31" /><tag k="address" v="Via dei Fabbri 3, TRIESTE" /><tag k="email" v="totoottobre@hotmail.it" /><tag k="ref" v="69981" /></node><node id="-373" lat="45.6554073" lon="13.7727683" version="1"><tag k="rooms" v="4" /><tag k="operator" v="Alessandra Chiurco" /><tag k="tourism" v="guest_house" /><tag k="beds" v="8" /><tag k="opening_hours" v="Mar 13 - Dec 11, Dec 20 - Dec 31" /><tag k="address" v="Via Trento 15, TRIESTE" /><tag k="email" v="alessandrachiurco@gmail.com" /><tag k="name" v="Dai Muli" /><tag k="ref" v="69982" /></node><node id="-374" lat="46.1213138" lon="13.1328624" version="1"><tag k="rooms" v="2" /><tag k="operator" v="Canciani Lisa" /><tag k="tourism" v="guest_house" /><tag k="beds" v="4" /><tag k="opening_hours" v="Jan 01 - Dec 31" /><tag k="address" v="Via del Cristo 1, MORUZZO" /><tag k="name" v="A Cjase di Sandra" /><tag k="ref" v="70053" /></node><node id="-375" lat="45.6348152" lon="13.8283505" version="1"><tag k="rooms" v="1" /><tag k="operator" v="Corrado Russignani" /><tag k="tourism" v="guest_house" /><tag k="beds" v="2" /><tag k="opening_hours" v="Mar 20 - Jun 30, Jul 10 - Dec 31" /><tag k="address" v="Strada di Fiume 382, TRIESTE" /><tag k="email" v="daisy.2008@libero.it" /><tag k="name" v="Ai Pucci" /><tag k="ref" v="70120" /></node><node id="-376" lat="46.4907915" lon="13.4916288" version="1"><tag k="rooms" v="4" /><tag k="address" v="Via Alpi Giulie 4, MALBORGHETTO VALBRUNA" /><tag k="tourism" v="guest_house" /><tag k="beds" v="7" /><tag k="fax" v="+39 338 8424756" /><tag k="phone" v="+39 338 8424756" /><tag k="opening_hours" v="Jan 01 - Dec 31" /><tag k="email" v="edel.b@libero.it" /><tag k="operator" v="Giovanna Liuzzo" /><tag k="name" v="A Casa di Fuchs" /><tag k="ref" v="70240" /></node><node id="-377" lat="45.6666881" lon="13.7778167444309" version="1"><tag k="rooms" v="1" /><tag k="phone" v="+39 347 0978150" /><tag k="tourism" v="guest_house" /><tag k="beds" v="2" /><tag k="fax" v="+39 347 0978150" /><tag k="address" v="Vicolo delle Rose 49, TRIESTE" /><tag k="opening_hours" v="Apr 14 - May 18, May 25 - Jun 19, Jun 23 - Jul 08, Jul 13 - Sep 30, Oct 05 - Oct 18, Oct 27 - Nov 08, Dec 01 - Dec 12" /><tag k="operator" v="Valentina Botter" /><tag k="name" v="Valentina" /><tag k="ref" v="70241" /></node><node id="-378" lat="45.66693135" lon="13.7767032956102" version="1"><tag k="rooms" v="1" /><tag k="operator" v="Franca Boico" /><tag k="tourism" v="guest_house" /><tag k="beds" v="2" /><tag k="opening_hours" v="Apr 01 - Oct 30, Dec 01 - Dec 31" /><tag k="address" v="Vicolo delle Rose 45, TRIESTE" /><tag k="name" v="Le Rose" /><tag k="ref" v="70243" /></node><node id="-379" lat="46.0190152" lon="13.3474338" version="1"><tag k="rooms" v="1" /><tag k="operator" v="Tondolo Raffaella" /><tag k="tourism" v="guest_house" /><tag k="beds" v="2" /><tag k="opening_hours" v="Jan 01 - Oct 31, Dec 01 - Dec 31" /><tag k="address" v="Via Rieppi  29/3, BUTTRIO" /><tag k="email" v="raffy.sun@yahoo.it" /><tag k="name" v="B&amp;B" /><tag k="ref" v="70500" /></node><node id="-380" lat="46.2214398" lon="12.9683425" version="1"><tag k="rooms" v="2" /><tag k="operator" v="Coletti Bruno" /><tag k="ref" v="70580" /><tag k="tourism" v="guest_house" /><tag k="beds" v="4" /><tag k="opening_hours" v="Jan 01 - Jan 08, Jan 21 - Nov 08, Nov 21 - Dec 31" /><tag k="address" v="Via Villaggio Canada 13, FORGARIA NEL FRIULI" /><tag k="email" v="150366@gmail.com" /><tag k="name" v="La Casetta In Canadá" /><tag k="website" v="http://www.dormireinfvg.it" /></node><node id="-381" lat="45.6532601" lon="13.7833303" version="1"><tag k="rooms" v="1" /><tag k="address" v="Via Enea Silvio Piccolomini 3, TRIESTE" /><tag k="tourism" v="guest_house" /><tag k="beds" v="1" /><tag k="fax" v="+39 349 7786032" /><tag k="phone" v="+39 349 7786032" /><tag k="opening_hours" v="Mar 27 - Dec 15" /><tag k="email" v="claudia.diano81@gmail.com" /><tag k="operator" v="Claudia Diano" /><tag k="name" v="Traveller Jack" /><tag k="ref" v="70621" /></node><node id="-382" lat="45.6557761" lon="13.7950221" version="1"><tag k="rooms" v="1" /><tag k="phone" v="+39 346 9566860" /><tag k="tourism" v="guest_house" /><tag k="beds" v="2" /><tag k="fax" v="+39 346 9566860" /><tag k="address" v="Scala al Monticello 4, TRIESTE" /><tag k="opening_hours" v="Apr 30 - Aug 31, Oct 01 - Dec 31" /><tag k="operator" v="Selene Simonic" /><tag k="name" v="Da Selene" /><tag k="ref" v="70622" /></node><node id="-383" lat="46.1851804" lon="13.212846" version="1"><tag k="rooms" v="2" /><tag k="operator" v="Caselli Federica" /><tag k="tourism" v="guest_house" /><tag k="beds" v="6" /><tag k="opening_hours" v="Jan 01 - Dec 31" /><tag k="address" v="Via monte Grappa 15, TRICESIMO" /><tag k="email" v="fede_caselli@yahoo.it" /><tag k="ref" v="70860" /></node><node id="-384" lat="45.9060659" lon="13.5191168" version="1"><tag k="rooms" v="2" /><tag k="address" v="Via Dante Alighieri 42, FARRA DISONZO" /><tag k="tourism" v="guest_house" /><tag k="beds" v="4" /><tag k="fax" v="+39 340 4960722" /><tag k="phone" v="+39 340 4960722" /><tag k="opening_hours" v="Mar 01 - Nov 30" /><tag k="email" v="valebrumat@gmail.com" /><tag k="operator" v="Brumat Valentina" /><tag k="name" v="News Home" /><tag k="ref" v="70961" /></node><node id="-385" lat="45.6859842" lon="13.7486673" version="1"><tag k="rooms" v="2" /><tag k="address" v="Viale Miramare  229/1, TRIESTE" /><tag k="tourism" v="guest_house" /><tag k="beds" v="3" /><tag k="fax" v="+39 040 44718" /><tag k="phone" v="+39 040 44718" /><tag k="opening_hours" v="May 02 - Dec 31" /><tag k="email" v="renato.ressa@libero.it" /><tag k="operator" v="Renato Ressa" /><tag k="name" v="Magnolia" /><tag k="ref" v="71121" /></node><node id="-386" lat="45.6690437" lon="13.7739594" version="1"><tag k="rooms" v="4" /><tag k="address" v="Via dei Moreri 86, TRIESTE" /><tag k="ref" v="71220" /><tag k="tourism" v="guest_house" /><tag k="beds" v="8" /><tag k="fax" v="+39 334 3327148" /><tag k="phone" v="+39 334 3327148" /><tag k="opening_hours" v="Jun 15 - Dec 31" /><tag k="email" v="info@casasconta.it" /><tag k="operator" v="Alberto Liviani" /><tag k="website" v="http://WWW.CASASCONTA.IT" /></node><node id="-387" lat="45.6473009" lon="13.7825195" version="1"><tag k="rooms" v="2" /><tag k="address" v="Via Ugo Foscolo 20, TRIESTE" /><tag k="tourism" v="guest_house" /><tag k="beds" v="5" /><tag k="fax" v="+39 334 8165595" /><tag k="phone" v="+39 334 8165595" /><tag k="opening_hours" v="Jun 01 - Nov 05, Dec 06 - Dec 31" /><tag k="email" v="gugliermetto65@gmail.com" /><tag k="operator" v="Luigi Gugliermetto" /><tag k="ref" v="71221" /></node><node id="-388" lat="45.96211005" lon="13.6154388101601" version="1"><tag k="rooms" v="2" /><tag k="operator" v="Orzan Francesca" /><tag k="tourism" v="guest_house" /><tag k="beds" v="4" /><tag k="opening_hours" v="Jan 01 - Dec 31" /><tag k="address" v="Località Piuma 30, GORIZIA" /><tag k="email" v="villateuffenbach@gmail.com" /><tag k="name" v="B&amp;B Teuffenbach" /><tag k="ref" v="71282" /></node><node id="-389" lat="46.0823531" lon="13.4278437" version="1"><tag k="rooms" v="4" /><tag k="operator" v="Armellini Gianna" /><tag k="tourism" v="guest_house" /><tag k="beds" v="8" /><tag k="opening_hours" v="Apr 01 - Oct 31" /><tag k="address" v="Via San Giorgio  21/1, CIVIDALE DEL FRIULI" /><tag k="email" v="gianna.armellini@gmail.com" /><tag k="name" v="Ca Neva" /><tag k="ref" v="71524" /></node><node id="-390" lat="46.072371" lon="13.4346002" version="1"><tag k="rooms" v="3" /><tag k="operator" v="Rucli Manuela" /><tag k="tourism" v="guest_house" /><tag k="beds" v="8" /><tag k="opening_hours" v="Jan 01 - Dec 31" /><tag k="address" v="Via Gagliano  30/B, CIVIDALE DEL FRIULI" /><tag k="email" v="bandbergira@gmail.com" /><tag k="ref" v="71561" /></node><node id="-391" lat="45.6446443" lon="13.7698699" version="1"><tag k="rooms" v="1" /><tag k="address" v="Via Riccardo Bazzoni 15, TRIESTE" /><tag k="tourism" v="guest_house" /><tag k="beds" v="4" /><tag k="fax" v="+39 338 5640049" /><tag k="phone" v="+39 338 5640049" /><tag k="opening_hours" v="Jul 21 - Dec 31" /><tag k="email" v="martafinzi@yahoo.it" /><tag k="operator" v="Marta Finzi" /><tag k="name" v="Villa Moore" /><tag k="ref" v="71643" /></node><node id="-392" lat="45.6461483" lon="13.7750121" version="1"><tag k="rooms" v="1" /><tag k="operator" v="Goran Pajc" /><tag k="tourism" v="guest_house" /><tag k="beds" v="2" /><tag k="opening_hours" v="Jun 01 - Oct 31, Dec 01 - Dec 31" /><tag k="address" v="Via della fornace 7, TRIESTE" /><tag k="email" v="goran_paic@yahoo.it" /><tag k="name" v="San Giusto" /><tag k="ref" v="71647" /></node><node id="-393" lat="45.9237443" lon="13.1341606" version="1"><tag k="rooms" v="2" /><tag k="operator" v="Deana Gilberto" /><tag k="tourism" v="guest_house" /><tag k="beds" v="3" /><tag k="opening_hours" v="Jan 01 - Dec 31" /><tag k="address" v="Via Isonzo  17/1, TALMASSONS" /><tag k="name" v="Bed &amp; Breakast &quot;nikita&quot;" /><tag k="ref" v="71704" /></node><node id="-394" lat="46.1534506" lon="13.0010281" version="1"><tag k="rooms" v="2" /><tag k="address" v="Via monsignor Egidio Fant 44, SAN DANIELE DEL FRIULI" /><tag k="tourism" v="guest_house" /><tag k="beds" v="4" /><tag k="fax" v="+39 0427 808873" /><tag k="phone" v="+39 0427 808873" /><tag k="opening_hours" v="Jan 01 - Dec 31" /><tag k="email" v="fabi.pigat@gmail.com" /><tag k="operator" v="Pigat Fabiola" /><tag k="name" v="B &amp; B Cuore" /><tag k="ref" v="71740" /></node><node id="-395" lat="45.6682851" lon="13.7640667" version="1"><tag k="rooms" v="1" /><tag k="address" v="Via Tolmezzo 5, TRIESTE" /><tag k="tourism" v="guest_house" /><tag k="beds" v="4" /><tag k="fax" v="+39 040 417838" /><tag k="phone" v="+39 040 417838" /><tag k="opening_hours" v="May 16 - Dec 11" /><tag k="email" v="susannasalvador2016@gmail.com" /><tag k="operator" v="Susanna Salvador" /><tag k="name" v="La Stanza Mansarda Delle Meraviglie" /><tag k="ref" v="71760" /></node><node id="-396" lat="45.6447035" lon="13.7779505" version="1"><tag k="rooms" v="1" /><tag k="address" v="Via Paolo Diacono 5, TRIESTE" /><tag k="tourism" v="guest_house" /><tag k="beds" v="2" /><tag k="fax" v="+39 388 8690423" /><tag k="phone" v="+39 388 8690423" /><tag k="opening_hours" v="Aug 11 - Nov 12, Nov 20 - Dec 31" /><tag k="email" v="bloomsroom2017@gmail.com" /><tag k="operator" v="Mariangela Vella" /><tag k="ref" v="72067" /></node><node id="-397" lat="45.8158203" lon="13.3380989" version="1"><tag k="rooms" v="1" /><tag k="operator" v="Zorzenon Alessandra" /><tag k="tourism" v="guest_house" /><tag k="beds" v="2" /><tag k="opening_hours" v="Jan 01 - Dec 31" /><tag k="address" v="Via dei Campi 18, CERVIGNANO DEL FRIULI" /><tag k="email" v="alessandrasorsenon@gmail.com" /><tag k="name" v="Casa Giacinta" /><tag k="ref" v="72082" /></node><node id="-398" lat="45.6403915" lon="13.7780115" version="1"><tag k="rooms" v="1" /><tag k="address" v="Via Carbonara 4, TRIESTE" /><tag k="tourism" v="guest_house" /><tag k="beds" v="2" /><tag k="fax" v="+39 349 8357784" /><tag k="phone" v="+39 349 8357784" /><tag k="opening_hours" v="Aug 01 - Nov 10, Dec 01 - Dec 31" /><tag k="email" v="cipled82@gmail.com" /><tag k="operator" v="Alessandro Zambon" /><tag k="name" v="Al Torzolon" /><tag k="ref" v="72101" /></node><node id="-399" lat="45.6523471" lon="13.8044501" version="1"><tag k="rooms" v="3" /><tag k="address" v="Via Carlo Antoni 24, TRIESTE" /><tag k="tourism" v="guest_house" /><tag k="beds" v="5" /><tag k="fax" v="+39 040 572932" /><tag k="phone" v="+39 040 572932" /><tag k="opening_hours" v="Aug 02 - Dec 20" /><tag k="email" v="virginia777.tc@gmail.com" /><tag k="operator" v="Castellanos Escandon" /><tag k="ref" v="72102" /></node><node id="-400" lat="45.648365" lon="13.8164198" version="1"><tag k="rooms" v="1" /><tag k="address" v="Strada per Longera 215, TRIESTE" /><tag k="tourism" v="guest_house" /><tag k="beds" v="2" /><tag k="fax" v="+39 040 576213" /><tag k="phone" v="+39 040 576213" /><tag k="opening_hours" v="Aug 01 - Dec 31" /><tag k="email" v="emanuelabrianti@tiscali.it" /><tag k="operator" v="Giorgia Brianti" /><tag k="ref" v="72103" /></node><node id="-401" lat="46.1558888" lon="13.2065085" version="1"><tag k="rooms" v="3" /><tag k="address" v="Via Belvedere 17, TRICESIMO" /><tag k="tourism" v="guest_house" /><tag k="beds" v="6" /><tag k="fax" v="+39 0432 854788" /><tag k="phone" v="+39 0432 854788" /><tag k="opening_hours" v="Mar 15 - Nov 15" /><tag k="email" v="info@francesca-agosto.it" /><tag k="operator" v="Agosto Francesca" /><tag k="name" v="La Casa Blu di Monasteto" /><tag k="ref" v="72160" /></node><node id="-402" lat="45.729263" lon="13.5284802" version="1"><tag k="rooms" v="2" /><tag k="address" v="Via Verteneglio 7, GRADO" /><tag k="tourism" v="guest_house" /><tag k="beds" v="5" /><tag k="fax" v="+39 0431 88169" /><tag k="phone" v="+39 0431 88169" /><tag k="opening_hours" v="Jan 01 - Dec 31" /><tag k="email" v="nereozeper@gmail.com" /><tag k="operator" v="Zeper Nereo" /><tag k="name" v="Al Sol Levante" /><tag k="ref" v="72221" /></node><node id="-403" lat="45.9163731" lon="12.6544023" version="1"><tag k="rooms" v="4" /><tag k="address" v="Via San Pietro in Piagno 4, AZZANO DECIMO" /><tag k="ref" v="72222" /><tag k="tourism" v="guest_house" /><tag k="beds" v="8" /><tag k="fax" v="+39 0434 646288" /><tag k="phone" v="+39 0434 646288" /><tag k="opening_hours" v="Feb 01 - Jul 31, Sep 01 - Oct 31, Dec 01 - Dec 31" /><tag k="email" v="acampagnutta@gmail.com" /><tag k="operator" v="Campagnutta Elio" /><tag k="website" v="http://www.bblabarchessa.it" /></node><node id="-404" lat="45.8008939" lon="13.5267525" version="1"><tag k="rooms" v="2" /><tag k="operator" v="Piazza Laura" /><tag k="tourism" v="guest_house" /><tag k="beds" v="2" /><tag k="opening_hours" v="Jan 01 - Dec 31" /><tag k="address" v="Via Aulo Manlio 41, MONFALCONE" /><tag k="name" v="B &amp; B Il Ciliegio" /><tag k="ref" v="72300" /></node></osm>